{"version": 0.6, "generator": "Overpass API 0.7.59 e21c39fe", "osm3s": {"timestamp_osm_base": "2023-03-01T09:40:39Z", "copyright": "The data included in this document is from www.openstreetmap.org. The data is made available under ODbL."}, "elements": [{"type": "node", "id": 309948572, "lat": 47.3527926, "lon": 16.433644}, {"type": "node", "id": 309948573, "lat": 47.3528297, "lon": 16.4336337}, {"type": "node", "id": 309948582, "lat": 47.3528495, "lon": 16.4337915}, {"type": "node", "id": 309948583, "lat": 47.3528131, "lon": 16.4338016}, {"type": "node", "id": 469760149, "lat": 47.3973355, "lon": 16.4234716, "tags": {"ele": "504", "height": "25", "man_made": "tower", "name": "Margarethenwarte", "name:hu": "Margit-kil\u00e1t\u00f3", "tourism": "viewpoint", "tower:type": "observation", "wheelchair": "no", "wikimedia_commons": "Category:Margarethenwarte"}}, {"type": "node", "id": 617373084, "lat": 47.6664506, "lon": 16.56902, "tags": {"man_made": "tower", "name": "K\u00e1roly-k\u00edl\u00e1t\u00f3", "opening_hours": "Nov-Feb 09:00-16:00;Mar 09:00-17:00;Apr,Oct 09:00-18:00;Sep 09:00-19:00;May-Aug 09:00-20:00; PH closed", "tourism": "viewpoint", "tower:type": "observation", "url": "http://turistautak.hu/poi.php?id=514", "wikidata": "Q1123376", "wikipedia": "hu:K\u00e1roly-kil\u00e1t\u00f3 (Sopron)"}}, {"type": "node", "id": 652432342, "lat": 47.6733671, "lon": 16.5601731, "tags": {"name": "Vas-hegyi p\u00e1holy", "tourism": "viewpoint"}}, {"type": "node", "id": 897841093, "lat": 47.326427, "lon": 16.3740948, "tags": {"name": "Baumwipfelweg Althodis", "tourism": "viewpoint"}}, {"type": "node", "id": 1041254337, "lat": 47.6742641, "lon": 16.5717032, "tags": {"man_made": "tower", "name": "S\u00f6rh\u00e1zdombi kil\u00e1t\u00f3", "tourism": "viewpoint", "tower:type": "observation", "url": "http://turistautak.hu/poi.php?id=12895", "wikidata": "Q1315442", "wikipedia": "hu:S\u00f6rh\u00e1zdombi kil\u00e1t\u00f3"}}, {"type": "node", "id": 1398978928, "lat": 47.3453794, "lon": 16.3792803, "tags": {"ele": "862", "name": "Gro\u00dfer Hirschenstein", "name:de": "Gro\u00dfer Hirschenstein", "name:hu": "Nagy Szarvask\u0151", "natural": "peak", "short_name": "Hirschenstein", "tourism": "viewpoint", "wheelchair": "no", "wikidata": "Q1548698", "wikipedia": "de:Gro\u00dfer Hirschenstein"}}, {"type": "node", "id": 1398991820, "lat": 47.3670147, "lon": 16.3376949, "tags": {"tourism": "viewpoint"}}, {"type": "node", "id": 1432266473, "lat": 47.6599886, "lon": 16.5085123, "tags": {"man_made": "tower", "name": "B\u00e9ke kil\u00e1t\u00f3", "tourism": "viewpoint", "tower:type": "observation", "url": "http://turistautak.hu/poi.php?id=11895"}}, {"type": "node", "id": 1432266477, "lat": 47.6519063, "lon": 16.4639112, "tags": {"man_made": "tower", "name": "Magas-b\u00e9rci kil\u00e1t\u00f3", "tourism": "viewpoint", "tower:type": "observation"}}, {"type": "node", "id": 1432266478, "lat": 47.66641, "lon": 16.5324312, "tags": {"man_made": "tower", "name": "V\u00e1rhely kil\u00e1t\u00f3", "tourism": "viewpoint", "tower:type": "observation", "url": "http://turistautak.hu/poi.php?id=8190"}}, {"type": "node", "id": 1469000575, "lat": 47.4543936, "lon": 16.6429354, "tags": {"tourism": "viewpoint"}}, {"type": "node", "id": 1469000642, "lat": 47.4540326, "lon": 16.6582505, "tags": {"tourism": "viewpoint"}}, {"type": "node", "id": 1502746074, "lat": 47.3817823, "lon": 16.5030804}, {"type": "node", "id": 1502746075, "lat": 47.3817117, "lon": 16.5032741}, {"type": "node", "id": 1502746076, "lat": 47.3817933, "lon": 16.5032635}, {"type": "node", "id": 1602697199, "lat": 47.6735896, "lon": 16.5577589, "tags": {"man_made": "tower", "material": "wood", "name": "Gloriette kil\u00e1t\u00f3", "tourism": "viewpoint", "tower:type": "observation", "url": "http://turistautak.hu/poi.php?id=11733"}}, {"type": "node", "id": 2385651490, "lat": 47.6150721, "lon": 16.5635289, "tags": {"description": "Neusiedlerseeblick", "tourism": "viewpoint"}}, {"type": "node", "id": 2385815108, "lat": 47.5939975, "lon": 16.6140598, "tags": {"amenity": "bench", "tourism": "viewpoint"}}, {"type": "node", "id": 2589375603, "lat": 47.3817008, "lon": 16.503091}, {"type": "node", "id": 2930047457, "lat": 47.3290655, "lon": 16.5632117}, {"type": "node", "id": 2930047458, "lat": 47.3290816, "lon": 16.5632973}, {"type": "node", "id": 2930047459, "lat": 47.3291163, "lon": 16.563191}, {"type": "node", "id": 2930047460, "lat": 47.3291324, "lon": 16.5632766}, {"type": "node", "id": 2972897720, "lat": 47.3925698, "lon": 16.5319493}, {"type": "node", "id": 2972897721, "lat": 47.3925737, "lon": 16.5319688}, {"type": "node", "id": 2972897722, "lat": 47.3925744, "lon": 16.531926}, {"type": "node", "id": 2972897723, "lat": 47.392583, "lon": 16.5319844}, {"type": "node", "id": 2972897724, "lat": 47.3925882, "lon": 16.5319133}, {"type": "node", "id": 2972897725, "lat": 47.3925968, "lon": 16.5319883}, {"type": "node", "id": 2972897726, "lat": 47.3926087, "lon": 16.5319094}, {"type": "node", "id": 2972897727, "lat": 47.3926133, "lon": 16.5319854}, {"type": "node", "id": 2972897728, "lat": 47.3926199, "lon": 16.531924}, {"type": "node", "id": 2972897729, "lat": 47.3926238, "lon": 16.531962}, {"type": "node", "id": 3008221216, "lat": 47.3551878, "lon": 16.4777689, "tags": {"name": "Sz\u00e9pkil\u00e1t\u00f3", "tourism": "viewpoint"}}, {"type": "node", "id": 3024256430, "lat": 47.3527895, "lon": 16.4336909}, {"type": "node", "id": 3024256431, "lat": 47.3527991, "lon": 16.4337658}, {"type": "node", "id": 3024256432, "lat": 47.3527983, "lon": 16.4336885}, {"type": "node", "id": 3024256633, "lat": 47.3528082, "lon": 16.4337633}, {"type": "node", "id": 3024256634, "lat": 47.3528351, "lon": 16.4336767}, {"type": "node", "id": 3024256635, "lat": 47.3528436, "lon": 16.4336744}, {"type": "node", "id": 3024256636, "lat": 47.3528445, "lon": 16.4337522}, {"type": "node", "id": 3024256637, "lat": 47.3528532, "lon": 16.4337498}, {"type": "node", "id": 3032002307, "lat": 47.3527945, "lon": 16.4337302, "tags": {"entrance": "main", "wheelchair": "no"}}, {"type": "node", "id": 3045910640, "lat": 47.64564, "lon": 16.6041792, "tags": {"tourism": "viewpoint"}}, {"type": "node", "id": 3109782066, "lat": 47.6503194, "lon": 16.6350634, "tags": {"man_made": "tower", "name": "K\u00f3ph\u00e1zi kil\u00e1t\u00f3", "tourism": "viewpoint", "tower:type": "observation", "url": "http://turistautak.hu/poi.php?id=171636"}}, {"type": "node", "id": 3148318265, "lat": 47.6858865, "lon": 16.5113418, "tags": {"man_made": "tower", "name": "H\u00e1zhegy kil\u00e1t\u00f3", "source": "turistautak.hu", "tourism": "viewpoint", "tower:type": "observation", "url": "http://turistautak.hu/poi.php?id=11202"}}, {"type": "node", "id": 3340546094, "lat": 47.642028, "lon": 16.527825, "tags": {"man_made": "tower", "name": "Magasfigyel\u0151", "name:de": "Grenzwachtturm", "source": "turistautak.hu", "tourism": "viewpoint", "tower:type": "observation", "url": "http://turistautak.hu/poi.php?id=19369"}}, {"type": "node", "id": 3340546095, "lat": 47.6860425, "lon": 16.4790755, "tags": {"man_made": "tower", "name": "Magasfigyel\u0151", "name:de": "Grenzwachtturm", "source": "turistautak.hu", "tourism": "viewpoint", "tower:type": "observation", "url": "http://turistautak.hu/poi.php?id=17114"}}, {"type": "node", "id": 3369634954, "lat": 47.3926217, "lon": 16.5319422}, {"type": "node", "id": 3430563747, "lat": 47.3147055, "lon": 16.5054696, "tags": {"source": "turistautak.hu", "tourism": "viewpoint", "url": "http://turistautak.hu/poi.php?id=103190"}}, {"type": "node", "id": 3430564157, "lat": 47.3476768, "lon": 16.4865969, "tags": {"source": "turistautak.hu", "tourism": "viewpoint", "url": "http://turistautak.hu/poi.php?id=27187"}}, {"type": "node", "id": 3453849017, "lat": 47.4012851, "lon": 16.5122494, "tags": {"tourism": "viewpoint"}}, {"type": "node", "id": 3465143613, "lat": 47.398772, "lon": 16.48293, "tags": {"source": "turistautak.hu", "source:date": "2015-03-03", "tourism": "viewpoint", "url": "http://turistautak.hu/poi.php?id=49968"}}, {"type": "node", "id": 3470005729, "lat": 47.6808306, "lon": 16.5569253, "tags": {"tourism": "viewpoint", "url": "http://turistautak.hu/poi.php?id=98530"}}, {"type": "node", "id": 3851842533, "lat": 47.6804088, "lon": 16.4425542, "tags": {"tourism": "viewpoint"}}, {"type": "node", "id": 3922488658, "lat": 47.6540627, "lon": 16.5606459, "tags": {"tourism": "viewpoint"}}, {"type": "node", "id": 4397491301, "lat": 47.5853583, "lon": 16.5575522, "tags": {"tourism": "viewpoint"}}, {"type": "node", "id": 4442195949, "lat": 47.3201952, "lon": 16.4367493, "tags": {"man_made": "tower", "name": "Rechnitz - Kindererlebniswelt und Vogelwelt Turm", "tourism": "viewpoint", "tower:type": "observation"}}, {"type": "node", "id": 5592976948, "lat": 47.3161385, "lon": 16.4449466, "tags": {"direction": "S", "name": "Kr\u00e4uterspirale", "tourism": "viewpoint"}}, {"type": "node", "id": 5839945618, "lat": 47.6797722, "lon": 16.5574918, "tags": {"tourism": "viewpoint"}}, {"type": "node", "id": 6142536234, "lat": 47.4007534, "lon": 16.5269814, "tags": {"direction": "NW", "tourism": "viewpoint"}}, {"type": "node", "id": 6612725280, "lat": 47.3185553, "lon": 16.5696353, "tags": {"tourism": "viewpoint"}}, {"type": "node", "id": 7376014952, "lat": 47.6744321, "lon": 16.5267669, "tags": {"tourism": "viewpoint"}}, {"type": "node", "id": 7526129980, "lat": 47.6525775, "lon": 16.4989057, "tags": {"tourism": "viewpoint"}}, {"type": "node", "id": 7526179910, "lat": 47.6675197, "lon": 16.5148489, "tags": {"tourism": "viewpoint"}}, {"type": "node", "id": 7533650458, "lat": 47.6473328, "lon": 16.5597505, "tags": {"tourism": "viewpoint"}}, {"type": "node", "id": 9218403714, "lat": 47.3619524, "lon": 16.4718747, "tags": {"tourism": "viewpoint"}}, {"type": "node", "id": 9602599968, "lat": 47.5654871, "lon": 16.5785173, "tags": {"tourism": "viewpoint"}}, {"type": "node", "id": 9867956617, "lat": 47.6663563, "lon": 16.5323478, "tags": {"tourism": "viewpoint"}}, {"type": "node", "id": 9953892674, "lat": 47.3817074, "lon": 16.5032025}, {"type": "way", "id": 28220067, "nodes": [3024256432, 309948572, 309948573, 3024256634, 3024256635, 3024256637, 3024256636, 309948582, 309948583, 3024256633, 3024256431, 3032002307, 3024256430, 3024256432], "tags": {"building": "yes", "heritage": "2", "heritage:operator": "bda", "man_made": "tower", "name": "Aussichtswarte am Geschriebenstein / \u00cdrott-k\u0151 kil\u00e1t\u00f3", "name:de": "Aussichtswarte am Geschriebenstein", "name:hu": "\u00cdrott-k\u0151 kil\u00e1t\u00f3", "ref:at:bda": "8444", "short_name": "Aussichtswarte", "start_date": "1913", "tourism": "viewpoint", "tower:type": "observation", "wheelchair": "no", "wikidata": "Q38127175", "wikimedia_commons": "Category:Watch tower \u00cdrott-k\u0151"}}, {"type": "way", "id": 136982344, "nodes": [1502746076, 1502746074, 2589375603, 9953892674, 1502746075, 1502746076], "tags": {"building": "yes", "ele": "609", "historic": "castle", "man_made": "tower", "name": "\u00d3h\u00e1z-tet\u0151", "old_name": "Das alte Haus", "source": "survey", "survey:date": "2022-08-13", "tourism": "viewpoint", "tower:type": "observation", "wikidata": "Q26231765"}}, {"type": "way", "id": 289457537, "nodes": [2930047459, 2930047457, 2930047458, 2930047460, 2930047459], "tags": {"man_made": "tower", "name": "Kil\u00e1t\u00f3", "tourism": "viewpoint", "tower:type": "observation"}}, {"type": "way", "id": 293699039, "nodes": [2972897729, 3369634954, 2972897728, 2972897726, 2972897724, 2972897722, 2972897720, 2972897721, 2972897723, 2972897725, 2972897727, 2972897729], "tags": {"man_made": "tower", "name": "Szulejm\u00e1n-kil\u00e1t\u00f3", "tourism": "viewpoint", "tower:type": "observation", "wikidata": "Q109828295"}}]}