{"version": 0.6, "generator": "Overpass API 0.7.59 e21c39fe", "osm3s": {"timestamp_osm_base": "2023-03-01T08:35:54Z", "copyright": "The data included in this document is from www.openstreetmap.org. The data is made available under ODbL."}, "elements": [{"type": "node", "id": 312472053, "lat": 47.1918499, "lon": 18.4094828, "tags": {"artwork_type": "sculpture", "name": "Millenniumi eml\u00e9kjel 2000", "tourism": "artwork"}}, {"type": "node", "id": 973821231, "lat": 47.1852729, "lon": 18.4121064, "tags": {"name": "Aquamobil", "tourism": "artwork"}}, {"type": "node", "id": 1394579762, "lat": 47.1905325, "lon": 18.4088274, "tags": {"artist_name": "Kocsis, Bal\u00e1zs", "artwork_type": "statue", "name": "Kati n\u00e9ni", "name:it": "Kati N\u00e9ni", "start_date": "2001-11-25", "tourism": "artwork", "website": "https://www.kozterkep.hu/81/kati-neni-a-fertalyos-asszony-szobra", "wheelchair": "yes", "wikidata": "Q1105502", "wikipedia": "hu:Kati n\u00e9ni, a fert\u00e1lyos asszony"}}, {"type": "node", "id": 1565802862, "lat": 47.200133, "lon": 18.1327648, "tags": {"artwork_type": "sculpture", "material": "stone", "name": "K\u0151macska", "tourism": "artwork"}}, {"type": "node", "id": 2310094544, "lat": 47.1959275, "lon": 18.409014, "tags": {"name": "Csillaghaj\u00f3", "tourism": "artwork"}}, {"type": "node", "id": 2335408314, "lat": 47.1907223, "lon": 18.4112217, "tags": {"artwork_type": "statue", "name": "T\u00e1ncosn\u0151", "name:it": "T\u00e1ncosn\u0151 Szobor", "tourism": "artwork", "website": "https://www.kozterkep.hu/8082/tancosno"}}, {"type": "node", "id": 2719775116, "lat": 47.0320991, "lon": 18.0290505, "tags": {"artwork_type": "sculpture", "name": "Balaton Nereus", "tourism": "artwork"}}, {"type": "node", "id": 2725100684, "lat": 47.0530637, "lon": 17.9692935, "tags": {"artwork_type": "statue", "name": "Turul", "tourism": "artwork"}}, {"type": "node", "id": 2899463190, "lat": 47.1675356, "lon": 18.4050018, "tags": {"artwork_type": "installation", "name": "Szent Korona", "tourism": "artwork"}}, {"type": "node", "id": 2942682569, "lat": 46.9745679, "lon": 18.2057703, "tags": {"tourism": "artwork"}}, {"type": "node", "id": 2942779603, "lat": 47.090146, "lon": 18.3403039, "tags": {"tourism": "artwork"}}, {"type": "node", "id": 3271239223, "lat": 47.1961542, "lon": 18.4088943, "tags": {"artwork_type": "statue", "memorial": "statue", "name": "Ybl Mikl\u00f3s", "tourism": "artwork"}}, {"type": "node", "id": 3344196534, "lat": 47.1924844, "lon": 18.4110927, "tags": {"artwork_type": "statue", "tourism": "artwork", "wheelchair": "no"}}, {"type": "node", "id": 3355819013, "lat": 47.286219, "lon": 18.264634, "tags": {"artwork_type": "statue", "mapillary": "954643598641705", "name": "Turul", "source": "turistautak.hu", "tourism": "artwork", "url": "http://turistautak.hu/poi.php?id=97475"}}, {"type": "node", "id": 3355826327, "lat": 47.293857, "lon": 18.26476, "tags": {"artwork_type": "statue", "source": "turistautak.hu", "tourism": "artwork", "url": "http://turistautak.hu/poi.php?id=100413"}}, {"type": "node", "id": 3417267193, "lat": 47.1881436, "lon": 18.4201068, "tags": {"name": "Diszkoszvet\u0151", "tourism": "artwork"}}, {"type": "node", "id": 3417267194, "lat": 47.1857519, "lon": 18.425097, "tags": {"tourism": "artwork"}}, {"type": "node", "id": 3441443346, "lat": 46.9746768, "lon": 18.1642211, "tags": {"artwork_type": "statue", "name": "M\u00e9cstart\u00f3 n\u0151 szobra", "source": "turistautak.hu", "source:date": "2012-10-14", "tourism": "artwork", "url": "http://turistautak.hu/poi.php?id=142516"}}, {"type": "node", "id": 3459826351, "lat": 47.2445, "lon": 18.197567, "tags": {"artwork_type": "statue", "name": "Almalop\u00f3 fi\u00fa szobor", "source": "turistautak.hu", "source:date": "2009-08-05", "tourism": "artwork", "url": "http://turistautak.hu/poi.php?id=72970"}}, {"type": "node", "id": 3459826363, "lat": 47.314967, "lon": 18.4105, "tags": {"artwork_type": "statue", "description": "A helyi p\u00e9ks\u00e9g alap\u00edt\u00e1s\u00e1nak 20. \u00e9vfordul\u00f3j\u00e1ra fel\u00e1ll\u00edtott dagaszt\u00f3g\u00e9p.", "name": "Dagaszt\u00f3g\u00e9p", "source": "turistautak.hu", "source:date": "2014-11-11", "tourism": "artwork", "url": "http://turistautak.hu/poi.php?id=173934"}}, {"type": "node", "id": 3459826753, "lat": 47.247865, "lon": 18.193622, "tags": {"artwork_type": "statue", "name": "Remete szobor", "source": "turistautak.hu", "source:date": "2011-06-25", "tourism": "artwork", "url": "http://turistautak.hu/poi.php?id=31282"}}, {"type": "node", "id": 3459827731, "lat": 47.0290738, "lon": 18.5212241, "tags": {"artwork_type": "statue", "fixme": "resurvey (source was old)", "name": "1956-os eml\u00e9km\u0171", "name:it": "1956 Os Szobor", "source": "turistautak.hu", "source:date": "2008-05-14", "tourism": "artwork", "url": "http://turistautak.hu/poi.php?id=24138"}}, {"type": "node", "id": 3463077446, "lat": 47.1954587, "lon": 18.4106106, "tags": {"artwork_type": "statue", "description": "Corpus Hungaricum szobor a J\u00e1vor Ott\u00f3 t\u00e9ren. Tov\u00e1bbi inf\u00f3: http://www.szoborlap.hu/8792_corpus_hungaricum_szekesfehervar_wagner_nandor_1999.html", "name": "Corpus Hungaricum", "source": "turistautak.hu", "source:date": "2011-06-25", "tourism": "artwork", "url": "http://turistautak.hu/poi.php?id=115260"}}, {"type": "node", "id": 3463077469, "lat": 47.198534, "lon": 18.401967, "tags": {"artwork_type": "statue", "name": "Horgony", "source": "turistautak.hu", "source:date": "2011-06-25", "tourism": "artwork", "url": "http://turistautak.hu/poi.php?id=98213"}}, {"type": "node", "id": 3463077486, "lat": 47.1927, "lon": 18.4173, "tags": {"artwork_type": "statue", "description": "A n\u00e9meth L\u00e1szl\u00f3 \u00e1ltal\u00e1nos Iskola el\u0151tti t\u00e9ren van a k\u00edgy\u00f3t \u00e1br\u00e1zol\u00f3 szobor. A szobor kb 6-7 m hossz\u00fa. A k\u00f6zelben \u00faj j\u00e1tsz\u00f3t\u00e9r (2006.m\u00e1jus)", "name": "K\u00edgy\u00f3 szobor", "name:it": "Kigy\u00f3 Szobor", "source": "turistautak.hu", "source:date": "2010-01-17", "tourism": "artwork", "url": "http://turistautak.hu/poi.php?id=8242", "wheelchair": "yes"}}, {"type": "node", "id": 3463077594, "lat": 47.187167, "lon": 18.414667, "tags": {"artwork_type": "statue", "description": "B\u0151vebben: http://www.kozterkep.hu/~/14906/memento_szekesfehervar_bors_istvan_2001.html", "name": "Memento", "source": "turistautak.hu", "source:date": "2013-01-13", "tourism": "artwork", "url": "http://turistautak.hu/poi.php?id=149791"}}, {"type": "node", "id": 3463077611, "lat": 47.195867, "lon": 18.4039, "tags": {"artwork_type": "statue", "name": "Naj\u00e1dok k\u00fatja", "name:it": "Naj\u00e1dok K\u00fatja", "source": "turistautak.hu", "source:date": "2011-05-03", "tourism": "artwork", "url": "http://turistautak.hu/poi.php?id=116863"}}, {"type": "node", "id": 3463077642, "lat": 47.20035, "lon": 18.409433, "tags": {"artwork_type": "statue", "description": "Szenth\u00e1roms\u00e1g-szobor szobr\u00e1sz: id. Havranek Antal 8000 Sz\u00e9kesfeh\u00e9rv\u00e1r, Szent Sebesty\u00e9n t\u00e9r", "fixme": "resurvey (source was old)", "name": "Szenth\u00e1roms\u00e1g-szobor", "name:it": "Szenth\u00e1roms\u00e1g-Szobor", "source": "turistautak.hu", "source:date": "2009-08-04", "tourism": "artwork", "url": "http://turistautak.hu/poi.php?id=7487"}}, {"type": "node", "id": 3463077649, "lat": 47.200599, "lon": 18.402894, "tags": {"addr:city": "Sz\u00e9kesfeh\u00e9rv\u00e1r", "addr:housenumber": "1", "addr:postcode": "8000", "addr:street": "F\u00fcrd\u0151 utca", "artist_name": "Stefania Palumbo", "artwork_subject": "Az alkot\u00e1st San Salvo olaszorsz\u00e1gi kisv\u00e1roska el\u00f6lj\u00e1r\u00f3s\u00e1ga adom\u00e1nyozta a Kodol\u00e1nyi J\u00e1nos F\u0151iskol\u00e1nak a t\u00f6bb mint 15 \u00e9ve tart\u00f3, gy\u00fcm\u00f6lcs\u00f6z\u0151 egy\u00fcttm\u0171k\u00f6d\u00e9s\u00fck eml\u00e9k\u00e9re. Az alkot\u00f3ja Stefania Palumbo (San Pietro Vernotico, 1975-) jelenleg Carrar\u00e1ban \u00e9l.", "artwork_type": "statue", "material": "stone", "name": "Tal\u00e1lkoz\u00e1s (szobor)", "source": "turistautak.hu", "source:date": "2014-09-06", "start_date": "2008", "tourism": "artwork", "url": "http://turistautak.hu/poi.php?id=100995", "website": "https://www.kozterkep.hu/20073/talalkozas"}}, {"type": "node", "id": 3463077718, "lat": 47.190683, "lon": 18.4638, "tags": {"artwork_type": "statue", "source": "turistautak.hu", "source:date": "2011-06-25", "tourism": "artwork", "url": "http://turistautak.hu/poi.php?id=59950"}}, {"type": "node", "id": 3463077730, "lat": 47.192567, "lon": 18.410183, "tags": {"artwork_type": "statue", "source": "turistautak.hu", "source:date": "2011-06-25", "tourism": "artwork", "url": "http://turistautak.hu/poi.php?id=58141"}}, {"type": "node", "id": 3463077760, "lat": 47.196457, "lon": 18.402919, "tags": {"artwork_type": "statue", "source": "turistautak.hu", "source:date": "2011-06-25", "tourism": "artwork", "url": "http://turistautak.hu/poi.php?id=116797"}}, {"type": "node", "id": 3463077775, "lat": 47.205293, "lon": 18.469501, "tags": {"artwork_type": "statue", "source": "turistautak.hu", "source:date": "2011-06-25", "tourism": "artwork", "url": "http://turistautak.hu/poi.php?id=118593"}}, {"type": "node", "id": 3470011823, "lat": 47.0604749, "lon": 18.043415, "tags": {"artwork_type": "statue", "source": "turistautak.hu", "source:date": "2011-05-26", "tourism": "artwork", "url": "http://turistautak.hu/poi.php?id=113070"}}, {"type": "node", "id": 3471746466, "lat": 47.205867, "lon": 18.205783, "tags": {"artwork_type": "statue", "name": "Csal\u00e1d", "source": "turistautak.hu", "source:date": "2014-01-17", "tourism": "artwork", "url": "http://turistautak.hu/poi.php?id=164895"}}, {"type": "node", "id": 3790753849, "lat": 47.029747, "lon": 18.015214, "tags": {"artwork_type": "sculpture", "name": "Pannon Aqua", "tourism": "artwork"}}, {"type": "node", "id": 4056297960, "lat": 47.0281559, "lon": 18.0203876, "tags": {"artwork_type": "sculpture", "tourism": "artwork"}}, {"type": "node", "id": 4092129431, "lat": 47.2048083, "lon": 18.4453657, "tags": {"artist_name": "Nagy Benedek", "artwork_type": "statue", "description": "Felirat: A sz\u0151l\u0151m\u0171ves", "name": "Sz\u0151l\u0151m\u0171ves", "name:it": "Sz\u0151l\u0151m\u0171ves Szobra", "tourism": "artwork"}}, {"type": "node", "id": 5007757796, "lat": 47.2009531, "lon": 18.1407522, "tags": {"artwork_type": "statue", "material": "bronze", "tourism": "artwork"}}, {"type": "node", "id": 5126457125, "lat": 47.199483, "lon": 18.1438575, "tags": {"artist_name": "Garami L\u00e1szl\u00f3", "artwork_type": "statue", "name": "N\u0151i akt", "source:name": "kozterkep.hu", "start_date": "1960", "tourism": "artwork"}}, {"type": "node", "id": 5549749440, "lat": 47.0281523, "lon": 18.016535, "tags": {"name": "D\u00edszk\u00fat", "tourism": "artwork"}}, {"type": "node", "id": 5549749466, "lat": 47.028081, "lon": 18.0165256, "tags": {"name": "\u00d6nmag\u00e1b\u00f3l szabadul\u00f3 (Mosonyi Tam\u00e1s)", "tourism": "artwork"}}, {"type": "node", "id": 5549749467, "lat": 47.0277349, "lon": 18.0171579, "tags": {"artist_name": "Berzsenyi Bal\u00e1zs", "name": "Kom\u00e9di\u00e1s 1", "tourism": "artwork"}}, {"type": "node", "id": 5549752338, "lat": 47.0280595, "lon": 18.0158368, "tags": {"name": "Ikarosz", "tourism": "artwork"}}, {"type": "node", "id": 5549752455, "lat": 47.028195, "lon": 18.0159432, "tags": {"name": "Bika", "tourism": "artwork"}}, {"type": "node", "id": 5549752456, "lat": 47.0281802, "lon": 18.0160847, "tags": {"name": "Hal\u00e1szok oszlopa", "tourism": "artwork"}}, {"type": "node", "id": 5549752457, "lat": 47.0282343, "lon": 18.0162743, "tags": {"name": "Cs\u00f3nakban", "tourism": "artwork"}}, {"type": "node", "id": 5549752524, "lat": 47.0279635, "lon": 18.0163133, "tags": {"name": "Hokusai (Farkas Ferenc)", "tourism": "artwork"}}, {"type": "node", "id": 5549752529, "lat": 47.0276944, "lon": 18.0165311, "tags": {"artist_name": "Seregi J\u00f3zsef", "name": "N\u0151 drap\u00e9ri\u00e1val", "tourism": "artwork"}}, {"type": "node", "id": 5549752530, "lat": 47.0276751, "lon": 18.0161046, "tags": {"artist_name": "F\u00e1skerti Istv\u00e1n", "name": "Torz\u00f3", "tourism": "artwork"}}, {"type": "node", "id": 5549752931, "lat": 47.028187, "lon": 18.0163754, "tags": {"name": "Kom\u00e9di\u00e1s No8", "tourism": "artwork"}}, {"type": "node", "id": 5549752948, "lat": 47.0280071, "lon": 18.0163776, "tags": {"name": "F\u00e9nykeres\u00f6 (Szatm\u00e1ri Juhos L\u00e1szl\u00f3)", "tourism": "artwork"}}, {"type": "node", "id": 5549752949, "lat": 47.028064, "lon": 18.0164638, "tags": {"name": "Helka (Seregi J\u00f3zsef)", "tourism": "artwork"}}, {"type": "node", "id": 5549752950, "lat": 47.0280742, "lon": 18.0171682, "tags": {"artist_name": "Szab\u00f3 L\u00e1szl\u00f3 Zolt\u00e1n", "name": "Sz\u00e9loszlop", "tourism": "artwork"}}, {"type": "node", "id": 5549752951, "lat": 47.0281276, "lon": 18.017235, "tags": {"name": "Eur\u00f3pai nyitott kapu", "tourism": "artwork", "website": "https://www.kozterkep.hu/23593"}}, {"type": "node", "id": 5549753132, "lat": 47.0276392, "lon": 18.0174964, "tags": {"name": "Kom\u00e9di\u00e1s 2", "tourism": "artwork"}}, {"type": "node", "id": 5549753133, "lat": 47.0280472, "lon": 18.0164165, "tags": {"name": "Kis balerina (Farkas Ferenc)", "tourism": "artwork"}}, {"type": "node", "id": 5549753140, "lat": 47.0374272, "lon": 18.0203599, "tags": {"tourism": "artwork"}}, {"type": "node", "id": 5549754622, "lat": 47.0279267, "lon": 18.0171768, "tags": {"name": "Hal\u00e1szeml\u00e9k", "tourism": "artwork"}}, {"type": "node", "id": 5549754623, "lat": 47.0280769, "lon": 18.0171574, "tags": {"name": "Fossz\u00edlia", "tourism": "artwork"}}, {"type": "node", "id": 5549756024, "lat": 47.028, "lon": 18.0160514, "tags": {"name": "Rollerez\u0151", "tourism": "artwork"}}, {"type": "node", "id": 5549756029, "lat": 47.0276484, "lon": 18.0163892, "tags": {"artist_name": "F\u00e1skerti Istv\u00e1n", "name": "V\u00e1rand\u00f3s n\u0151", "tourism": "artwork"}}, {"type": "node", "id": 5549756030, "lat": 47.0277239, "lon": 18.0159695, "tags": {"artist_name": "Cz\u00e9r P\u00e9ter", "name": "Mereng\u0151", "tourism": "artwork"}}, {"type": "node", "id": 5549756031, "lat": 47.0278624, "lon": 18.0158193, "tags": {"artist_name": "Meixner Etelka", "name": "K\u00e9zfog\u00e1s", "tourism": "artwork"}}, {"type": "node", "id": 5549756032, "lat": 47.0278787, "lon": 18.0167186, "tags": {"artist_name": "Rieger Tibor", "name": "Kecske", "name:en": "Goat", "tourism": "artwork"}}, {"type": "node", "id": 5549756033, "lat": 47.0278743, "lon": 18.0165686, "tags": {"name": "\u00d6sszefon\u00f3dva", "name:en": "Interwoven", "tourism": "artwork"}}, {"type": "node", "id": 5549761421, "lat": 47.0278709, "lon": 18.0169872, "tags": {"name": "R\u00e9tegz\u0151d\u00e9s", "tourism": "artwork"}}, {"type": "node", "id": 5549761422, "lat": 47.0296045, "lon": 18.0155511, "tags": {"name": "Toj\u00e1s fa", "name:en": "Egg tree", "tourism": "artwork"}}, {"type": "node", "id": 5549773823, "lat": 47.0277859, "lon": 18.0158754, "tags": {"artist_name": "Pog\u00e1ny G\u00e1bor Ben\u0151", "name": "Kapu\u0151rz\u0151", "tourism": "artwork"}}, {"type": "node", "id": 5549788923, "lat": 47.0273802, "lon": 18.0160493, "tags": {"name": "H\u00f6lgy kalapban", "tourism": "artwork"}}, {"type": "node", "id": 5549794221, "lat": 47.0276318, "lon": 18.0162139, "tags": {"artist_name": "Beata Czapska", "name": "Oroszl\u00e1nf\u00f3ka", "name:en": "Sea-Lion", "tourism": "artwork"}}, {"type": "node", "id": 5549831521, "lat": 47.0268408, "lon": 18.0127116, "tags": {"tourism": "artwork"}}, {"type": "node", "id": 5901912654, "lat": 47.1851317, "lon": 18.4119236, "tags": {"name": "Besz\u00e9des J\u00f3zsef szobra", "tourism": "artwork"}}, {"type": "node", "id": 5963783893, "lat": 47.1912147, "lon": 18.410238, "tags": {"artwork_type": "sculpture", "name": "Mujk\u00f3", "tourism": "artwork"}}, {"type": "node", "id": 5993808087, "lat": 47.0300921, "lon": 18.0155351, "tags": {"name": "Kett\u0151skereszt", "tourism": "artwork"}}, {"type": "node", "id": 6023676258, "lat": 47.286016, "lon": 18.2648695, "tags": {"artwork_type": "sculpture", "mapillary": "299197588251617", "material": "stone", "name": "V\u00e9gtelen", "tourism": "artwork"}}, {"type": "node", "id": 6765243882, "lat": 47.1565361, "lon": 18.3367764, "tags": {"artwork_type": "sculpture", "description:hr": "ogromna stara pumpa za vodu (skulptura, nefunkcionalna!)", "tourism": "artwork"}}, {"type": "node", "id": 6796117949, "lat": 47.0289952, "lon": 18.521074, "tags": {"artwork_type": "statue", "name": "I. Vil\u00e1gh\u00e1bor\u00fas eml\u00e9km\u0171", "tourism": "artwork"}}, {"type": "node", "id": 6800276841, "lat": 47.0324268, "lon": 18.527853, "tags": {"name": "Id\u0151kapszula", "tourism": "artwork"}}, {"type": "node", "id": 7705661526, "lat": 46.9867716, "lon": 17.981698, "tags": {"artwork_type": "bust", "name": "dr. Mih\u00e1lkovics Tivadar", "tourism": "artwork"}}, {"type": "node", "id": 7710343664, "lat": 46.9885125, "lon": 17.9778357, "tags": {"artwork_subject": "Pegazus szer\u0171 \u00e9l\u0151l\u00e9ny egy Kereszt\u00e9ny lovaggal", "artwork_type": "sculpture", "tourism": "artwork"}}, {"type": "node", "id": 7714427729, "lat": 47.1149589, "lon": 18.1357353, "tags": {"artwork_type": "statue", "tourism": "artwork"}}, {"type": "node", "id": 8762328021, "lat": 47.0277392, "lon": 18.0169331, "tags": {"fixme": "position;artist", "name": "Folytonoss\u00e1g", "tourism": "artwork"}}, {"type": "node", "id": 8762328022, "lat": 47.0276295, "lon": 18.0184029, "tags": {"fixme": "position;artist", "name": "Kom\u00e9di\u00e1s 5", "tourism": "artwork"}}, {"type": "node", "id": 8762328023, "lat": 47.0276439, "lon": 18.0181566, "tags": {"fixme": "position;artist", "name": "Kom\u00e9di\u00e1s 4", "tourism": "artwork"}}, {"type": "node", "id": 8762328024, "lat": 47.0276543, "lon": 18.0178322, "tags": {"fixme": "position;artist", "name": "Kom\u00e9di\u00e1s 3", "tourism": "artwork"}}, {"type": "node", "id": 8807335408, "lat": 47.2796504, "lon": 18.5445045, "tags": {"artwork_type": "statue", "name": "\u0150z", "tourism": "artwork"}}, {"type": "node", "id": 8807335413, "lat": 47.2805911, "lon": 18.5448901, "tags": {"artwork_type": "statue", "name": "Hi\u00faz", "tourism": "artwork"}}, {"type": "node", "id": 8807335812, "lat": 47.2803943, "lon": 18.5449176, "tags": {"artwork_type": "statue", "name": "F\u00e1c\u00e1n", "tourism": "artwork"}}, {"type": "node", "id": 8807339483, "lat": 47.2800982, "lon": 18.5447275, "tags": {"artwork_type": "statue", "name": "Medve", "tourism": "artwork"}}, {"type": "node", "id": 8807352579, "lat": 47.2794975, "lon": 18.5442554, "tags": {"artwork_type": "statue", "name": "P\u00e1rduc", "tourism": "artwork"}}, {"type": "node", "id": 8807353424, "lat": 47.2791765, "lon": 18.5437285, "tags": {"artwork_type": "statue", "name": "\u0150z", "tourism": "artwork"}}, {"type": "node", "id": 8807359722, "lat": 47.2796294, "lon": 18.5431914, "tags": {"artwork_type": "statue", "name": "Vidra", "tourism": "artwork"}}, {"type": "node", "id": 8807373494, "lat": 47.2810541, "lon": 18.5447355, "tags": {"artwork_type": "statue", "name": "Vaddiszn\u00f3", "tourism": "artwork"}}, {"type": "node", "id": 8807382953, "lat": 47.2812682, "lon": 18.5438766, "tags": {"artwork_type": "statue", "name": "J\u00e1vorszarvas", "tourism": "artwork"}}, {"type": "node", "id": 8807388135, "lat": 47.2822982, "lon": 18.5432137, "tags": {"artwork_type": "statue", "name": "R\u00f3ka", "tourism": "artwork"}}, {"type": "node", "id": 8807389669, "lat": 47.2824595, "lon": 18.5424926, "tags": {"artwork_type": "statue", "name": "Bagoly", "tourism": "artwork"}}, {"type": "node", "id": 8807389671, "lat": 47.2824341, "lon": 18.542774, "tags": {"artwork_type": "statue", "name": "Szarvas", "tourism": "artwork"}}, {"type": "node", "id": 8857392069, "lat": 47.0278418, "lon": 18.0185292, "tags": {"artist_name": "Marek Brz\u00f3zka", "name": "Forma a v\u00edz alatt", "name:en": "Underwater Shape", "tourism": "artwork"}}, {"type": "node", "id": 8857392070, "lat": 47.0277063, "lon": 18.0184748, "tags": {"fixme": "artist", "name": "Kom\u00e9di\u00e1s 6", "tourism": "artwork"}}, {"type": "node", "id": 9106087210, "lat": 46.9919615, "lon": 17.9751621, "tags": {"artwork_type": "statue", "description": "turul farag\u00e1s\u00fa k\u0151 rov\u00e1s felirattal", "inscription": "\ud803\udc8c\ud803\udc8b\ud803\udc9a\ud803\udc8f\ud803\udc9b\ud803\udcaf\ud803\udc9c", "name": "Rakamazi turul", "tourism": "artwork"}}, {"type": "node", "id": 9112937424, "lat": 46.9867158, "lon": 17.9822158, "tags": {"artwork_type": "bust", "name": "Endr\u0151di S\u00e1ndor", "tourism": "artwork"}}, {"type": "node", "id": 9121693396, "lat": 47.2014227, "lon": 18.1436494, "tags": {"description": "fresk\u00f3 felirattal latin \u00e9s rov\u00e1s bet\u0171kkel is", "inscription": "Magyar, legyen hited s tied az orsz\u00e1god Minden nemzetek k\u00f6zt az els\u0151, az \u00e1ldott, Isten amit n\u00e9ked c\u00edmeredbe v\u00e1gott. Szent Istv\u00e1n kir\u00e1ly eml\u00e9k\u00e9re \u00e9s dics\u0151s\u00e9g\u00e9re k\u00e9sz\u00edtette a h\u00e1l\u00e1s ut\u00f3kor nev\u00e9ben a Maler-Team Kft. \ud803\udc81\ud803\udc96\ud803\udc87\ud803\udc81\ud803\udca4 \ud803\udc80 \ud803\udc8f\ud803\udc80\ud803\udcaf\ud803\udc81\ud803\udca2\ud803\udc80", "name": "Szent Istv\u00e1n fresk\u00f3", "tourism": "artwork"}}, {"type": "node", "id": 9124911942, "lat": 47.060792, "lon": 17.9691264, "tags": {"description": "Cs\u00edkszentkir\u00e1ly\u2013Szentkir\u00e1lyszabadja", "name": "Sz\u00e9kelykapu", "tourism": "artwork"}}, {"type": "node", "id": 9174169409, "lat": 47.1235395, "lon": 17.9588299, "tags": {"artist_name": "Merencsics Tibor", "description": "Az \u00e9letfa nyolc osztat\u00fa. Alulr\u00f3l n\u00e9zve: sima keskeny alap - magas oszlop, f\u0151 frontj\u00e1nak als\u00f3 r\u00e9sz\u00e9n n\u00e9gyzeth\u00e1l\u00f3s mot\u00edvum l\u00e1that\u00f3, f\u00f6l\u00f6tte tulip\u00e1n mot\u00edvum, k\u00e9t rozett\u00e1val, majd rov\u00e1s\u00edr\u00e1sos sz\u00f6veg; t\u00f6bbi oldal\u00e1n tulip\u00e1nos, rozett\u00e1s d\u00edsz\u00edt\u00e9s - tulip\u00e1n - andr", "height": "4", "name": "\u00e9letfa", "source": "https://www.geocaching.hu/caches.geo?id=2600;https://vehir.hu/data/file/2016/03/30/11_02_mell_kozteri_alkotasok_regisztere_0317.pdf", "start_date": "2008", "tourism": "artwork"}}, {"type": "node", "id": 9560104525, "lat": 47.0120775, "lon": 18.0015062, "tags": {"artwork_type": "statue", "name": "Sz\u0171z M\u00e1ria barlang", "tourism": "artwork"}}, {"type": "node", "id": 9560104526, "lat": 47.0121845, "lon": 18.0014025, "tags": {"artwork_type": "statue", "tourism": "artwork"}}, {"type": "node", "id": 9560104527, "lat": 47.0121283, "lon": 18.0014368, "tags": {"artwork_type": "statue", "tourism": "artwork"}}, {"type": "node", "id": 9879770940, "lat": 47.0891032, "lon": 18.4206203, "tags": {"artwork_type": "sculpture", "material": "metal", "name": "Aut\u00f3szobor", "tourism": "artwork"}}, {"type": "node", "id": 9927772527, "lat": 47.0354194, "lon": 18.1085047, "tags": {"artwork_type": "statue", "name": "Borlovagrend", "tourism": "artwork"}}, {"type": "node", "id": 9960978777, "lat": 47.1967526, "lon": 18.4030869, "tags": {"artwork_type": "statue", "name": "Csit\u00e1ry G. Emil mellszobor", "tourism": "artwork"}}, {"type": "node", "id": 10003905200, "lat": 47.2792271, "lon": 18.1947585, "tags": {"artwork_type": "statue", "material": "stone", "name": "Vil\u00e1gh\u00e1bor\u00fas eml\u00e9km\u0171", "tourism": "artwork"}}, {"type": "node", "id": 10067433498, "lat": 47.0161007, "lon": 18.0079195, "tags": {"description": "cs\u00f3nakban egy hal\u00e1sz", "tourism": "artwork"}}, {"type": "node", "id": 10121693803, "lat": 47.058197, "lon": 18.2959921, "tags": {"artwork_type": "sculpture", "tourism": "artwork"}}, {"type": "node", "id": 10123003544, "lat": 47.0611367, "lon": 18.2978496}, {"type": "node", "id": 10123003545, "lat": 47.0612445, "lon": 18.2978496}, {"type": "node", "id": 10221424617, "lat": 47.0280448, "lon": 18.0195328, "tags": {"name": "Pet\u0151fi", "tourism": "artwork"}}, {"type": "way", "id": 1106240869, "nodes": [10123003545, 10123003544], "tags": {"description": "Polg\u00e1rdi felirat kirakva bet\u0171kb\u0151l", "name": "Polg\u00e1rdi", "tourism": "artwork"}}]}