{"version": 0.6, "generator": "Overpass API 0.7.59 e21c39fe", "osm3s": {"timestamp_osm_base": "2023-03-01T09:16:24Z", "copyright": "The data included in this document is from www.openstreetmap.org. The data is made available under ODbL."}, "elements": [{"type": "node", "id": 2634652526, "lat": 46.13329, "lon": 20.583433, "tags": {"SIRUTA:code": "156268", "addr:city": "Cenad", "addr:postcode": "307095", "addr:street": "nr. 1594", "codul_entit\u0103\u021bii_muzeale": "5.1620000208E10", "fax": "0256/374.501", "fixme": "Adresa muzeului este de fapt adresa localitati, trebuie cautat manual unde este adresa corecta", "name": "Muzeul Comunei Cenad", "name:en": "Museum of Cenad", "name:hu": "Csan\u00e1di M\u00fazeum", "opening_hours": "Mo-Su 8:00-16:00 || \"request (phone: +4073.2970.324)\"", "phone": "0256/374.501", "source": "INP", "source:link": "http://date.gov.ro/dataset/ghidul-muzeelor-din-romania", "tourism": "museum", "tourism_survey": "07.12.2011 15:49:16", "website": "http://www.cenad.ro/muzeu.htm"}}]}