{"version": 0.6, "generator": "Overpass API 0.7.59 e21c39fe", "osm3s": {"timestamp_osm_base": "2023-03-01T08:45:59Z", "copyright": "The data included in this document is from www.openstreetmap.org. The data is made available under ODbL."}, "elements": [{"type": "node", "id": 506476057, "lat": 47.0549884, "lon": 21.9283939, "tags": {"artwork_type": "statue", "image": "https://i.imgur.com/zdH1DuF.jpg", "material": "bronze", "name": "Ferdinand I", "tourism": "artwork"}}, {"type": "node", "id": 3445353950, "lat": 47.233798, "lon": 21.66356, "tags": {"artwork_type": "statue", "material": "wood", "name": "Bagoly-szobor", "source": "turistautak.hu", "source:date": "2011-09-30", "tourism": "artwork", "url": "http://turistautak.hu/poi.php?id=124509"}}, {"type": "node", "id": 3445367828, "lat": 47.232847, "lon": 21.666902, "tags": {"artwork_type": "statue", "name": "Turul", "source": "turistautak.hu", "source:date": "2012-08-01", "tourism": "artwork", "url": "http://turistautak.hu/poi.php?id=65265"}}, {"type": "node", "id": 3462322193, "lat": 47.252222, "lon": 21.826724, "tags": {"artwork_type": "statue", "name": "Hajd\u00fa katona", "source": "turistautak.hu", "source:date": "2014-09-14", "tourism": "artwork", "url": "http://turistautak.hu/poi.php?id=82661"}}, {"type": "node", "id": 4215257037, "lat": 47.057078, "lon": 21.9307435, "tags": {"artwork_type": "bust", "name": "Statuia lui Szigligeti Ede", "name:hu": "Szigligeti Ede", "tourism": "artwork"}}, {"type": "node", "id": 4401074291, "lat": 47.0876397, "lon": 21.8746119, "tags": {"name": "Cazangiu Sorin Andrei", "tourism": "artwork"}}, {"type": "node", "id": 4401084690, "lat": 47.0798145, "lon": 21.8656148, "tags": {"name": "Cazangiu.s.a.", "tourism": "artwork"}}, {"type": "node", "id": 4693847990, "lat": 47.0581685, "lon": 21.9323901, "tags": {"name": "Oradea", "name:en": "Oradea", "name:ro": "Oradea", "tourism": "artwork"}}, {"type": "node", "id": 4825350761, "lat": 47.065157, "lon": 21.9354027, "tags": {"artwork_type": "bust", "material": "stone", "name": "Pet\u0151fi S\u00e1ndor", "tourism": "artwork"}}, {"type": "node", "id": 4825351157, "lat": 47.0660565, "lon": 21.9340894, "tags": {"artwork_type": "statue", "material": "bronze", "name": "J\u00f3zsef Attila", "tourism": "artwork"}}, {"type": "node", "id": 4825679912, "lat": 47.0436578, "lon": 21.9353139, "tags": {"artwork_type": "statue", "material": "concrete", "name": "Taliga", "tourism": "artwork"}}, {"type": "node", "id": 4825680475, "lat": 47.0434462, "lon": 21.9350834, "tags": {"artwork_type": "statue", "disused": "yes", "material": "stone", "name": "Talicsk\u00e1t tol\u00f3 torz\u00f3", "tourism": "artwork"}}, {"type": "node", "id": 4827012513, "lat": 47.0558889, "lon": 21.9342838, "tags": {"artwork_type": "bust", "image": "https://i.imgur.com/HtSEVc1.jpg", "material": "bronze", "name": "Cz\u00e1r\u00e1n Gyula (1847-1906)", "tourism": "artwork"}}, {"type": "node", "id": 4827012514, "lat": 47.055875, "lon": 21.9347282, "tags": {"artwork_type": "statue", "description:hu": "Az 1849-es tr\u00f3nfoszt\u00e1si nyilatkozat megfogalmaz\u00f3ja", "image": "https://i.imgur.com/PRfpo0e.jpg", "material": "bronze", "name": "Szacsvay Imre", "tourism": "artwork"}}, {"type": "node", "id": 4827012515, "lat": 47.0574862, "lon": 21.932022, "tags": {"artwork_type": "statue", "image": "https://i.imgur.com/OG59Bsk.jpg", "material": "bronze", "name": "A Holnap irodalmi t\u00e1rsas\u00e1g alap\u00edt\u00f3i", "tourism": "artwork"}}, {"type": "node", "id": 4827014957, "lat": 47.0577663, "lon": 21.9354961, "tags": {"artwork_type": "bust", "material": "stone", "name": "Ady Endre", "tourism": "artwork"}}, {"type": "node", "id": 4938688241, "lat": 47.0567263, "lon": 21.9229617, "tags": {"name": "Statuia lui Arany J\u00e1nos", "name:en": "Arany J\u00e1nos' statue", "name:hu": "Arany J\u00e1nos-szobor", "name:ro": "Statuia lui Arany J\u00e1nos", "tourism": "artwork"}}, {"type": "node", "id": 5349276221, "lat": 47.1291594, "lon": 21.71685, "tags": {"artwork_type": "statue", "material": "stone;metal", "memorial": "statue", "name": "Szent L\u00e1szl\u00f3 kir\u00e1ly", "name:en": "King Saint L\u00e1szl\u00f3", "tourism": "artwork"}}, {"type": "node", "id": 6226807089, "lat": 47.049996, "lon": 21.9253047, "tags": {"artwork_type": "statue", "tourism": "artwork"}}, {"type": "node", "id": 6775082230, "lat": 47.0701156, "lon": 21.6886985, "tags": {"artwork_type": "statue", "material": "fa", "tourism": "artwork"}}, {"type": "node", "id": 7661119368, "lat": 47.1306442, "lon": 21.7165949, "tags": {"artwork_type": "bust", "inscription": "O'sv\u00e1th P\u00e1l  1831 - 1908", "material": "metal;marble", "name": "O'sv\u00e1th P\u00e1l", "tourism": "artwork"}}, {"type": "node", "id": 8221196671, "lat": 47.0528346, "lon": 21.9366297, "tags": {"tourism": "artwork"}}]}