{"version": 0.6, "generator": "Overpass API 0.7.59 e21c39fe", "osm3s": {"timestamp_osm_base": "2023-03-01T09:20:23Z", "copyright": "The data included in this document is from www.openstreetmap.org. The data is made available under ODbL."}, "elements": [{"type": "node", "id": 2634651841, "lat": 47.5141808, "lon": 22.1296419, "tags": {"SIRUTA:code": "32036", "addr:city": "Valea lui Mihai", "addr:housenumber": "4", "addr:postcode": "415700", "addr:street": "Strada Kazinczy Ferenc", "codul_entit\u0103\u021bii_muzeale": "6908504.0", "email": "primaria.valealuimihai@cjbihor.ro", "fax": "0259/355.933", "fixme": "Adresa muzeului este de fapt adresa strazi, trebuie cautat manual unde este adresa corecta", "museum": "local", "name": "Muzeul Or\u0103\u0219enesc de Istorie \u0219i Etnografie \"Andr\u00e1ssy Ern\u0151\"", "name:en": "\"Andr\u00e1ssy Ern\u0151\" History and Ethnography Museum", "phone": "0259/356.608, 0752-227-384", "source": "INP", "source:link": "http://date.gov.ro/dataset/ghidul-muzeelor-din-romania", "start_date": "2007", "tourism": "museum", "tourism_survey": "11.04.2013 14:04:13", "website": "http://partiumimuzeumok.ro/ermihalyfalva/acasa.html"}}, {"type": "node", "id": 2634652008, "lat": 47.495678, "lon": 22.088209, "tags": {"SIRUTA:code": "31342", "addr:city": "\u0218imian", "addr:housenumber": "50", "addr:postcode": "417545", "addr:street": "Strada Principal\u0103", "codul_entit\u0103\u021bii_muzeale": "6908507.0", "email": "muzeusimian@gmail.com", "fax": "0259/356.263", "historic": "memorial", "name": "Muzeul Memorial Kazinczy Ferenc, Fr?ter L?r?nd si Csiha K?lm?n", "name:en": "\"Kazinczy Ferenc, Fr?ter L?r?nd and Csiha K?lm?n\" Memorial Museum", "opening_hours": "Mo-Fr 10:00-16:00", "phone": "0259/356.172", "source": "INP", "source:link": "http://date.gov.ro/dataset/ghidul-muzeelor-din-romania", "start_date": "2009", "tourism": "museum", "tourism_survey": "22.08.2012 12:55:53", "website": "http://www.partiumimuzeumok.ro/ersemjen/"}}, {"type": "node", "id": 2634652309, "lat": 47.482325, "lon": 22.215941, "tags": {"SIRUTA:code": "31592", "addr:city": "Galo\u0219petreu", "addr:housenumber": "385", "addr:postcode": "417572", "addr:street": "Strada Vasad", "codul_entit\u0103\u021bii_muzeale": "6908509.0", "email": "kerigaspar@freemail.hu", "fixme": "Adresa muzeului este de fapt adresa localitati, trebuie cautat manual unde este adresa corecta", "name": "Colec\u021bia de Etnografie", "name:en": "Ethnografic Collection", "name:hu": "N\u00e9prajzi gy\u0171jtem\u00e9ny", "phone": "0259/353.467, 0259/352.529", "source": "INP", "source:link": "http://date.gov.ro/dataset/ghidul-muzeelor-din-romania", "start_date": "2002", "tourism": "museum", "tourism_survey": "24.07.2013 13:20:01", "website": "http://recomespar.ro/"}}, {"type": "node", "id": 2634652541, "lat": 47.614944, "lon": 22.228583, "tags": {"SIRUTA:code": "138609", "addr:city": "Sc\u0103ri\u0219oara Nou\u0103", "addr:housenumber": "178", "addr:postcode": "447252", "addr:street": "Strada Principal\u0103", "codul_entit\u0103\u021bii_muzeale": "5.1620000143E10", "name": "Muzeul Motilor", "name:en": "Museum of Motz People", "name:hu": "M\u00f3c M\u00fazeum", "note": "Check opening hours", "opening_hours": "Apr-Sep Tu-Fr,Su 10:00-18:00; Apr-Sep Sa 10:00-14:00; Oct-Mar Tu-Fr,Su 09:00-17:00; Oct-Mar Sa 10:00-14:00", "source": "INP", "source:link": "http://date.gov.ro/dataset/ghidul-muzeelor-din-romania", "start_date": "1994", "tourism": "museum", "tourism_survey": "29.10.2012 18:06:29", "website": "http://www.muzeusm.ro"}}, {"type": "node", "id": 3462322214, "lat": 47.38465, "lon": 21.868233, "tags": {"name": "Irinyi Eml\u00e9kh\u00e1z", "source": "turistautak.hu", "source:date": "2012-12-11", "tourism": "museum", "url": "http://turistautak.hu/poi.php?id=148405"}}, {"type": "node", "id": 3462322292, "lat": 47.409193, "lon": 21.887561, "tags": {"name": "T\u00e1jh\u00e1z (Kossuth-kert)", "source": "turistautak.hu", "source:date": "2011-05-03", "tourism": "museum", "url": "http://turistautak.hu/poi.php?id=103970"}}, {"type": "node", "id": 3462322994, "lat": 47.382596, "lon": 21.881174, "tags": {"name": "T\u00e1jh\u00e1z", "source": "turistautak.hu", "source:date": "2010-11-27", "tourism": "museum", "url": "http://turistautak.hu/poi.php?id=72034"}}, {"type": "node", "id": 3462323008, "lat": 47.384141, "lon": 21.877613, "tags": {"name": "V\u00edzi v\u00e1g\u00f3h\u00edd", "source": "turistautak.hu", "source:date": "2013-02-20", "tourism": "museum", "url": "http://turistautak.hu/poi.php?id=72787"}}, {"type": "node", "id": 3468057135, "lat": 47.52479, "lon": 21.9031452, "tags": {"name": "T\u00e1jh\u00e1z", "source": "turistautak.hu", "source:date": "2011-05-03", "tourism": "museum", "url": "http://turistautak.hu/poi.php?id=108618"}}, {"type": "node", "id": 3468057136, "lat": 47.5543, "lon": 22.024767, "tags": {"name": "T\u00e1jh\u00e1z", "source": "turistautak.hu", "source:date": "2011-09-23", "tourism": "museum", "url": "http://turistautak.hu/poi.php?id=42892"}}, {"type": "node", "id": 3468060025, "lat": 47.413533, "lon": 21.983583, "tags": {"description": "Mucsi Mih\u00e1ly kov\u00e1csmester m\u0171hely\u00e9nek a 19-20. sz\u00e1zad fordul\u00f3j\u00e1r\u00f3l fennmaradt berendez\u00e9se l\u00e1that\u00f3 teljes szersz\u00e1mk\u00e9szlet\u00e9vel, \u00e9s az itt k\u00e9sz\u00fclt t\u00e1rgyakkal (patk\u00f3k, szek\u00e9r-, ekealkatr\u00e9szek stb.).", "fixme": "resurvey (source was old)", "name": "Kov\u00e1csm\u00fazeum", "source": "turistautak.hu", "source:date": "2008-12-14", "tourism": "museum", "url": "http://turistautak.hu/poi.php?id=62005"}}, {"type": "node", "id": 3468060028, "lat": 47.414691, "lon": 21.978612, "tags": {"name": "K\u00f6lcsey-k\u00faria", "source": "turistautak.hu", "source:date": "2012-09-22", "tourism": "museum", "url": "http://turistautak.hu/poi.php?id=35252"}}, {"type": "node", "id": 4418032506, "lat": 47.5816179, "lon": 21.9011183}, {"type": "node", "id": 4418032507, "lat": 47.581683, "lon": 21.9011987}, {"type": "node", "id": 4418032508, "lat": 47.5817818, "lon": 21.9007677}, {"type": "node", "id": 4418032509, "lat": 47.5818506, "lon": 21.9008589}, {"type": "node", "id": 5520313116, "lat": 47.7372526, "lon": 21.9663101, "tags": {"addr:city": "Ny\u00edrmih\u00e1lydi", "addr:housenumber": "15", "addr:postcode": "4363", "addr:street": "R\u00e1k\u00f3czi utca", "contact:email": "nyirmihalydialap@gmail.com", "contact:phone": "+36 70 223 2105", "name": "Magt\u00e1r M\u00fazeum", "tourism": "museum"}}, {"type": "node", "id": 7613268650, "lat": 47.5429872, "lon": 22.2062153}, {"type": "node", "id": 7613268651, "lat": 47.5429583, "lon": 22.2065077}, {"type": "node", "id": 7613268652, "lat": 47.5430306, "lon": 22.2065234}, {"type": "node", "id": 7613268653, "lat": 47.5430595, "lon": 22.2062311}, {"type": "node", "id": 9280888023, "lat": 47.3891895, "lon": 21.7335001}, {"type": "node", "id": 9280888024, "lat": 47.3891305, "lon": 21.7335035}, {"type": "node", "id": 9280888025, "lat": 47.3891255, "lon": 21.7333159}, {"type": "node", "id": 9280888026, "lat": 47.3891846, "lon": 21.7333125}, {"type": "node", "id": 9315698681, "lat": 47.4157405, "lon": 21.7231129}, {"type": "node", "id": 9315698682, "lat": 47.4157978, "lon": 21.7230694}, {"type": "node", "id": 9315698683, "lat": 47.4159079, "lon": 21.7233863}, {"type": "node", "id": 9315698684, "lat": 47.4158074, "lon": 21.7234625}, {"type": "node", "id": 9315698685, "lat": 47.4157598, "lon": 21.7233254}, {"type": "node", "id": 9315698686, "lat": 47.4158029, "lon": 21.7232927}, {"type": "node", "id": 9415784347, "lat": 47.4717436, "lon": 21.663984}, {"type": "node", "id": 9415784348, "lat": 47.4717772, "lon": 21.6641257}, {"type": "node", "id": 9415784349, "lat": 47.4717276, "lon": 21.6641515}, {"type": "node", "id": 9415784350, "lat": 47.4717556, "lon": 21.6642694}, {"type": "node", "id": 9415784351, "lat": 47.4716638, "lon": 21.6643171}, {"type": "node", "id": 9415784352, "lat": 47.4716021, "lon": 21.6640575}, {"type": "node", "id": 9840815523, "lat": 47.3916704, "lon": 21.6622688}, {"type": "node", "id": 9840815524, "lat": 47.3917448, "lon": 21.6626899}, {"type": "node", "id": 9840815525, "lat": 47.391652, "lon": 21.6627257}, {"type": "node", "id": 9840815526, "lat": 47.3915776, "lon": 21.6623045}, {"type": "way", "id": 444316148, "nodes": [4418032509, 4418032507, 4418032506, 4418032508, 4418032509], "tags": {"addr:city": "Ny\u00edrm\u00e1rtonfalva", "addr:housenumber": "33", "addr:postcode": "4263", "addr:street": "Kossuth utca", "building": "yes", "contact:facebook": "https://www.facebook.com/falumuzeum.nyirmartonfalva", "name": "Ny\u00edrm\u00e1rtonfalva Falum\u00fazeum", "tourism": "museum"}}, {"type": "way", "id": 815059379, "nodes": [7613268653, 7613268652, 7613268651, 7613268650, 7613268653], "tags": {"building": "yes", "name": "Muzeul satului din Curtui\u0219eni", "tourism": "museum"}}, {"type": "way", "id": 1005901169, "nodes": [9280888023, 9280888024, 9280888025, 9280888026, 9280888023], "tags": {"addr:city": "Hossz\u00fap\u00e1lyi", "addr:housenumber": "13", "addr:postcode": "4274", "addr:street": "Nagy utca", "building": "yes", "description": "A XIX. sz\u00e1zad v\u00e9g\u00e9n \u00e9p\u00fclt n\u00e9pi lak\u00f3h\u00e1z a T\u00e1jh\u00e1z ahol minden kedves l\u00e1togat\u00f3 betekint\u00e9st kaphat a parasztember \u00e9let\u00e9r\u0151l, a lak\u00e1sbels\u0151 \u00e9s a mell\u00e9k\u00e9p\u00fcletek, valamint a berendez\u00e9sek az \u00e9letm\u00f3dr\u00f3l, a t\u00e1rsadalmi hovatartoz\u00e1sr\u00f3l \u00e1rulkodnak.", "image": "https://img1.utazzitthon.hu/images/latnivalo/mtzrt/4_446471/bodi-istvan-falumuzeum-es-tajhaz-20478-1-o.jpg", "memorial": "building", "museum": "local", "name": "B\u0151di Istv\u00e1n Falum\u00fazeum \u00e9s T\u00e1jh\u00e1z", "opening_hours": "Mo-Fr 09:00-16:00; Sa-Su off; PH off", "phone": "+36 52 375 114, +36 70 198 66 17", "tourism": "museum"}}, {"type": "way", "id": 1009645150, "nodes": [9315698681, 9315698682, 9315698683, 9315698684, 9315698685, 9315698686, 9315698681], "tags": {"addr:city": "Hossz\u00fap\u00e1lyi", "addr:postcode": "4274", "addr:street": "Olgakert", "building": "yes", "description": "Az \u00e1lland\u00f3 nyitvatart\u00e1si id\u0151n k\u00edv\u00fcl is van lehet\u0151s\u00e9g a Hossz\u00fap\u00e1lyi Borm\u00fazeum megl\u00e1togat\u00e1s\u00e1ra, h\u00e9tk\u00f6znapokon 13.00 \u2013 18.00 \u00f3ra k\u00f6z\u00f6tti id\u0151intervallumban el\u0151zetes telefonos bejelentkez\u00e9s, vagy e-mailen kereszt\u00fcl t\u00f6rt\u00e9n\u0151 id\u0151pontfoglal\u00e1s alapj\u00e1n.", "email": "info@hosszupalyibormuzeum.hu", "image": "http://hosszupalyibormuzeum.hu/wp-content/uploads/photo-gallery/IMG_6419.jpg?bwg=1568642129", "name": "Hossz\u00fap\u00e1lyi Borm\u00fazeum", "opening_hours": "Mo off; Tu 09:00-13:00; We-Th off; Fr-Sa 09:00-13:00; Su off", "phone": "+36 30 569 30 19", "tourism": "museum", "website": "http://hosszupalyibormuzeum.hu"}}, {"type": "way", "id": 1020883183, "nodes": [9415784347, 9415784348, 9415784349, 9415784350, 9415784351, 9415784352, 9415784347], "tags": {"building": "yes", "description": "A hossz\u00fap\u00e1lyi \u00fatf\u00e9len tal\u00e1lhat\u00f3 a 47-es sz. f\u0151\u00fatt\u00f3l 2.8km-re. A nyilv\u00e1noss\u00e1g sz\u00e1m\u00e1ra neml\u00e1togathat\u00f3.", "name": "N\u00e9pm\u0171v\u00e9szeti bemutat\u00f3h\u00e1z", "source": "turistautak.hu", "source:date": "2013-04-21", "tourism": "museum", "url": "http://turistautak.hu/poi.php?id=73451"}}, {"type": "way", "id": 1072575699, "nodes": [9840815526, 9840815523, 9840815524, 9840815525, 9840815526], "tags": {"addr:city": "Hajd\u00fabagos", "addr:housenumber": "89", "addr:postcode": "4273", "addr:street": "Bocskai utca", "building": "yes", "memorial": "building", "museum": "local", "name": "\u00c9l\u0151 T\u00e1jh\u00e1z", "tourism": "museum", "website": "http://www.hajdubagos.hu/latnivalok/elo-tajhaz/"}}]}