{"version": 0.6, "generator": "Overpass API 0.7.59 e21c39fe", "osm3s": {"timestamp_osm_base": "2023-03-01T08:51:03Z", "copyright": "The data included in this document is from www.openstreetmap.org. The data is made available under ODbL."}, "elements": [{"type": "node", "id": 1179154680, "lat": 47.6159185, "lon": 16.5686074, "tags": {"artwork_type": "sculpture", "name": "Millenniumstraube", "tourism": "artwork"}}, {"type": "node", "id": 2384777990, "lat": 47.588697, "lon": 16.4986416, "tags": {"artwork_type": "sculpture", "name": "Kuh", "source": "estimation", "tourism": "artwork"}}, {"type": "node", "id": 2384777991, "lat": 47.5895792, "lon": 16.5034246, "tags": {"artwork_type": "sculpture", "name": "Kuh", "tourism": "artwork"}}, {"type": "node", "id": 2384777992, "lat": 47.5896111, "lon": 16.5035626, "tags": {"artwork_type": "sculpture", "name": "Kuh", "tourism": "artwork"}}, {"type": "node", "id": 2385524663, "lat": 47.5929706, "lon": 16.5484346, "tags": {"artwork_type": "sculpture", "tourism": "artwork"}}, {"type": "node", "id": 2385524664, "lat": 47.5929643, "lon": 16.5485345, "tags": {"artwork_type": "sculpture", "tourism": "artwork"}}, {"type": "node", "id": 2385524665, "lat": 47.592897, "lon": 16.5483743, "tags": {"artwork_type": "sculpture", "tourism": "artwork"}}, {"type": "node", "id": 2385524711, "lat": 47.6033682, "lon": 16.5512161, "tags": {"artwork_subject": "religious", "artwork_type": "statue", "heritage": "2", "heritage:operator": "bda", "historic": "wayside_shrine", "name": "Nepomuk", "ref:at:bda": "85799", "tourism": "artwork", "wikidata": "Q38130761", "wikimedia_commons": "Category:Statue of John of Nepomuk, Herrengasse, Neckenmarkt"}}, {"type": "node", "id": 2385707886, "lat": 47.5982894, "lon": 16.5470911, "tags": {"artwork_subject": "religious", "artwork_type": "statue", "heritage": "2", "heritage:operator": "bda", "historic": "wayside_shrine", "name": "Nepomuk", "ref:at:bda": "67167", "tourism": "artwork", "wikidata": "Q38075479"}}, {"type": "node", "id": 3087839434, "lat": 47.6838197, "lon": 16.5905225, "tags": {"artwork_type": "statue", "disused": "yes", "drinking_water": "no", "name": "M\u00e1ria k\u00fat", "note": "2019-06-27 - \"Ez csak a nev\u00e9ben k\u00fat. Nem lehet vizet vetelezni.\"", "tourism": "artwork"}}, {"type": "node", "id": 3260418664, "lat": 47.6811847, "lon": 16.5737563, "tags": {"artwork_type": "sculpture", "loc_name": "T\u00f6k\u00f6n l\u0151tt szarvas", "name": "Sebzett szarvas", "tourism": "artwork", "website": "https://www.kozterkep.hu/5827/sebzett-szarvas"}}, {"type": "node", "id": 3465143440, "lat": 47.3953, "lon": 16.53845, "tags": {"artwork_type": "statue", "description": "Immaculata-szobor, barokk, 1741. Jelenlegi hely\u00e9n fel\u00e1ll\u00edtva 1875-ben. Eredetileg az egykori s\u00f6rh\u00e1z mellett \u00e1llt. id=9104", "name": "Immaculata", "source": "turistautak.hu", "source:date": "2012-11-19", "tourism": "artwork", "url": "http://turistautak.hu/poi.php?id=76992"}}, {"type": "node", "id": 3465143468, "lat": 47.4102681, "lon": 16.5880387, "tags": {"artwork_type": "statue", "name": "M\u00e1ria-szobor", "source": "turistautak.hu", "source:date": "2015-03-03", "tourism": "artwork", "url": "http://turistautak.hu/poi.php?id=95242"}}, {"type": "node", "id": 3465143581, "lat": 47.388699, "lon": 16.542901, "tags": {"artwork_type": "statue", "source": "turistautak.hu", "source:date": "2011-09-06", "tourism": "artwork", "url": "http://turistautak.hu/poi.php?id=95235", "wheelchair": "yes"}}, {"type": "node", "id": 3465143584, "lat": 47.389331, "lon": 16.630923, "tags": {"artwork_type": "statue", "source": "turistautak.hu", "source:date": "2015-03-03", "tourism": "artwork", "url": "http://turistautak.hu/poi.php?id=95256"}}, {"type": "node", "id": 3465143585, "lat": 47.389334, "lon": 16.630771, "tags": {"artwork_type": "statue", "source": "turistautak.hu", "source:date": "2015-03-03", "tourism": "artwork", "url": "http://turistautak.hu/poi.php?id=95255"}}, {"type": "node", "id": 3465143586, "lat": 47.389422, "lon": 16.630978, "tags": {"artwork_type": "statue", "source": "turistautak.hu", "source:date": "2015-03-03", "tourism": "artwork", "url": "http://turistautak.hu/poi.php?id=95257"}}, {"type": "node", "id": 3465143588, "lat": 47.389509, "lon": 16.630965, "tags": {"artwork_type": "statue", "source": "turistautak.hu", "source:date": "2015-03-03", "tourism": "artwork", "url": "http://turistautak.hu/poi.php?id=95254"}}, {"type": "node", "id": 3465143589, "lat": 47.389547, "lon": 16.630832, "tags": {"artwork_type": "statue", "source": "turistautak.hu", "source:date": "2015-03-03", "tourism": "artwork", "url": "http://turistautak.hu/poi.php?id=95253"}}, {"type": "node", "id": 4225451089, "lat": 47.576546, "lon": 16.3974416, "tags": {"artwork_type": "sculpture", "name": "Naturpark-Platzerl", "tourism": "artwork"}}, {"type": "node", "id": 4688438854, "lat": 47.4080147, "lon": 16.425146, "tags": {"artwork_type": "sculpture", "tourism": "artwork"}}, {"type": "node", "id": 4688438855, "lat": 47.4081415, "lon": 16.4253339, "tags": {"artwork_type": "sculpture", "tourism": "artwork"}}, {"type": "node", "id": 4688438856, "lat": 47.4081772, "lon": 16.4253399, "tags": {"artwork_type": "sculpture", "tourism": "artwork"}}, {"type": "node", "id": 4688438858, "lat": 47.4029842, "lon": 16.4267577, "tags": {"artwork_type": "sculpture", "tourism": "artwork"}}, {"type": "node", "id": 4694290958, "lat": 47.5387438, "lon": 16.5546223, "tags": {"artist_name": "Stjepan Gra\u010dan", "artwork_type": "statue", "heritage": "2", "heritage:operator": "bda", "historic": "memorial", "name": "Mutter mit Kind", "ref:at:bda": "85499", "tourism": "artwork", "wikidata": "Q38129958"}}, {"type": "node", "id": 4757812667, "lat": 47.5963398, "lon": 16.5494029, "tags": {"artwork_type": "sculpture", "tourism": "artwork"}}, {"type": "node", "id": 4907502470, "lat": 47.6923055, "lon": 16.5899154, "tags": {"artwork_type": "sculpture", "tourism": "artwork"}}, {"type": "node", "id": 5371206388, "lat": 47.3670388, "lon": 16.3377418, "tags": {"artwork_type": "model", "tourism": "artwork"}}, {"type": "node", "id": 5371206406, "lat": 47.3692289, "lon": 16.3379276, "tags": {"artwork_type": "model", "tourism": "artwork"}}, {"type": "node", "id": 5372983230, "lat": 47.3750809, "lon": 16.3258995, "tags": {"artwork_type": "model", "description": "Kalkofen", "tourism": "artwork"}}, {"type": "node", "id": 5372983231, "lat": 47.3750073, "lon": 16.3260098, "tags": {"artwork_type": "statue", "layer": "1", "note": "Vogel", "tourism": "artwork"}}, {"type": "node", "id": 5502127129, "lat": 47.6777804, "lon": 16.5838985, "tags": {"description": "7 malomk\u0151 betonb\u00f3l", "name": "H\u00e9t pecs\u00e9t eml\u00e9kszobor-csoport", "source": "https://www.kozterkep.hu/1681/het-pecset-emlekszobor-csoport", "tourism": "artwork"}}, {"type": "node", "id": 5744491398, "lat": 47.6828969, "lon": 16.5880797, "tags": {"amenity": "bench", "artist_name": "Ef Z\u00e1mb\u00f3 Istv\u00e1n", "artwork_type": "installation", "backrest": "yes", "colour": "yellow", "covered": "no", "inscription": "Linkin Park * 2017 Sopron A csillagok v\u00e1rosa The city of stars #csillagokvarosa #cityofstars #voltfesztival #sopron #hellohungary", "material": "steel", "name": "Linkin Park sz\u00e9ke", "note": "VOLT Csillagok v\u00e1rosa", "seats": "1", "source": "survey", "start_date": "2018-06-29", "survey:date": "2018-06-29", "tourism": "artwork", "website": "http://csillagokvarosa.hu"}}, {"type": "node", "id": 5744529718, "lat": 47.6760093, "lon": 16.5942656, "tags": {"amenity": "bench", "artist_name": "Ef Z\u00e1mb\u00f3 Istv\u00e1n", "artwork_type": "installation", "backrest": "yes", "covered": "no", "fixme": "name: little plaque missing | n\u00e9v: a kis t\u00e1bla hi\u00e1nyzik", "material": "steel", "note": "VOLT Csillagok v\u00e1rosa", "seats": "1", "source": "survey", "survey:date": "2018-06-29", "tourism": "artwork", "website": "http://csillagokvarosa.hu"}}, {"type": "node", "id": 5744529719, "lat": 47.6759827, "lon": 16.5942539, "tags": {"amenity": "bench", "artist_name": "Ef Z\u00e1mb\u00f3 Istv\u00e1n", "artwork_type": "installation", "backrest": "yes", "colour": "red", "covered": "no", "inscription": "Bring Me The Horizon * 2014 Sopron A csillagok v\u00e1rosa The city of stars #csillagokvarosa #cityofstars #voltfesztival #sopron", "material": "steel", "name": "Bring Me The Horizon sz\u00e9ke", "note": "VOLT Csillagok v\u00e1rosa", "seats": "1", "source": "survey", "survey:date": "2018-06-29", "tourism": "artwork", "website": "http://csillagokvarosa.hu"}}, {"type": "node", "id": 5917126027, "lat": 47.5063878, "lon": 16.5079917, "tags": {"artwork_type": "sculpture", "tourism": "artwork"}}, {"type": "node", "id": 6401016468, "lat": 47.5924329, "lon": 16.523872, "tags": {"name": "Fahnenschwinger von Neckenmarkt", "tourism": "artwork"}}, {"type": "node", "id": 7004733341, "lat": 47.4139797, "lon": 16.494311, "tags": {"name": "Wandkunst", "tourism": "artwork"}}, {"type": "node", "id": 7004733344, "lat": 47.4134205, "lon": 16.4952276, "tags": {"name": "Holzfigur", "tourism": "artwork"}}, {"type": "node", "id": 7029075216, "lat": 47.6837511, "lon": 16.5709495, "tags": {"artwork_type": "statue", "material": "metal", "name": "NYME", "tourism": "artwork"}}, {"type": "node", "id": 7195149632, "lat": 47.4905687, "lon": 16.4686981, "tags": {"artwork_type": "installation", "tourism": "artwork"}}, {"type": "node", "id": 8370809365, "lat": 47.30615, "lon": 16.440402, "tags": {"artwork_subject": "religious", "artwork_type": "statue", "heritage": "2", "heritage:operator": "bda", "ref:at:bda": "8448", "tourism": "artwork", "wikidata": "Q38127309"}}, {"type": "node", "id": 8394079996, "lat": 47.512268, "lon": 16.401013, "tags": {"artwork_subject": "religious", "artwork_type": "statue", "heritage": "2", "heritage:operator": "bda", "name": "Hl. Antonius", "ref:at:bda": "84304", "tourism": "artwork", "wikidata": "Q38126777"}}, {"type": "node", "id": 8428139457, "lat": 47.590428, "lon": 16.581277, "tags": {"artwork_subject": "religious", "artwork_type": "statue", "heritage": "2", "heritage:operator": "bda", "historic": "wayside_shrine", "name": "Hl. Johannes Nepomuk", "ref:at:bda": "66980", "tourism": "artwork", "wikidata": "Q38074998"}}, {"type": "node", "id": 8430053789, "lat": 47.562625, "lon": 16.423886, "tags": {"artwork_type": "statue", "heritage": "2", "heritage:operator": "bda", "name": "Nymphe", "ref:at:bda": "86159", "tourism": "artwork", "wikidata": "Q38131533"}}, {"type": "node", "id": 8434244091, "lat": 47.46286, "lon": 16.63147, "tags": {"artwork_subject": "religious", "artwork_type": "statue", "heritage": "2", "heritage:operator": "bda", "historic": "wayside_shrine", "name": "Hl. Josef", "ref:at:bda": "67027", "tourism": "artwork", "wikidata": "Q38075169"}}, {"type": "node", "id": 8434244092, "lat": 47.45836, "lon": 16.64025, "tags": {"artwork_subject": "religious", "artwork_type": "statue", "heritage": "2", "heritage:operator": "bda", "historic": "wayside_shrine", "name": "Hl. Johannes Nepomuk", "ref:at:bda": "67026", "tourism": "artwork", "wikidata": "Q38075157"}}, {"type": "node", "id": 8435134490, "lat": 47.5340302, "lon": 16.6510519, "tags": {"artwork_subject": "religious", "artwork_type": "statue", "heritage": "2", "heritage:operator": "bda", "historic": "wayside_shrine", "name": "Hl. Florian", "ref:at:bda": "85593", "tourism": "artwork", "wikidata": "Q38130228", "wikimedia_commons": "File:Nikitsch - Florianikapelle.JPG"}}, {"type": "node", "id": 8435134497, "lat": 47.535101, "lon": 16.656934, "tags": {"artwork_subject": "religious", "artwork_type": "statue", "heritage": "2", "heritage:operator": "bda", "historic": "wayside_shrine", "name": "Hl. Johannes Nepomuk", "ref:at:bda": "67005", "tourism": "artwork", "wikidata": "Q38075034", "wikimedia_commons": "File:Nikitsch - Nepomukstatue.JPG"}}, {"type": "node", "id": 8436985727, "lat": 47.500387, "lon": 16.50655, "tags": {"artwork_subject": "religious", "artwork_type": "statue", "heritage": "2", "heritage:operator": "bda", "historic": "wayside_shrine", "name": "Hl. Johannes Nepomuk", "ref:at:bda": "85071", "tourism": "artwork", "wikidata": "Q38128562"}}, {"type": "node", "id": 8737918908, "lat": 47.6544933, "lon": 16.4900649, "tags": {"artwork_type": "statue", "name": "Szent Borb\u00e1la", "tourism": "artwork"}}, {"type": "node", "id": 9010951201, "lat": 47.6816419, "lon": 16.5975673, "tags": {"artwork_type": "statue", "name": "Klebelsberg Kuno", "tourism": "artwork"}}, {"type": "node", "id": 9013548236, "lat": 47.6877203, "lon": 16.5907637, "tags": {"artwork_type": "statue", "name": "Soproni Horv\u00e1th J\u00f3zsef", "tourism": "artwork"}}, {"type": "node", "id": 9021474878, "lat": 47.6423743, "lon": 16.6408943, "tags": {"artwork_type": "sculpture", "material": "metal", "memorial": "sculpture", "name": "F\u00f6ldg\u00f6mb", "tourism": "artwork"}}, {"type": "node", "id": 9039170516, "lat": 47.5909481, "lon": 16.5821126, "tags": {"artwork_type": "sculpture", "tourism": "artwork"}}, {"type": "node", "id": 9173848945, "lat": 47.6778035, "lon": 16.5833403, "tags": {"artist_name": "Kanji Nomura \u00e9p\u00edt\u00e9sz", "name": "P\u00e1neur\u00f3pai k\u0151kert;jap\u00e1nkert", "source": "https://www.kozterkep.hu/7530/paneuropai-kokert#", "start_date": "2009.08.18", "tourism": "artwork"}}, {"type": "node", "id": 9173848957, "lat": 47.6781497, "lon": 16.5837862, "tags": {"artist_name": "Sarkady Antal", "inscription": "\u00e9s Istent\u0151l val\u00f3 akarat, mely \u00fajra \u00e9p\u00edti a falakat. A v\u00edz szalad, de a k\u0151 marad, a K\u0150 MARAD.", "name": "Trianon eml\u00e9km\u0171", "start_date": "2010.06.04", "tourism": "artwork"}}, {"type": "node", "id": 9173849572, "lat": 47.6783362, "lon": 16.5838892, "tags": {"description": "latin bet\u0171s \u00e9s rov\u00e1s felirattal", "image": "https://s3.eu-central-1.amazonaws.com/kozterkep/photos/70cad5e89e8dfdb12895e0f3fd70c4b0_1.jpg", "inscription": "dr. M\u00e1ty\u00e1s Vilmos (*1911. Arad +1986.Sopron) az Utaz\u00e1sok Erd\u00e9lyben c\u00edm\u0171 k\u00f6nyv szerkeszt\u0151j\u00e9nek eml\u00e9k\u00e9re \u00e1ll\u00edttatta a Soproni Erd\u00e9lyi K\u00f6r 1997.X.21. \ud803\udcff\ud803\udcfb\ud803\udcfa\ud803\udcfa\ud803\udcfa\ud803\udcfa\ud803\udcfe\ud803\udcfd\ud803\udcfc\ud803\udcfc\ud803\udcfc\ud803\udcfc\ud803\udcfb\ud803\udcfa\ud803\udcfa \ud803\udc9b\ud803\udc93\ud803\udca6\ud803\udc9c\ud803\udc82\ud803\udc89\ud803\udca2 \ud803\udcfc\ud803\udcfc\ud803\udcfa", "name": "sz\u00e9kelykapu", "source": "https://www.kozterkep.hu/1678/szekelykapu#", "start_date": "1996", "tourism": "artwork"}}, {"type": "node", "id": 9831648080, "lat": 47.6778452, "lon": 16.5880948, "tags": {"artwork_type": "sculpture", "image": "File:Seat sculptures near Sopron train station 1.jpg", "tourism": "artwork"}}, {"type": "node", "id": 9831648081, "lat": 47.6782651, "lon": 16.5876053, "tags": {"artwork_type": "sculpture", "image": "File:Seat sculptures near Sopron train station 2.jpg", "tourism": "artwork"}}, {"type": "node", "id": 10051292221, "lat": 47.6773609, "lon": 16.5518767, "tags": {"artwork_type": "statue", "name": "Krisztus megostoroz\u00e1sa", "name:de": "Die Geiselung Christi", "start_date": "1667", "tourism": "artwork"}}, {"type": "node", "id": 10051292222, "lat": 47.6773502, "lon": 16.5519252, "tags": {"artwork_type": "statue", "name": "J\u00e9zus t\u00f6vissel koron\u00e1z\u00e1sa", "name:de": "Die Dornenkr\u00f6nung Christi", "start_date": "1667", "tourism": "artwork"}}, {"type": "node", "id": 10054788461, "lat": 47.677487, "lon": 16.5515873, "tags": {"artwork_type": "statue", "material": "stone", "name": "Szent P\u00e9ter apostol", "tourism": "artwork"}}, {"type": "node", "id": 10054788463, "lat": 47.6774959, "lon": 16.5516251, "tags": {"artwork_type": "statue", "material": "stone", "name": "M\u00e1ria Magdolna t\u00f6megrekonstrukci\u00f3ja", "tourism": "artwork"}}, {"type": "node", "id": 10054788465, "lat": 47.6777988, "lon": 16.5514324, "tags": {"artwork_type": "statue", "material": "stone", "name": "Remete Szent P\u00e1l", "tourism": "artwork"}}, {"type": "node", "id": 10054788466, "lat": 47.6778045, "lon": 16.551467, "tags": {"artwork_type": "statue", "material": "stone", "name": "Remete Szent Antal", "tourism": "artwork"}}, {"type": "node", "id": 10054788467, "lat": 47.6777445, "lon": 16.551458, "tags": {"artwork_type": "statue", "material": "stone", "name": "Szent Anna", "tourism": "artwork"}}, {"type": "node", "id": 10054788468, "lat": 47.6777522, "lon": 16.5514919, "tags": {"artwork_type": "statue", "material": "stone", "name": "Szent Jeromos", "tourism": "artwork"}}, {"type": "node", "id": 10054788469, "lat": 47.6777029, "lon": 16.551518, "tags": {"artwork_type": "statue", "material": "stone", "name": "Cortonai Szent Margit", "tourism": "artwork"}}, {"type": "node", "id": 10054788470, "lat": 47.6776923, "lon": 16.5514843, "tags": {"artwork_type": "statue", "material": "stone", "name": "Nepomuki Szent J\u00e1nos", "tourism": "artwork"}}, {"type": "node", "id": 10054788471, "lat": 47.6776338, "lon": 16.5515139, "tags": {"artwork_type": "statue", "material": "stone", "name": "Avilai Szent Ter\u00e9z", "tourism": "artwork"}}, {"type": "node", "id": 10054788472, "lat": 47.677642, "lon": 16.5515492, "tags": {"artwork_type": "statue", "material": "stone", "name": "Sz\u0171z v\u00e9rtan\u00fa", "tourism": "artwork"}}, {"type": "node", "id": 10054788473, "lat": 47.6775841, "lon": 16.5515377, "tags": {"artwork_type": "statue", "material": "stone", "name": "P\u00e1duai Szent Antal", "tourism": "artwork"}}, {"type": "node", "id": 10054788474, "lat": 47.677592, "lon": 16.5515748, "tags": {"artwork_type": "statue", "material": "stone", "name": "Szent J\u00f3zsef", "tourism": "artwork"}}, {"type": "node", "id": 10054788475, "lat": 47.6775352, "lon": 16.5515626, "tags": {"artwork_type": "statue", "material": "stone", "name": "Szent Borb\u00e1la", "tourism": "artwork"}}, {"type": "node", "id": 10054788476, "lat": 47.6775427, "lon": 16.5516006, "tags": {"artwork_type": "statue", "material": "stone", "name": "Alexandriai Szent Katalin", "tourism": "artwork"}}, {"type": "node", "id": 10124954152, "lat": 47.4224076, "lon": 16.564646, "tags": {"artwork_subject": "Hl. Florian", "artwork_type": "sculpture", "tourism": "artwork"}}, {"type": "node", "id": 10124954172, "lat": 47.4220599, "lon": 16.5638255, "tags": {"tourism": "artwork"}}, {"type": "node", "id": 10568389328, "lat": 47.5244292, "lon": 16.4763286, "tags": {"artwork_type": "sculpture", "material": "tiles,concrete", "name": "Stoober Finger", "tourism": "artwork"}}]}