{"version": 0.6, "generator": "Overpass API 0.7.59 e21c39fe", "osm3s": {"timestamp_osm_base": "2023-03-01T09:36:38Z", "copyright": "The data included in this document is from www.openstreetmap.org. The data is made available under ODbL."}, "elements": [{"type": "node", "id": 321363137, "lat": 46.9604381, "lon": 17.8605128, "tags": {"tourism": "viewpoint"}}, {"type": "node", "id": 454281791, "lat": 47.0006958, "lon": 17.8520116, "tags": {"alt_name": "Recsek-hegyi kil\u00e1t\u00f3", "man_made": "tower", "name": "Noszlopy G\u00e1sp\u00e1r kil\u00e1t\u00f3", "tourism": "viewpoint", "tower:type": "observation"}}, {"type": "node", "id": 455064758, "lat": 46.9719156, "lon": 17.8814871, "tags": {"description": "3 emelet, 13m magas, kil\u00e1t\u00e1s a Balatonra \u00e9s a k\u00f6rnyez\u0151 erd\u0151kre", "man_made": "tower", "name": "J\u00f3kai-kil\u00e1t\u00f3", "tourism": "viewpoint", "tower:type": "observation"}}, {"type": "node", "id": 1110147815, "lat": 46.933734, "lon": 17.7072528, "tags": {"man_made": "tower", "name": "Kossuth-kil\u00e1t\u00f3", "tourism": "viewpoint", "tower:type": "observation", "url": "https://welovebalaton.hu/aktiv.balaton/bringa.kirandulas/halom.hegyi.vulkan.tanosveny", "url:geocaching": "http://geocaching.hu/caches.geo?id=855", "url:geopark": "http://www.geopark.hu/component/jevents/icalrepeat.detail/2016/09/04/1558/-/halom-hegyi-geotura-es-terepi-tarsasjatek-a-vulkan-tanosvenyen-a-kossuth-kilatonal"}}, {"type": "node", "id": 1423071642, "lat": 47.2061375, "lon": 17.9305225}, {"type": "node", "id": 1423071648, "lat": 47.2061658, "lon": 17.9304592}, {"type": "node", "id": 1423071656, "lat": 47.2061809, "lon": 17.9305646}, {"type": "node", "id": 1423071658, "lat": 47.2062092, "lon": 17.9305013}, {"type": "node", "id": 1801167246, "lat": 47.1087715, "lon": 17.8443741, "tags": {"disused:man_made": "tower", "name": "Kil\u00e1t\u00f3 (lebontva)", "tourism": "viewpoint", "tower:type": "observation"}}, {"type": "node", "id": 1821892409, "lat": 47.1408966, "lon": 17.3772655, "tags": {"name": "\u00d3ri\u00e1sok L\u00e9pcs\u0151je", "name:en": "Giants' Steps", "name:hu": "\u00d3ri\u00e1sok L\u00e9pcs\u0151je", "tourism": "viewpoint"}}, {"type": "node", "id": 1887530477, "lat": 46.9922386, "lon": 17.9236414}, {"type": "node", "id": 1952242330, "lat": 47.0209559, "lon": 17.4487682, "tags": {"tourism": "viewpoint"}}, {"type": "node", "id": 2088561272, "lat": 47.294366, "lon": 17.7545048}, {"type": "node", "id": 2088561273, "lat": 47.294366, "lon": 17.7545721}, {"type": "node", "id": 2088561275, "lat": 47.2944107, "lon": 17.7545048}, {"type": "node", "id": 2088561276, "lat": 47.2944107, "lon": 17.7545721}, {"type": "node", "id": 2260305542, "lat": 47.0975559, "lon": 17.9022879, "tags": {"direction": "250-60", "name": "V\u00e1rfok", "tourism": "viewpoint"}}, {"type": "node", "id": 2286167636, "lat": 47.0977773, "lon": 17.8652889, "tags": {"tourism": "viewpoint"}}, {"type": "node", "id": 2292700771, "lat": 47.072723, "lon": 17.847015, "tags": {"tourism": "viewpoint"}}, {"type": "node", "id": 2320465589, "lat": 47.1087556, "lon": 17.8200288, "tags": {"tourism": "viewpoint"}}, {"type": "node", "id": 2355007289, "lat": 47.0963636, "lon": 17.9094676, "tags": {"tourism": "viewpoint"}}, {"type": "node", "id": 2355007290, "lat": 47.0977819, "lon": 17.9105645, "tags": {"tourism": "viewpoint"}}, {"type": "node", "id": 2376376757, "lat": 47.1466402, "lon": 17.3719524}, {"type": "node", "id": 2376376759, "lat": 47.1466398, "lon": 17.3721258}, {"type": "node", "id": 2376376761, "lat": 47.1467358, "lon": 17.3719529}, {"type": "node", "id": 2376376763, "lat": 47.1467354, "lon": 17.3721263}, {"type": "node", "id": 2422064714, "lat": 47.1098954, "lon": 17.8428032, "tags": {"tourism": "viewpoint"}}, {"type": "node", "id": 2477774141, "lat": 47.2580698, "lon": 17.7298294, "tags": {"direction": "120-300", "name": "Erzs\u00e9bet-kil\u00e1t\u00f3", "tourism": "viewpoint", "wikidata": "Q110253212"}}, {"type": "node", "id": 2509577624, "lat": 47.1810614, "lon": 17.8556804, "tags": {"alt_name": "Papod kil\u00e1t\u00f3", "height": "19.56", "man_made": "tower", "name": "Vit\u00e9z Bertalan \u00c1rp\u00e1d kil\u00e1t\u00f3", "operator": "HM Verga Zrt.", "ref": "53-41 L\u00f3k\u00fat, Papod", "tourism": "viewpoint", "tower:type": "observation"}}, {"type": "node", "id": 2628901985, "lat": 46.971754, "lon": 17.9397047, "tags": {"name": "Mad\u00e1rles \u00e9s csillagv\u00e1rta", "tourism": "viewpoint"}}, {"type": "node", "id": 2787762773, "lat": 46.9954867, "lon": 17.6381209, "tags": {"direction": "270-45", "tourism": "viewpoint"}}, {"type": "node", "id": 2862591448, "lat": 47.2638117, "lon": 17.6882109, "tags": {"direction": "45", "name": "Witt-kil\u00e1t\u00f3pont", "tourism": "viewpoint"}}, {"type": "node", "id": 2997004748, "lat": 47.0065222, "lon": 17.9155372}, {"type": "node", "id": 2997004749, "lat": 47.0065233, "lon": 17.9156067}, {"type": "node", "id": 2997004750, "lat": 47.0065656, "lon": 17.9155356}, {"type": "node", "id": 2997004751, "lat": 47.0065667, "lon": 17.9156052}, {"type": "node", "id": 3022547393, "lat": 47.1575581, "lon": 17.8014167, "tags": {"ele": "475", "height": "20", "man_made": "tower", "name": "Fekete Istv\u00e1n-kil\u00e1t\u00f3", "operator": "VERGA Veszpr\u00e9mi Erd\u0151gazdas\u00e1g Zrt.", "tourism": "viewpoint", "tower:type": "observation", "url": "http://www.vergakozjo.hu/Kilatoink/Fekete-Istvan-kilato", "website": "https://www.geocaching.hu/caches.geo?id=4523"}}, {"type": "node", "id": 3049402952, "lat": 46.9909279, "lon": 17.8844598, "tags": {"tourism": "viewpoint"}}, {"type": "node", "id": 3181364688, "lat": 47.1427597, "lon": 17.3751656, "tags": {"name": "Kil\u00e1t\u00e1s", "tourism": "viewpoint"}}, {"type": "node", "id": 3246261552, "lat": 47.0411312, "lon": 17.5643219, "tags": {"man_made": "tower", "name": "Ny\u00edresi-kil\u00e1t\u00f3", "tourism": "viewpoint", "tower:type": "observation"}}, {"type": "node", "id": 3362472179, "lat": 47.11422, "lon": 17.9069, "tags": {"height": "6", "man_made": "tower", "name": "Jutas vit\u00e9z kil\u00e1t\u00f3", "source": "turistautak.hu", "start_date": "2014", "tourism": "viewpoint", "tower:type": "observation", "url": "http://turistautak.hu/poi.php?id=172949"}}, {"type": "node", "id": 3439475680, "lat": 47.0969257, "lon": 17.8837785, "tags": {"source": "turistautak.hu", "source:date": "2013-03-02", "tourism": "viewpoint", "url": "http://turistautak.hu/poi.php?id=27822"}}, {"type": "node", "id": 3439631927, "lat": 46.966283, "lon": 17.732995, "tags": {"source": "turistautak.hu", "source:date": "2013-10-06", "tourism": "viewpoint", "url": "http://turistautak.hu/poi.php?id=63676"}}, {"type": "node", "id": 3439631937, "lat": 46.974228, "lon": 17.737024, "tags": {"source": "turistautak.hu", "source:date": "2013-03-01", "tourism": "viewpoint", "url": "http://turistautak.hu/poi.php?id=63688"}}, {"type": "node", "id": 3439631981, "lat": 47.033025, "lon": 17.890402, "tags": {"source": "turistautak.hu", "source:date": "2013-10-06", "tourism": "viewpoint", "url": "http://turistautak.hu/poi.php?id=77821"}}, {"type": "node", "id": 3439631988, "lat": 47.035867, "lon": 17.629883, "tags": {"source": "turistautak.hu", "source:date": "2013-04-01", "tourism": "viewpoint", "url": "http://turistautak.hu/poi.php?id=29208"}}, {"type": "node", "id": 3439631989, "lat": 47.036695, "lon": 17.629735, "tags": {"source": "turistautak.hu", "source:date": "2013-04-01", "tourism": "viewpoint", "url": "http://turistautak.hu/poi.php?id=29207"}}, {"type": "node", "id": 3448565793, "lat": 46.922951, "lon": 17.552032, "tags": {"man_made": "tower", "name": "Temet\u0151dombi kil\u00e1t\u00f3", "source": "turistautak.hu", "source:date": "2013-08-03", "tourism": "viewpoint", "tower:type": "observation", "url": "http://turistautak.hu/poi.php?id=135839"}}, {"type": "node", "id": 3458274336, "lat": 47.2959171, "lon": 17.7370528, "tags": {"tourism": "viewpoint", "url": "http://turistautak.hu/poi.php?id=84679"}}, {"type": "node", "id": 3458274496, "lat": 47.230095, "lon": 17.577902, "tags": {"man_made": "tower", "name": "T\u00e1ncsics-kil\u00e1t\u00f3 (romos)", "ruins": "yes", "source": "turistautak.hu", "source:date": "2013-04-14", "tourism": "viewpoint", "tower:type": "observation", "url": "http://turistautak.hu/poi.php?id=12695"}}, {"type": "node", "id": 3458274523, "lat": 47.212097, "lon": 17.646071, "tags": {"source": "turistautak.hu", "source:date": "2013-04-20", "tourism": "viewpoint", "url": "http://turistautak.hu/poi.php?id=60130"}}, {"type": "node", "id": 3458274554, "lat": 47.280983, "lon": 17.719417, "tags": {"description": "180\u00b0-os kil\u00e1t\u00e1s D-Ny ir\u00e1nyba.", "source": "turistautak.hu", "source:date": "2013-09-01", "tourism": "viewpoint", "url": "http://turistautak.hu/poi.php?id=158701"}}, {"type": "node", "id": 3458341360, "lat": 46.959883, "lon": 17.750583, "tags": {"source": "turistautak.hu", "source:date": "2013-10-06", "tourism": "viewpoint", "url": "http://turistautak.hu/poi.php?id=20356"}}, {"type": "node", "id": 3458341370, "lat": 46.9628, "lon": 17.757117, "tags": {"source": "turistautak.hu", "source:date": "2013-10-06", "tourism": "viewpoint", "url": "http://turistautak.hu/poi.php?id=10284"}}, {"type": "node", "id": 3458341385, "lat": 46.9765323, "lon": 17.8949066, "tags": {"source": "turistautak.hu", "source:date": "2014-03-30", "tourism": "viewpoint", "url": "http://turistautak.hu/poi.php?id=77796"}}, {"type": "node", "id": 3466293459, "lat": 47.150962, "lon": 17.370616, "tags": {"source": "turistautak.hu", "source:date": "2013-04-20", "tourism": "viewpoint", "url": "http://turistautak.hu/poi.php?id=80004"}}, {"type": "node", "id": 3511915193, "lat": 46.9673207, "lon": 17.8818371, "tags": {"tourism": "viewpoint"}}, {"type": "node", "id": 3701181894, "lat": 46.9622968, "lon": 17.8605884, "tags": {"source": "survey", "survey:date": "2022-02-06", "tourism": "viewpoint", "url": "http://turistautak.hu/poi.php?id=141168"}}, {"type": "node", "id": 3741958832, "lat": 46.9708834, "lon": 17.7294659, "tags": {"name": "k\u00e1lv\u00e1riadombi k\u00f6rpanor\u00e1ma", "tourism": "viewpoint"}}, {"type": "node", "id": 3778003759, "lat": 47.0324248, "lon": 17.6177656, "tags": {"man_made": "tower", "name": "Moln\u00e1r G\u00e1bor kil\u00e1t\u00f3", "tourism": "viewpoint", "tower:type": "observation"}}, {"type": "node", "id": 3790556607, "lat": 47.1075024, "lon": 17.7857872, "tags": {"height": "15", "is_in": "Szentg\u00e1li Tiszaf\u00e1s Term\u00e9szetv\u00e9delmi Ter\u00fclet; Szentg\u00e1l", "man_made": "tower", "material": "wood", "name": "Dr. Majer Antal Kil\u00e1t\u00f3", "tourism": "viewpoint", "tower:type": "observation", "url": "https://www.origo.hu/utazas/20180528-kirandulas-a-bandi-essegvarnal-es-a-szentgali-tiszafaerdoben.html", "website": "http://www.szentgal.hu/turizmus/latnivalok/latnivalok/items/view/szentgali-tiszafas.html"}}, {"type": "node", "id": 3921060617, "lat": 47.1057157, "lon": 17.7770296, "tags": {"name": "T\u00f3ni b\u00e1csi kunyh\u00f3ja", "tourism": "viewpoint"}}, {"type": "node", "id": 4044001329, "lat": 47.0950138, "lon": 17.8867393, "tags": {"height": "22", "man_made": "tower", "material": "metal", "name": "Gizella kir\u00e1lyn\u00e9 kil\u00e1t\u00f3", "old_name": "Gulya-dombi kil\u00e1t\u00f3", "tourism": "viewpoint", "tower:construction": "metal", "tower:type": "observation"}}, {"type": "node", "id": 4159245931, "lat": 47.0459589, "lon": 17.6572498, "tags": {"man_made": "tower", "name": "Kinizsi P\u00e1l kil\u00e1t\u00f3", "tourism": "viewpoint", "tower:type": "observation", "wikidata": "Q110254261", "wikipedia": "hu:Kab-hegy"}}, {"type": "node", "id": 4770079821, "lat": 47.0600808, "lon": 17.9315582, "tags": {"alt_name": "meteoritkr\u00e1ter Meggyespuszta (Veszpr\u00e9m)", "ele": "296", "name": "kr\u00e1ter Meggyespuszta", "tourism": "viewpoint", "website": "http://epa.oszk.hu/02900/02934/00033/pdf/EPA02934_mafi_evi_jelentes_2006_155-167.pdf", "wheelchair": "limited"}}, {"type": "node", "id": 4770265724, "lat": 47.0602292, "lon": 17.9418123, "tags": {"is_in": "Meggyespuszta", "name": "meteroritkr\u00e1ter Meggyespuszta (GCMKRA)", "ref": "1513. Meteoritkr\u00e1ter \"\u00c1ll\u00edt\u00f3lag\" (GCMKRA)", "tourism": "viewpoint", "website": "http://geocaching.hu/caches.geo?id=1752"}}, {"type": "node", "id": 4826958190, "lat": 47.0156099, "lon": 17.8472634, "tags": {"tourism": "viewpoint"}}, {"type": "node", "id": 4840186470, "lat": 47.0335054, "lon": 17.9006707, "tags": {"tourism": "viewpoint"}}, {"type": "node", "id": 4914085238, "lat": 46.9789362, "lon": 17.9445089, "tags": {"tourism": "viewpoint"}}, {"type": "node", "id": 5174216627, "lat": 47.0459305, "lon": 17.6560286, "tags": {"tourism": "viewpoint"}}, {"type": "node", "id": 5174216643, "lat": 47.2498132, "lon": 17.7091953, "tags": {"tourism": "viewpoint"}}, {"type": "node", "id": 5290250797, "lat": 47.1381837, "lon": 17.653361, "tags": {"tourism": "viewpoint"}}, {"type": "node", "id": 5413047321, "lat": 47.3146503, "lon": 17.4972744, "tags": {"name": "\u00d6reghegy kil\u00e1t\u00f3", "tourism": "viewpoint"}}, {"type": "node", "id": 5792795412, "lat": 47.0962271, "lon": 17.8994615, "tags": {"tourism": "viewpoint"}}, {"type": "node", "id": 6105665242, "lat": 47.2084101, "lon": 17.72309, "tags": {"tourism": "viewpoint"}}, {"type": "node", "id": 6381267596, "lat": 46.9891, "lon": 17.9201333, "tags": {"tourism": "viewpoint"}}, {"type": "node", "id": 6398778208, "lat": 46.9886917, "lon": 17.9128017, "tags": {"tourism": "viewpoint"}}, {"type": "node", "id": 6398778524, "lat": 46.9882534, "lon": 17.9151243, "tags": {"tourism": "viewpoint"}}, {"type": "node", "id": 6398778588, "lat": 46.9813617, "lon": 17.9016967, "tags": {"name": "Sz\u00e9p kil\u00e1t\u00e1s", "tourism": "viewpoint"}}, {"type": "node", "id": 6468087093, "lat": 47.131969, "lon": 17.7026868, "tags": {"source": "survey", "survey:date": "2019-04-27", "tourism": "viewpoint"}}, {"type": "node", "id": 6614575149, "lat": 46.9225588, "lon": 17.4566442, "tags": {"tourism": "viewpoint"}}, {"type": "node", "id": 6614575160, "lat": 46.9243285, "lon": 17.454307, "tags": {"tourism": "viewpoint"}}, {"type": "node", "id": 6614611492, "lat": 46.9245306, "lon": 17.4598628, "tags": {"tourism": "viewpoint"}}, {"type": "node", "id": 6723624516, "lat": 47.0898839, "lon": 17.8961063, "tags": {"tourism": "viewpoint"}}, {"type": "node", "id": 6723628432, "lat": 47.0941956, "lon": 17.8919977, "tags": {"tourism": "viewpoint"}}, {"type": "node", "id": 6727504720, "lat": 47.0955055, "lon": 17.8936654, "tags": {"tourism": "viewpoint"}}, {"type": "node", "id": 6727510852, "lat": 47.0949287, "lon": 17.8925061, "tags": {"tourism": "viewpoint"}}, {"type": "node", "id": 7572104373, "lat": 46.9611467, "lon": 17.8496667, "tags": {"name": "Kil\u00e1t\u00f3", "tourism": "viewpoint"}}, {"type": "node", "id": 7656601489, "lat": 47.1200878, "lon": 17.7809316, "tags": {"direction": "N", "tourism": "viewpoint"}}, {"type": "node", "id": 7837867360, "lat": 47.2203952, "lon": 17.5732166, "tags": {"source": "turistautak.hu", "source:date": "2020-08-09", "tourism": "viewpoint"}}, {"type": "node", "id": 7870922888, "lat": 46.9922415, "lon": 17.9235977}, {"type": "node", "id": 7870922889, "lat": 46.9922931, "lon": 17.9236051}, {"type": "node", "id": 7870922890, "lat": 46.9922902, "lon": 17.9236488}, {"type": "node", "id": 7870922891, "lat": 46.9922629, "lon": 17.9236669}, {"type": "node", "id": 7870922892, "lat": 46.9922688, "lon": 17.9235796}, {"type": "node", "id": 8124184400, "lat": 46.924537, "lon": 17.4594664, "tags": {"tourism": "viewpoint"}}, {"type": "node", "id": 8151426686, "lat": 46.9706236, "lon": 17.7847164, "tags": {"name": "Sz\u00e9p kil\u00e1t\u00e1s", "tourism": "viewpoint"}}, {"type": "node", "id": 8936153821, "lat": 46.9713442, "lon": 17.7714961, "tags": {"tourism": "viewpoint"}}, {"type": "node", "id": 8944657713, "lat": 47.1165148, "lon": 17.7931086, "tags": {"tourism": "viewpoint"}}, {"type": "node", "id": 9864283439, "lat": 47.1632084, "lon": 17.6813391, "tags": {"access": "yes", "addr:city": "Csehb\u00e1nya", "addr:place": "Csigahegy", "addr:province": "Veszpr\u00e9m Megye", "closest_town": "V\u00e1rosl\u0151d - Csehb\u00e1nya", "dark_sky": "yes", "description": "7,2 magnit\u00fad\u00f3 az \u00e9gbolt szabad szemes hat\u00e1rf\u00e9nyess\u00e9ge. SQM 21,47 mag./arc sec2", "direction": "0-360", "ele": "370", "fee": "no", "is_in": "H\u00f6lgyk\u0151 v\u00e1ralja; V\u00e1rosl\u0151d-Csehb\u00e1nya-\u00dajtelep k\u00fclter\u00fclet; Bakony", "leisure": "star_gazing", "name": "amat\u0151rcsillag\u00e1sz \u00e9szlel\u0151hely H\u00f6lgyk\u0151 (7,2mn darksky)", "surface": "grass", "surveillance": "astronomy", "surveillance:type": "viewpoint", "tourism": "viewpoint", "type": "astronomy", "url": "https://www.lightpollutionmap.info/#zoom=15.12&lat=47.1638&lon=17.6820&layers=0BFFFFFFTFFFFFFFFFFFF&state=eyJtYXJrZXJzIjp7Im1hcmtlcm15TG9jYXRpb24iOlsyMTM4MjE0LDU5NTkzODhdfX0=", "url:2": "https://www.csillagvaros.hu", "url:darksky": "fenyszennyezes.hu", "website": "http://umap.openstreetmap.fr/hu/map/csillag-terkep_441074#11/47.1510/17.6998"}}, {"type": "node", "id": 9943228573, "lat": 47.0973864, "lon": 17.895937, "tags": {"tourism": "viewpoint"}}, {"type": "node", "id": 10130713617, "lat": 47.107437, "lon": 17.785855, "tags": {"tourism": "viewpoint"}}, {"type": "node", "id": 10139381785, "lat": 47.2865984, "lon": 17.7943478, "tags": {"tourism": "viewpoint"}}, {"type": "node", "id": 10178955306, "lat": 47.2839945, "lon": 17.7890727, "tags": {"tourism": "viewpoint"}}, {"type": "node", "id": 10304009481, "lat": 47.0953462, "lon": 17.9055476, "tags": {"tourism": "viewpoint"}}, {"type": "way", "id": 128887032, "nodes": [1423071658, 1423071656, 1423071642, 1423071648, 1423071658], "tags": {"access": "yes", "building": "yes", "ele": "525", "fee": "no", "height": "12", "is_in": "\u00c1mos-hegy \u00e9szaki oldal; Epl\u00e9nyi S\u00edk\u00f6zpont; D\u00e9li-Bakony hegys\u00e9g", "man_made": "tower", "material": "wood", "name": "\u00c1mos-hegyi kil\u00e1t\u00f3", "opening_hours": "24/7", "tourism": "viewpoint", "tower:construction": "lattice", "tower:type": "observation", "url": "https://www.termeszetjaro.hu/hu/poi/kilato/amos-hegyi-kilato-epleny/23098312/", "website": "https://amoshegyikilato.business.site/"}}, {"type": "way", "id": 198758045, "nodes": [2088561275, 2088561276, 2088561273, 2088561272, 2088561275], "tags": {"building": "yes", "man_made": "tower", "name": "Vajda P\u00e9ter kil\u00e1t\u00f3", "tourism": "viewpoint", "tower:type": "observation", "wheelchair": "no", "wikidata": "Q110248919", "wikipedia": "hu:K\u0151ris-hegy"}}, {"type": "way", "id": 228995582, "nodes": [2376376757, 2376376759, 2376376763, 2376376761, 2376376757], "tags": {"building": "yes", "fee": "yes", "man_made": "tower", "material": "stone", "name": "Szent Istv\u00e1n kil\u00e1t\u00f3", "opening_hours": "Fr 12:00-17:00; Sa, Su 11:00-18:00", "phone": "+36 20 566 4838;+36 30 976 3271", "tourism": "viewpoint", "tower:type": "observation"}}, {"type": "way", "id": 295942293, "nodes": [2997004750, 2997004748, 2997004749, 2997004751, 2997004750], "tags": {"man_made": "tower", "material": "wood", "tourism": "viewpoint", "tower:type": "observation"}}, {"type": "way", "id": 843760369, "nodes": [7870922891, 7870922890, 7870922889, 7870922892, 7870922888, 1887530477, 7870922891], "tags": {"abandoned:start_date": "1985", "description": "\u00daj kil\u00e1t\u00f3 a kor\u00e1bbi Endr\u0151di kil\u00e1t\u00f3 hely\u00e9n", "ele": "327", "man_made": "tower", "name": "Cs\u00e1k\u00e1ny-hegyi kil\u00e1t\u00f3", "old_name": "Endr\u0151di S\u00e1ndor kil\u00e1t\u00f3", "source": "survey", "start_date": "2015", "tourism": "viewpoint", "tower:type": "observation"}}]}