{"version": 0.6, "generator": "Overpass API 0.7.59 e21c39fe", "osm3s": {"timestamp_osm_base": "2023-02-28T18:16:28Z", "copyright": "The data included in this document is from www.openstreetmap.org. The data is made available under ODbL."}, "elements": [{"type": "node", "id": 1512931987, "lat": 39.7686926, "lon": 2.9021862, "tags": {"name": "als donants de sang", "name:ca": "als donants de sang", "tourism": "artwork"}}, {"type": "node", "id": 2270519488, "lat": 39.6535816, "lon": 2.4833937, "tags": {"artwork_type": "statue", "material": "metal", "name:ca": "Cavall mec\u00e0nic (Ruc)", "name:cs": "Mechanikc\u00fd k\u016f\u0148 (osel)", "name:en": "Mechanical Horse (Donkey)", "name:es": "Caballo Mec\u00e1nico (Burro)", "tourism": "artwork"}}, {"type": "node", "id": 2721896244, "lat": 39.706949, "lon": 2.788336, "tags": {"artwork_type": "sculpture", "tourism": "artwork"}}, {"type": "node", "id": 3764283290, "lat": 39.7980595, "lon": 2.6931069, "tags": {"tourism": "artwork"}}, {"type": "node", "id": 4271561498, "lat": 39.7486738, "lon": 2.6463556, "tags": {"tourism": "artwork"}}, {"type": "node", "id": 4656567264, "lat": 39.7053363, "lon": 2.7891973, "tags": {"source": "survey", "tourism": "artwork"}}, {"type": "node", "id": 5627405722, "lat": 39.688975, "lon": 2.8423241, "tags": {"artist_name": "Guillem Terrassa", "name": "Els Vermadors", "tourism": "artwork"}}, {"type": "node", "id": 5627418021, "lat": 39.6888542, "lon": 2.84211, "tags": {"artwork_type": "sculpture", "name": "Els Picapedrers - Escultura de Vermada (1986)", "tourism": "artwork"}}, {"type": "node", "id": 6372329839, "lat": 39.6298403, "lon": 2.7389062, "tags": {"tourism": "artwork"}}, {"type": "node", "id": 6438590939, "lat": 39.6352181, "lon": 2.8403709, "tags": {"name": "Bicicleta", "tourism": "artwork"}}, {"type": "node", "id": 6827887532, "lat": 39.8229341, "lon": 2.8842472, "tags": {"artwork_type": "statue", "name": "Bisbe de Mallorca Pere Joan Campins (1898-1915)", "start_date": "1920", "tourism": "artwork"}}, {"type": "node", "id": 6827887533, "lat": 39.8226931, "lon": 2.8844108, "tags": {"artist_name": "Rem\u00edgia Caubet", "artwork_type": "statue", "name": "Joaquim Rossell\u00f3", "tourism": "artwork"}}, {"type": "node", "id": 7230202064, "lat": 39.6678701, "lon": 2.5780541, "tags": {"tourism": "artwork", "type": "statue"}}, {"type": "node", "id": 7288081208, "lat": 39.7093799, "lon": 2.6214278, "tags": {"artwork_subject": "figurative", "artwork_type": "bust", "material": "stone", "name": "Catalina Homar", "tourism": "artwork"}}, {"type": "node", "id": 7288145207, "lat": 39.7092426, "lon": 2.6216296, "tags": {"artwork_subject": "figurative", "artwork_type": "bust", "material": "bronze", "name": "S.A.R.", "tourism": "artwork"}}, {"type": "node", "id": 7288171257, "lat": 39.710287, "lon": 2.625597, "tags": {"artwork_type": "bust", "material": "bronze", "tourism": "artwork"}}, {"type": "node", "id": 7288552836, "lat": 39.7657142, "lon": 2.7152602, "tags": {"artist_name": "Llu\u00eds L\u00f3pez", "artwork_subject": "abstract", "artwork_type": "sculpture", "material": "wood", "name": "SOM", "start_date": "2019", "tourism": "artwork"}}, {"type": "node", "id": 7288615134, "lat": 39.7908572, "lon": 2.6935045, "tags": {"artwork_subject": "abstract", "artwork_type": "sculpture", "material": "stone", "tourism": "artwork"}}, {"type": "node", "id": 7288615135, "lat": 39.790849, "lon": 2.6935346, "tags": {"artwork_subject": "abstract", "artwork_type": "sculpture", "material": "stone", "tourism": "artwork"}}, {"type": "node", "id": 7288615136, "lat": 39.7908397, "lon": 2.6934884, "tags": {"artwork_subject": "abstract", "artwork_type": "sculpture", "material": "stone", "tourism": "artwork"}}, {"type": "node", "id": 7288623462, "lat": 39.7976324, "lon": 2.6991317, "tags": {"artwork_subject": "abstract", "artwork_type": "sculpture", "material": "metal", "name": "Gamba", "tourism": "artwork"}}, {"type": "node", "id": 7855496362, "lat": 39.7784102, "lon": 2.7043446, "tags": {"artist_name": "Pere Pavia", "name": "Es Monument", "start_date": "1961", "tourism": "artwork"}}, {"type": "node", "id": 8173421070, "lat": 39.6869631, "lon": 2.5132122, "tags": {"artwork_type": "statue", "tourism": "artwork"}}, {"type": "node", "id": 8269384052, "lat": 39.6175613, "lon": 2.7696339, "tags": {"artwork_type": "sculpture", "tourism": "artwork"}}, {"type": "node", "id": 8324817401, "lat": 39.7709932, "lon": 2.7059386, "tags": {"tourism": "artwork"}}, {"type": "node", "id": 8445362832, "lat": 39.6478125, "lon": 2.8977864, "tags": {"artwork_type": "statue", "name": "Sor Francinaina Cirer", "tourism": "artwork"}}, {"type": "node", "id": 8445745162, "lat": 39.6414777, "lon": 2.8589598, "tags": {"artwork_type": "statue", "name": "La Immaculada Concepci\u00f3", "tourism": "artwork"}}, {"type": "node", "id": 9171595951, "lat": 39.7210236, "lon": 2.9073959, "tags": {"tourism": "artwork"}}, {"type": "node", "id": 9304076184, "lat": 39.6471126, "lon": 2.7783737, "tags": {"artwork_type": "statue", "material": "stone", "name": "A la maternitat", "tourism": "artwork"}}, {"type": "node", "id": 9337046303, "lat": 39.6494358, "lon": 2.7726012, "tags": {"artist_name": "Toni Sans Nerud\u00edn", "artwork_type": "sculpture", "material": "concrete", "tourism": "artwork"}}, {"type": "node", "id": 9341897045, "lat": 39.6427445, "lon": 2.7789308, "tags": {"artist_name": "Sebasti\u00e0 Bibiloni", "artwork_type": "sculpture", "material": "steel", "name": "Vermador", "tourism": "artwork"}}, {"type": "node", "id": 9342009637, "lat": 39.6478123, "lon": 2.7792954, "tags": {"artist_name": "Pasqual Mar\u00ed", "artwork_type": "sculpture", "material": "metal", "tourism": "artwork"}}, {"type": "node", "id": 9342009638, "lat": 39.6478737, "lon": 2.7795395, "tags": {"artwork_type": "sculpture", "material": "stone", "name": "Pensaments", "tourism": "artwork"}}, {"type": "node", "id": 9357561666, "lat": 39.6473867, "lon": 2.7795931, "tags": {"artwork_type": "sculpture", "material": "stone", "name": "Al bisbe de Vic, Joan Perell\u00f3 1870-1955. El seu poble 1970", "tourism": "artwork"}}, {"type": "node", "id": 9631106151, "lat": 39.7322659, "lon": 2.8735978, "tags": {"artwork_type": "sculpture", "name": "Els Miners", "name:ca": "Els Miners", "tourism": "artwork"}}, {"type": "node", "id": 9654099177, "lat": 39.6809204, "lon": 2.6733836, "tags": {"artwork_type": "statue", "name": "Apol\u00b7lo", "tourism": "artwork"}}, {"type": "node", "id": 9654124935, "lat": 39.6802454, "lon": 2.6733949, "tags": {"artwork_type": "bust", "name": "Cardenal Despuig", "tourism": "artwork"}}, {"type": "node", "id": 9925217341, "lat": 39.79034, "lon": 2.7744256, "tags": {"tourism": "artwork"}}, {"type": "node", "id": 9925228131, "lat": 39.7834548, "lon": 2.7413264, "tags": {"tourism": "artwork"}}]}