{"version": 0.6, "generator": "Overpass API 0.7.59 e21c39fe", "osm3s": {"timestamp_osm_base": "2023-03-01T08:40:53Z", "copyright": "The data included in this document is from www.openstreetmap.org. The data is made available under ODbL."}, "elements": [{"type": "node", "id": 1119810340, "lat": 46.2316799, "lon": 20.1590119, "tags": {"artwork_type": "szekely_gate", "barrier": "gate", "entrance": "main", "tourism": "artwork"}}, {"type": "node", "id": 2473416909, "lat": 46.4882049, "lon": 20.093985, "tags": {"barrier": "gate", "material": "wood", "name": "Sz\u00e9kelykapu", "tourism": "artwork"}}, {"type": "node", "id": 2552436791, "lat": 46.4888206, "lon": 20.0976361, "tags": {"artist_name": "Melocco Mikl\u00f3s", "artwork_subject": "F\u00f6ldm\u0171ves eml\u00e9km\u0171", "artwork_type": "statue", "description": "Az alf\u00f6ldi f\u00f6ldm\u0171ves emberek f\u00f6ldh\u00f6z val\u00f3 ragaszkod\u00e1s\u00e1t mutatja, ezzel \u00e9let\u00fcknek, munk\u00e1juknak \u00e1ll\u00edt eml\u00e9ket. A k\u00e9talakos kompoz\u00edci\u00f3 egy b\u00faza\u00f6rv\u00e9nybe hajl\u00f3 arat\u00f3p\u00e1rt \u00e1br\u00e1zol. Az alkot\u00e1s anyaga, s\u00fctt\u0151i m\u00e9szk\u0151.", "material": "stone", "name": "Arat\u00f3 p\u00e1r", "start_date": "1986", "tourism": "artwork", "website": "https://www.kozterkep.hu/~/5357/Foldmuves_emlekmu_Opusztaszer_1986.html"}}, {"type": "node", "id": 3437116395, "lat": 46.2485375, "lon": 20.1513162, "tags": {"artwork_type": "sculpture", "description": "Kalm\u00e1r M\u00e1rton alkot\u00e1sa", "name": "Aranycsapat", "source": "turistautak.hu", "source:date": "2011-06-24", "tourism": "artwork", "url": "http://turistautak.hu/poi.php?id=38550"}}, {"type": "node", "id": 3668364231, "lat": 46.4147848, "lon": 20.3180948, "tags": {"artwork_type": "statue", "name": "Ker\u00e1mia vir\u00e1gkompoz\u00edci\u00f3", "tourism": "artwork"}}, {"type": "node", "id": 3668364235, "lat": 46.4196497, "lon": 20.3249074, "tags": {"artwork_type": "statue", "name": "Sebess\u00e9g", "tourism": "artwork"}}, {"type": "node", "id": 3966929046, "lat": 46.2494411, "lon": 20.1598041, "tags": {"artist_name": "Kalm\u00e1r M\u00e1rton;T\u00e1pai Antal", "artwork_type": "statue", "material": "metal", "start_date": "1960", "tourism": "artwork", "website": "https://www.kozterkep.hu/380/fiucska-a-hallal-diszkut"}}, {"type": "node", "id": 3967041157, "lat": 46.2458868, "lon": 20.1648929, "tags": {"artwork_type": "sculpture", "diameter": "3 m", "material": "metal", "tourism": "artwork"}}, {"type": "node", "id": 4010038391, "lat": 46.2504608, "lon": 20.1520159, "tags": {"artwork_type": "sculpture", "material": "metal", "name": "Tiszavir\u00e1gz\u00e1s", "tourism": "artwork", "website": "https://www.kozterkep.hu/~/131/tiszaviragzas_szobra_szeged_farkas_pal_1998.html"}}, {"type": "node", "id": 4011592452, "lat": 46.4972399, "lon": 20.0570916, "tags": {"artist_name": "Morvay L\u00e1szl\u00f3 (fest\u0151m\u0171v\u00e9sz), F\u00fcl\u00f6p Gyula (\u00e9p\u00edt\u00e9sz)", "artwork_subject": "A h\u00e9t vez\u00e9r nyilai", "artwork_type": "sculpture", "description": "Anonymus : a honfoglal\u00f3 magyarok a K\u00f6rtv\u00e9lyt\u00f3hoz (Curtueltou) \u00e9rtek \u2026 34 napot elt\u00f6ltve \u00c1rp\u00e1d \u00e9s nemesei gy\u0171l\u00e9st tartottak, ahol meg\u00e1llap\u00edtott\u00e1k az orsz\u00e1g t\u00f6rv\u00e9nyeit: szer\u00e9t ejtett\u00e9k az orsz\u00e1g dolgainak. Eml\u00e9k\u00e9re pedig a helyet Szernek nevezt\u00e9k el.", "material": "wood", "name": "Magyarok h\u00e9t nyila", "name:en": "The seven arrows of the Hugarians", "source": "turistautak.hu", "start_date": "1996", "tourism": "artwork", "url": "http://turistautak.hu/poi.php?id=58407", "website": "https://www.kozterkep.hu/35025/Magyarok_het_nyila_Opusztaszer_1996.html"}}, {"type": "node", "id": 4014777736, "lat": 46.2719102, "lon": 20.1646791, "tags": {"artwork_type": "sculpture", "material": "stone", "name": "\u00dcl\u0151 r\u00f3ka", "start_date": "1974", "tourism": "artwork", "website": "https://www.kozterkep.hu/19118"}}, {"type": "node", "id": 4037470418, "lat": 46.2536487, "lon": 20.1527078, "tags": {"artist_name": "Ligeti Mikl\u00f3s", "artwork_type": "statue", "material": "marble", "memorial": "statue", "name": "Erzs\u00e9bet kir\u00e1lyn\u00e9", "start_date": "1997", "tourism": "artwork"}}, {"type": "node", "id": 4393214283, "lat": 46.2409891, "lon": 20.1373182, "tags": {"artist_name": "Mih\u00e1ly \u00c1rp\u00e1d", "artwork_type": "statue", "inscription": "N\u00e9p\u00fcnk hite szerint minden egyes b\u00fazaszem mag\u00e1n viseli J\u00e9zus Krisztus k\u00e9p\u00e9t", "material": "stone", "name": "B\u00faza ap\u00f3", "start_date": "2002", "tourism": "artwork"}}, {"type": "node", "id": 4397486486, "lat": 46.2490254, "lon": 20.1505586, "tags": {"artwork_type": "statue", "material": "bronze", "statue": "equestrian", "tourism": "artwork"}}, {"type": "node", "id": 4419294502, "lat": 46.2479122, "lon": 20.1511431, "tags": {"artwork_type": "statue", "tourism": "artwork"}}, {"type": "node", "id": 4419294894, "lat": 46.2491784, "lon": 20.1515085, "tags": {"artwork_type": "statue", "material": "stone", "tourism": "artwork"}}, {"type": "node", "id": 4419294896, "lat": 46.2469, "lon": 20.150764, "tags": {"artwork_type": "statue", "tourism": "artwork"}}, {"type": "node", "id": 4419295150, "lat": 46.2499047, "lon": 20.1517444, "tags": {"artwork_type": "statue", "description": "K\u00e9t fiatal \u00fcl\u0151 n\u0151", "material": "bronze", "tourism": "artwork"}}, {"type": "node", "id": 4427094122, "lat": 46.2495966, "lon": 20.150241, "tags": {"artist_name": "T\u00f3th Val\u00e9ria", "artwork_type": "statue", "description": "\u201eA szoborcsoport a fiatals\u00e1g, az \u00e9bred\u0151 szerelem nemes tiszta \u00e9rz\u00e9seit fogalmazza meg. A volt Pal\u00e1nk ter\u00fclet\u00e9n, Szeged egyik legintimebb ter\u00fclet\u00e9n, a D\u00f3m t\u00e9r \u00e9s a szerb templom melletti kis t\u00e9ren sz\u00f6k\u0151k\u00fat medenc\u00e9ben elhelyezve tal\u00e1lhat\u00f3 a k\u00e9talakos\u2026\u201d", "material": "bronze", "name": "Az ifj\u00fas\u00e1g k\u00fatja", "source": "https://www.kozterkep.hu/~/399/Az_ifjusag_kutja_szobor_Szeged_1983.html", "start_date": "1983", "tourism": "artwork"}}, {"type": "node", "id": 4427094124, "lat": 46.2497284, "lon": 20.1508654, "tags": {"artist_name": "Csikai M\u00e1rta", "artwork_type": "statue", "description": "\u201eA n\u00e9hai Pal\u00e1nk ter\u00fclet\u00e9n els\u0151k\u00e9nt elhelyezve, a T\u00f6m\u00f6rk\u00e9ny gimn\u00e1zium el\u0151tt tal\u00e1lhat\u00f3 ez az aranyos, m\u00e1sf\u00e9lszeres \u00e9letnagys\u00e1g\u00fa, feh\u00e9r m\u00e9szk\u0151b\u0151l k\u00e9sz\u00fclt kis zs\u00e1nerszobor. Egy fiatal juh\u00e1sz fi\u00fat \u00e1br\u00e1zol kucsm\u00e1ban, jobbj\u00e1n egy figyel\u00e9sbe merev\u00fclt puli \u00fcl.\u201d", "material": "stone", "name": "Juh\u00e1szbojt\u00e1r", "start_date": "1968", "tourism": "artwork"}}, {"type": "node", "id": 4449223069, "lat": 46.2508434, "lon": 20.1440509, "tags": {"artwork_type": "statue", "material": "metal", "name": "Keny\u00e9rszeg\u0151 n\u0151", "tourism": "artwork"}}, {"type": "node", "id": 4675662103, "lat": 46.2455249, "lon": 20.1599324, "tags": {"tourism": "artwork"}}, {"type": "node", "id": 4737626625, "lat": 46.2399423, "lon": 20.1431964, "tags": {"artist_name": "Kaczi\u00e1ny \u00d6d\u00f6n", "artwork_type": "painting", "level": "1", "name": "Bacch\u00e1ns lakoma", "start_date": "1902", "tourism": "artwork"}}, {"type": "node", "id": 4789571843, "lat": 46.2438611, "lon": 20.16657, "tags": {"tourism": "artwork"}}, {"type": "node", "id": 4799178269, "lat": 46.2492455, "lon": 20.1450818, "tags": {"artwork_type": "statue", "level": "1", "outdoor": "yes", "tourism": "artwork"}}, {"type": "node", "id": 4934423879, "lat": 46.2496763, "lon": 20.149354, "tags": {"artwork_type": "statue", "name": "Bicikliz\u0151 Einstein", "tourism": "artwork"}}, {"type": "node", "id": 4970253758, "lat": 46.2159785, "lon": 19.8908738, "tags": {"artwork_type": "sculpture", "name": "Szenth\u00e1roms\u00e1g szobor", "tourism": "artwork"}}, {"type": "node", "id": 4970394324, "lat": 46.2564842, "lon": 20.1498374, "tags": {"artwork_type": "bust", "inscription": "Hontalan vagyok, mert hiszek j\u00f3ban, igazban, sz\u00e9pben. Minden vall\u00e1sban \u00e9s minden n\u00e9pben \u00e9s Istenben, ki\u00e9 a diadal.", "material": "bronze", "name": "Wass Albert (1908-1998)", "tourism": "artwork"}}, {"type": "node", "id": 5091103453, "lat": 46.2740587, "lon": 20.1449774, "tags": {"artwork_type": "szekely_gate", "material": "wood", "name": "Sz\u00e9kelykapu", "tourism": "artwork"}}, {"type": "node", "id": 5091103454, "lat": 46.2743365, "lon": 20.1448138, "tags": {"artwork_type": "szekely_gate", "material": "wood", "name": "Sz\u00e9kelykapu", "tourism": "artwork"}}, {"type": "node", "id": 5091103457, "lat": 46.2744905, "lon": 20.1447255, "tags": {"artwork_type": "szekely_gate", "material": "wood", "name": "Sz\u00e9kelykapu", "tourism": "artwork"}}, {"type": "node", "id": 5091103458, "lat": 46.2738273, "lon": 20.1453265, "tags": {"artwork_type": "sculpture", "material": "wood", "name": "Magyar \u00e9letfa", "tourism": "artwork"}}, {"type": "node", "id": 5091103461, "lat": 46.2739422, "lon": 20.1450888, "tags": {"artwork_type": "szekely_gate", "material": "wood", "name": "Sz\u00e9kelykapu", "tourism": "artwork"}}, {"type": "node", "id": 5091103463, "lat": 46.2747269, "lon": 20.1445704, "tags": {"artwork_type": "szekely_gate", "material": "wood", "name": "Sz\u00e9kelykapu", "tourism": "artwork"}}, {"type": "node", "id": 5091103464, "lat": 46.2741955, "lon": 20.1449025, "tags": {"artwork_type": "szekely_gate", "material": "wood", "name": "Sz\u00e9kelykapu", "tourism": "artwork"}}, {"type": "node", "id": 5091103466, "lat": 46.274835, "lon": 20.1443851, "tags": {"artwork_type": "szekely_gate", "material": "wood", "name": "Sz\u00e9kelykapu", "tourism": "artwork"}}, {"type": "node", "id": 5091103467, "lat": 46.27458, "lon": 20.1446868, "tags": {"artwork_type": "szekely_gate", "material": "wood", "name": "Sz\u00e9kelykapu", "tourism": "artwork"}}, {"type": "node", "id": 5267013945, "lat": 46.2686724, "lon": 20.1637824, "tags": {"tourism": "artwork"}}, {"type": "node", "id": 5267029310, "lat": 46.256612, "lon": 20.1565858, "tags": {"artwork_type": "statue", "material": "metal", "name": "Kalapos n\u0151", "tourism": "artwork"}}, {"type": "node", "id": 5318638093, "lat": 46.258379, "lon": 20.1393711, "tags": {"artwork_type": "sculpture", "tourism": "artwork"}}, {"type": "node", "id": 5367680795, "lat": 46.4894369, "lon": 20.0960744, "tags": {"artist_name": "Feszty \u00c1rp\u00e1d", "artwork_type": "mural", "name": "Feszty-k\u00f6rk\u00e9p", "name:de": "Feszty-Panorama", "official_name": "A magyarok bej\u00f6vetele", "opening_hours": "Mar 30-Oct 31 10:30-17:30 \"only after registration\"; Nov 01-Mar 29 10:30-15:30 \"only after registration\"; Mo off", "start_date": "1896", "tourism": "artwork", "wikidata": "Q716162", "wikipedia": "hu:Feszty-k\u00f6rk\u00e9p"}}, {"type": "node", "id": 5453733843, "lat": 46.4117378, "lon": 20.3185087, "tags": {"description": "Sz\u00e9kelykapu", "tourism": "artwork"}}, {"type": "node", "id": 5577654362, "lat": 46.2513847, "lon": 20.1453303, "tags": {"indoor": "yes", "name": "Re\u00f6k-k\u00fat", "tourism": "artwork"}}, {"type": "node", "id": 5577655517, "lat": 46.2513752, "lon": 20.1456632, "tags": {"artwork_type": "statue", "name": "N\u0151i alak", "tourism": "artwork"}}, {"type": "node", "id": 5577656038, "lat": 46.2516519, "lon": 20.1454874, "tags": {"artwork_type": "mural", "name": "Homlokzatd\u00edsz", "tourism": "artwork"}}, {"type": "node", "id": 5579961688, "lat": 46.4121657, "lon": 20.3124444, "tags": {"tourism": "artwork"}}, {"type": "node", "id": 5579962856, "lat": 46.4111981, "lon": 20.3124747, "tags": {"tourism": "artwork"}}, {"type": "node", "id": 5579979402, "lat": 46.2477704, "lon": 20.1465947, "tags": {"tourism": "artwork"}}, {"type": "node", "id": 5579988954, "lat": 46.2478357, "lon": 20.1498676, "tags": {"tourism": "artwork"}}, {"type": "node", "id": 5579997403, "lat": 46.2516221, "lon": 20.1466182, "tags": {"name": "Hercules", "tourism": "artwork"}}, {"type": "node", "id": 5580002911, "lat": 46.2539841, "lon": 20.1422657, "tags": {"artwork_type": "sculpture", "name": "Men\u00f3ra", "tourism": "artwork"}}, {"type": "node", "id": 5580008726, "lat": 46.2582063, "lon": 20.1501251, "tags": {"tourism": "artwork"}}, {"type": "node", "id": 5586017704, "lat": 46.4123366, "lon": 20.3121254, "tags": {"tourism": "artwork"}}, {"type": "node", "id": 5586021381, "lat": 46.4115174, "lon": 20.3121174, "tags": {"artwork_type": "relief", "description": "ker\u00e1mia domborm\u0171", "material": "ceramic", "tourism": "artwork"}}, {"type": "node", "id": 5586021682, "lat": 46.4110273, "lon": 20.3119859, "tags": {"artwork_type": "relief", "description": "ker\u00e1mia domborm\u0171", "material": "ceramic", "tourism": "artwork"}}, {"type": "node", "id": 5586021685, "lat": 46.4110883, "lon": 20.3121118, "tags": {"artwork_type": "relief", "description": "ker\u00e1mia domborm\u0171", "material": "ceramic", "tourism": "artwork"}}, {"type": "node", "id": 5586022222, "lat": 46.4111593, "lon": 20.3122459, "tags": {"artwork_type": "relief", "material": "ceramic", "tourism": "artwork"}}, {"type": "node", "id": 5586023496, "lat": 46.4116406, "lon": 20.3123366, "tags": {"artwork_type": "relief", "description": "ker\u00e1mia domborm\u0171", "material": "ceramic", "tourism": "artwork"}}, {"type": "node", "id": 5586023640, "lat": 46.4115829, "lon": 20.3122304, "tags": {"artwork_type": "relief", "description": "ker\u00e1mia domborm\u0171", "material": "ceramic", "tourism": "artwork"}}, {"type": "node", "id": 5586125536, "lat": 46.4236842, "lon": 20.3026237, "tags": {"name": "Mad\u00e1rka", "tourism": "artwork"}}, {"type": "node", "id": 5614655605, "lat": 46.2716445, "lon": 20.1662432, "tags": {"addr:city": "Szeged", "addr:housenumber": "4", "addr:postcode": "6723", "addr:street": "S\u00f3lyom utca", "artwork_type": "sculpture", "name": "Sz\u00ednes t\u00e9rplasztika", "start_date": "1979-09-01", "tourism": "artwork", "website": "https://www.kozterkep.hu/26866"}}, {"type": "node", "id": 5622124933, "lat": 46.4119351, "lon": 20.3122761, "tags": {"description": "emberalak", "tourism": "artwork"}}, {"type": "node", "id": 5622125904, "lat": 46.4119519, "lon": 20.3121257, "tags": {"description": "fi\u00fa \u00e1llattal", "tourism": "artwork"}}, {"type": "node", "id": 5622127814, "lat": 46.4124312, "lon": 20.3163294, "tags": {"name": "H\u0151s\u00f6k tere", "tourism": "artwork"}}, {"type": "node", "id": 5831978824, "lat": 46.466571, "lon": 20.2468278, "tags": {"tourism": "artwork"}}, {"type": "node", "id": 5937521465, "lat": 46.2791105, "lon": 20.1048993, "tags": {"artwork_type": "sculpture", "material": "metal", "tourism": "artwork"}}, {"type": "node", "id": 6067138879, "lat": 46.3613881, "lon": 20.0961138, "tags": {"artwork_type": "sculpture", "tourism": "artwork"}}, {"type": "node", "id": 6139663087, "lat": 46.2509319, "lon": 20.1597284, "tags": {"artwork_type": "sculpture", "tourism": "artwork"}}, {"type": "node", "id": 6201421416, "lat": 46.2506489, "lon": 20.1463318, "tags": {"artist_name": "Kligl S\u00e1ndor", "artwork_type": "statue", "material": "bronze", "start_date": "2001", "tourism": "artwork"}}, {"type": "node", "id": 6201421417, "lat": 46.2506704, "lon": 20.1462294, "tags": {"artist_name": "Kligl S\u00e1ndor", "artwork_type": "statue", "material": "bronze", "start_date": "2001", "tourism": "artwork"}}, {"type": "node", "id": 6216191368, "lat": 46.2264895, "lon": 19.8340988, "tags": {"tourism": "artwork"}}, {"type": "node", "id": 6225204360, "lat": 46.4881987, "lon": 20.0971652, "tags": {"artist_name": "(ismeretlen)", "artwork_subject": "Bor-Kal\u00e1n nemzets\u00e9g monostor\u00e1nak szobrai", "artwork_type": "statue", "material": "stone", "name": "kapuzat szobrai", "start_date": "1200", "tourism": "artwork", "website": "https://www.kozterkep.hu/~/10775/Bor_Kalan_nemzetseg_monostoranak_szobrai_Opusztaszer_1200.html"}}, {"type": "node", "id": 6225204361, "lat": 46.4882425, "lon": 20.097129, "tags": {"artist_name": "(ismeretlen)", "artwork_subject": "Bor-Kal\u00e1n nemzets\u00e9g monostor\u00e1nak szobrai", "artwork_type": "statue", "material": "stone", "name": "kapuzat szobrai", "start_date": "1200", "tourism": "artwork", "website": "https://www.kozterkep.hu/~/10775/Bor_Kalan_nemzetseg_monostoranak_szobrai_Opusztaszer_1200.html"}}, {"type": "node", "id": 6225371402, "lat": 46.4872649, "lon": 20.0951555, "tags": {"artist_name": "Gy\u00f6rfi S\u00e1ndor", "artwork_subject": "Kun p\u00e1r, f\u00e9rfi \u00e9s n\u0151", "artwork_type": "statue", "inscription": "'\u0150seink' a Kuns\u00e1g Mezeje Kun szoborp\u00e1r \u00e9s halom 'Hun magyar \u00e9s kun \u0151seink szeretett, eml\u00e9k\u00e9re':", "material": "stone", "name": "\u0150seink", "start_date": "2006", "tourism": "artwork", "website": "https://www.kozterkep.hu/~/10678/Oseink_Kun_par_ferfi_es_no_Opusztaszer_2009.html"}}, {"type": "node", "id": 6389298742, "lat": 46.255578, "lon": 20.1568097, "tags": {"artwork_type": "sculpture", "material": "metal", "tourism": "artwork"}}, {"type": "node", "id": 6614686536, "lat": 46.2473867, "lon": 20.1566024, "tags": {"artwork_type": "sculpture", "material": "metal", "name": "P\u00e9nzes k\u00e1r\u00e1sz", "tourism": "artwork"}}, {"type": "node", "id": 6614686540, "lat": 46.2466531, "lon": 20.157684, "tags": {"artwork_type": "sculpture", "material": "stone", "tourism": "artwork"}}, {"type": "node", "id": 6693094010, "lat": 46.264635, "lon": 20.1206164, "tags": {"artwork_type": "sculpture", "description": "Egy fekete p\u00e1rduc, bal mells\u0151 l\u00e1ba alatt egy labd\u00e1val", "start_date": "2019", "tourism": "artwork"}}, {"type": "node", "id": 7103211575, "lat": 46.2505216, "lon": 20.1663883, "tags": {"tourism": "artwork"}}, {"type": "node", "id": 7526904912, "lat": 46.254668, "lon": 20.1472193, "tags": {"artwork_type": "sculpture", "tourism": "artwork"}}, {"type": "node", "id": 7692801274, "lat": 46.3604704, "lon": 20.099108, "tags": {"artist_name": "Retkes M\u00e1t\u00e9", "artwork_type": "statue", "material": "metal", "name": "Pallavicini szobor", "tourism": "artwork"}}, {"type": "node", "id": 7720784622, "lat": 46.1955168, "lon": 19.8437206, "tags": {"artwork_type": "statue", "description": "Sas (turul) szobor. Hely\u00e9n 1884-t\u0151l a II. vh-ig egy \u00f6nt\u00f6tt vas Ferenc J\u00f3zsef mellszobor \u00e1llt (vill\u00e1mcsap\u00e1sban s\u00e9r\u00fclt meg) a cs\u00e1sz\u00e1r 1883-as l\u00e1togat\u00e1s\u00e1nak eml\u00e9k\u00e9re.", "name": "Turul szobor", "tourism": "artwork"}}, {"type": "node", "id": 7720951660, "lat": 46.2170513, "lon": 19.8886507, "tags": {"artwork_type": "statue", "description": "Parasztfejet \u00e1br\u00e1zol\u00f3 monument\u00e1lis faszobor (k\u0151kereveten \u00e9s pill\u00e9ren nyugv\u00f3)", "fixme": "Pontos helye a t\u00e9ren bel\u00fcl?", "material": "wood", "start_date": "1977", "tourism": "artwork"}}, {"type": "node", "id": 8302979549, "lat": 46.2541867, "lon": 20.1488011, "tags": {"tourism": "artwork"}}, {"type": "node", "id": 8302979550, "lat": 46.2540706, "lon": 20.1487025, "tags": {"tourism": "artwork"}}, {"type": "node", "id": 8709979858, "lat": 46.2371986, "lon": 19.8725617, "tags": {"artist_name": "M\u00e1t\u00e9 Istv\u00e1n", "artwork_type": "statue", "material": "bronze", "name": "T\u00e1ncol\u00f3 l\u00e1nyok", "start_date": "2016", "tourism": "artwork", "website": "https://www.kozterkep.hu/29293/tancolo-lanyok"}}, {"type": "node", "id": 8728785994, "lat": 46.2486413, "lon": 20.1591081, "tags": {"artist_name": "Antoine Durenne", "artwork_type": "statue", "material": "metal", "start_date": "1888", "tourism": "artwork"}}, {"type": "node", "id": 8878350266, "lat": 46.2737151, "lon": 20.1454999, "tags": {"description": "Ha szemben \u00e1llunk a szoborcsoporttal akkor legh\u00e1tul egy magaslaton Analita Istenanya tekint r\u00e1nk. Mellette jobbr\u00f3l Sz\u00f6ged vez\u00e9r, balr\u00f3l Nekese F\u0151s\u00e1m\u00e1n. El\u0151tte De\u00e9des Aranyasszony, Kopp\u00e1ny \u00e9s legel\u00f6l a megvak\u00edtott Vazul szobra l\u00e1that\u00f3.", "material": "wood", "name": "F\u00e9ny szoborcsoport", "start_date": "2013", "tourism": "artwork", "website": "https://www.kozterkep.hu/18894/feny-a-magyar-feltamadas-emlekjele"}}, {"type": "node", "id": 8878350267, "lat": 46.2740113, "lon": 20.1452726, "tags": {"tourism": "artwork"}}, {"type": "node", "id": 8878350268, "lat": 46.2739358, "lon": 20.145219, "tags": {"material": "wood", "name": "Sz\u00e9kely himnusz eml\u00e9km\u0171ve", "tourism": "artwork", "website": "https://www.kozterkep.hu/8228/szekely-himnusz-emlekmuve"}}, {"type": "node", "id": 8994242548, "lat": 46.2522118, "lon": 20.1519058, "tags": {"artwork_type": "statue", "material": "stone", "tourism": "artwork"}}, {"type": "node", "id": 8994254396, "lat": 46.252143, "lon": 20.1520625, "tags": {"artwork_type": "statue", "material": "stone", "tourism": "artwork"}}, {"type": "node", "id": 8996360924, "lat": 46.2158035, "lon": 19.891972, "tags": {"artwork_type": "statue", "material": "wood", "name": "Storks - G\u00f3ly\u00e1k", "tourism": "artwork"}}]}