{"version": 0.6, "generator": "Overpass API 0.7.59 e21c39fe", "osm3s": {"timestamp_osm_base": "2023-02-28T18:14:22Z", "copyright": "The data included in this document is from www.openstreetmap.org. The data is made available under ODbL."}, "elements": [{"type": "node", "id": 1510191499, "lat": 39.873762, "lon": 3.0196159, "tags": {"name": "Costa i Llobera", "source": "survey", "tourism": "artwork"}}, {"type": "node", "id": 1588916072, "lat": 39.6429009, "lon": 3.0108192, "tags": {"artist_name": "Joan Maim\u00f3", "artwork_type": "statue", "name": "Lle\u00f3 de Sant Marc", "name:ca": "Lle\u00f3 de Sant Marc", "tourism": "artwork"}}, {"type": "node", "id": 1643956444, "lat": 39.6143884, "lon": 3.1121998, "tags": {"artwork_type": "statue", "name": "Fra Jun\u00edper Serra", "tourism": "artwork"}}, {"type": "node", "id": 1743404208, "lat": 39.9077194, "lon": 3.0818047, "tags": {"inscription": "Pollenca 1861-1935, Music Insigne", "material": "bronze", "name": "Miquel Capllonch i Rotger", "note": "bronze bust on stone plinth", "source": "survey;estimate", "tourism": "artwork", "wheelchair": "yes", "wikipedia": "ca:Miquel Capllonch i Rotger"}}, {"type": "node", "id": 3105992043, "lat": 39.8779327, "lon": 3.0158701, "tags": {"amenity": "fountain", "artwork_type": "sculpture", "description": "Font del Gall. Signe de Pollen\u00e7a", "disused:amenity": "drinking_water", "name": "Font del Gall", "name:ca": "Font del Gall", "tourism": "artwork"}}, {"type": "node", "id": 4166999507, "lat": 39.8151186, "lon": 3.114275, "tags": {"artwork_type": "sculpture", "material": "metal", "name": "L'ham", "name:es": "El anzuelo", "tourism": "artwork"}}, {"type": "node", "id": 4309205487, "lat": 39.6909322, "lon": 3.3496998, "tags": {"tourism": "artwork"}}, {"type": "node", "id": 4310520390, "lat": 39.8459937, "lon": 3.1246278, "tags": {"artist:wikidata": "Q2736997", "artist_name": "Aligi Sassu", "artwork_type": "sculpture", "material": "metal", "name": "Cavall que mira Alc\u00fadia", "name:ca": "Cavall que mira Alc\u00fadia", "tourism": "artwork"}}, {"type": "node", "id": 4335571964, "lat": 39.6647964, "lon": 3.0774039, "tags": {"tourism": "artwork"}}, {"type": "node", "id": 4429606901, "lat": 39.8132422, "lon": 3.1149162, "tags": {"artwork_type": "sculpture", "material": "metal", "name": "Gandula", "name:es": "Silla de playa", "name:ru": "\u041a\u0440\u0435\u0441\u043b\u043e", "tourism": "artwork"}}, {"type": "node", "id": 4864225255, "lat": 39.6381351, "lon": 3.4133568, "tags": {"name": "a Joaqu\u00edn Calvo Sotelo", "tourism": "artwork"}}, {"type": "node", "id": 4943664628, "lat": 39.760877, "lon": 3.1533727, "tags": {"artwork_type": "sculpture", "material": "metal", "name": "Bicicleta", "name:en": "The Bicycle", "name:es": "Bicicleta", "tourism": "artwork"}}, {"type": "node", "id": 5006828887, "lat": 39.7678439, "lon": 3.1460251, "tags": {"artwork_type": "sculpture", "material": "metal", "name": "Viol\u00ed", "tourism": "artwork"}}, {"type": "node", "id": 5588030726, "lat": 39.7072719, "lon": 3.4594464, "tags": {"tourism": "artwork"}}, {"type": "node", "id": 5643261201, "lat": 39.7625838, "lon": 3.1662312, "tags": {"artwork_type": "sculpture", "tourism": "artwork"}}, {"type": "node", "id": 5718662163, "lat": 39.6150614, "lon": 3.1104092, "tags": {"artwork_type": "statue", "name": "Gaya", "tourism": "artwork"}}, {"type": "node", "id": 5754420488, "lat": 39.8531276, "lon": 3.1238108, "tags": {"artwork_type": "sculpture", "tourism": "artwork"}}, {"type": "node", "id": 5754420492, "lat": 39.8533911, "lon": 3.1237792, "tags": {"artwork_subject": "figurative", "artwork_type": "sculpture", "historic": "memorial", "inscription": "LA FIDELISIMA CIUDAD DE ALCUDIA AL EMPERADOR CARLOS MDXXIII - MCMLXXIII", "material": "bronze", "memorial": "stele", "tourism": "artwork"}}, {"type": "node", "id": 6102766667, "lat": 39.7213823, "lon": 2.9140225, "tags": {"name": "monument del Silenci", "tourism": "artwork"}}, {"type": "node", "id": 6225235207, "lat": 39.7739049, "lon": 3.0168334, "tags": {"name": "Apisonadora", "tourism": "artwork"}}, {"type": "node", "id": 6392094666, "lat": 39.6146832, "lon": 3.2885006, "tags": {"artwork_type": "sculpture", "material": "iron", "tourism": "artwork"}}, {"type": "node", "id": 6435334947, "lat": 39.7690458, "lon": 3.0329982, "tags": {"name": "Ma", "tourism": "artwork"}}, {"type": "node", "id": 6611046338, "lat": 39.8363198, "lon": 3.1220862, "tags": {"artwork_type": "stone", "tourism": "artwork"}}, {"type": "node", "id": 6879896722, "lat": 39.6130094, "lon": 3.2861529, "tags": {"artist_name": "sath", "artwork_type": "mural", "description": "Mural con el proyecto somriu junto a algunos alumnos de fundaci\u00f3n aproscom", "name": "Aix\u00f2 \u00e9s massa", "name:ca": "Aix\u00f2 \u00e9s massa", "tourism": "artwork"}}, {"type": "node", "id": 6939184586, "lat": 39.7653589, "lon": 3.1486418, "tags": {"artwork_type": "sculpture", "material": "concrete", "name": "2 vaixells a l'onada", "name:es": "2 barcos en la ola", "name:ru": "2 \u043b\u043e\u0434\u043a\u0438 \u043d\u0430 \u0432\u043e\u043b\u043d\u0430\u0445", "tourism": "artwork"}}, {"type": "node", "id": 6939247185, "lat": 39.764399, "lon": 3.1629707, "tags": {"artist:wikidata": "Q19521847", "artist_name": "Joan Benn\u00e0ssar", "artwork_type": "statue", "material": "concrete", "name": "El Ritual", "name:de": "Das Ritual", "name:en": "The Ritual", "name:es": "El Ritual", "tourism": "artwork", "website": "https://www.bennassar.com/ports-dalga-marina-can-picafort-paseo-esculturas/"}}, {"type": "node", "id": 7015216244, "lat": 39.8438162, "lon": 3.1789112, "tags": {"artwork_type": "installation", "name": "Sokrates", "tourism": "artwork"}}, {"type": "node", "id": 7015216252, "lat": 39.8435248, "lon": 3.1784177, "tags": {"artwork_subject": "Childrens Portraits", "artwork_type": "painting", "name": "Aljub Nims", "tourism": "artwork"}}, {"type": "node", "id": 7015216254, "lat": 39.8448654, "lon": 3.1794302, "tags": {"artwork_type": "sculpture", "name": "Rebanno", "start_date": "1984", "tourism": "artwork"}}, {"type": "node", "id": 7015216255, "lat": 39.8447223, "lon": 3.1794557, "tags": {"artist_name": "Z'bel Manifesto", "artwork_subject": "Plastic Rubbish", "artwork_type": "installation", "material": "stone", "name": "The Schrine", "start_date": "2018", "tourism": "artwork"}}, {"type": "node", "id": 7015216256, "lat": 39.8452762, "lon": 3.179673, "tags": {"artwork_type": "sculpture", "name": "Little People", "start_date": "2013", "tourism": "artwork"}}, {"type": "node", "id": 7015216257, "lat": 39.8452587, "lon": 3.1799439, "tags": {"artwork_type": "sculpture", "material": "stone", "name": "Estelas del Sol", "start_date": "2007", "tourism": "artwork"}}, {"type": "node", "id": 7050446695, "lat": 39.8316484, "lon": 3.1170208, "tags": {"name": "Joncs", "tourism": "artwork"}}, {"type": "node", "id": 7095413591, "lat": 39.9045214, "lon": 3.0752793, "tags": {"name": "Hidroavi\u00f3", "tourism": "artwork"}}, {"type": "node", "id": 7126979572, "lat": 39.8757033, "lon": 3.0159051, "tags": {"artwork_type": "statue", "name": "Joan Mas", "tourism": "artwork"}}, {"type": "node", "id": 7301466737, "lat": 39.8757843, "lon": 3.0214567, "tags": {"name": "Gall", "tourism": "artwork"}}, {"type": "node", "id": 7476777769, "lat": 39.6917367, "lon": 3.3531506, "tags": {"artwork_type": "bust", "tourism": "artwork"}}, {"type": "node", "id": 7829815565, "lat": 39.6826518, "lon": 3.390846, "tags": {"tourism": "artwork"}}, {"type": "node", "id": 8068153978, "lat": 39.9207003, "lon": 3.0547203, "tags": {"artist_name": "Rem\u00edgia Caubet", "artwork_type": "statue", "name": "Lloren\u00e7 Cerd\u00e0", "name:ca": "Lloren\u00e7 Cerd\u00e0", "tourism": "artwork"}}, {"type": "node", "id": 8386576108, "lat": 39.705812, "lon": 3.430474, "tags": {"name": "Lla\u00fct", "tourism": "artwork"}}, {"type": "node", "id": 8519134652, "lat": 39.6432457, "lon": 3.0116239, "tags": {"artwork_type": "statue", "name": "ciclista Alomar", "tourism": "artwork"}}, {"type": "node", "id": 8928383622, "lat": 39.7394329, "lon": 3.2781069, "tags": {"artist_name": "Antoni Miquel Morro Mas", "artwork_type": "statue", "material": "marble", "name": "Dona d'Art\u00e0", "tourism": "artwork"}}, {"type": "node", "id": 9084241639, "lat": 39.8534464, "lon": 3.1188107, "tags": {"tourism": "artwork"}}, {"type": "node", "id": 9084242279, "lat": 39.8534931, "lon": 3.1188008, "tags": {"tourism": "artwork"}}, {"type": "node", "id": 9084249954, "lat": 39.8533517, "lon": 3.1188569, "tags": {"tourism": "artwork"}}, {"type": "node", "id": 9209675067, "lat": 39.8782479, "lon": 3.0144556, "tags": {"artwork_type": "sculpture", "tourism": "artwork"}}, {"type": "node", "id": 9717827044, "lat": 39.7648287, "lon": 3.1599109, "tags": {"artwork_type": "statue", "material": "metal", "name": "Sabata", "name:ca": "Sabata", "tourism": "artwork"}}, {"type": "node", "id": 9717827045, "lat": 39.7647696, "lon": 3.1600405, "tags": {"artwork_type": "statue", "material": "metal", "name": "Panera", "tourism": "artwork"}}, {"type": "node", "id": 9717827066, "lat": 39.7662162, "lon": 3.1565433, "tags": {"artwork_type": "statue", "tourism": "artwork"}}, {"type": "node", "id": 9794343256, "lat": 39.6207065, "lon": 3.3601659, "tags": {"artist_name": "Eduard Servera", "artwork_type": "sculpture", "name": "La llegenda del Pastoret", "tourism": "artwork"}}, {"type": "node", "id": 9941710707, "lat": 39.7664139, "lon": 3.1564182, "tags": {"artist:wikidata": "Q19521847", "artist_name": "Joan Benn\u00e0ssar", "artwork_type": "statue", "material": "concrete", "name": "El desitg", "name:de": "Der Wunsch", "name:en": "The Desire", "name:es": "El deseo", "tourism": "artwork", "website": "https://www.bennassar.com/ports-dalga-marina-can-picafort-paseo-esculturas/"}}, {"type": "node", "id": 9941728784, "lat": 39.7662696, "lon": 3.1561929, "tags": {"tourism": "artwork"}}, {"type": "node", "id": 9941745207, "lat": 39.7658985, "lon": 3.1586739, "tags": {"artwork_type": "mural", "inscription": "Te deix, amor, la mar com a penyora. Jo pos per testimoni les gavines.", "tourism": "artwork"}}, {"type": "node", "id": 9941921923, "lat": 39.7627326, "lon": 3.1639537, "tags": {"artist:wikidata": "Q19521847", "artist_name": "Joan Benn\u00e0ssar", "artwork_type": "statue", "material": "concrete", "name": "El tresor", "name:de": "Sch\u00e4tze", "name:en": "Treasures", "name:es": "El tesoro", "tourism": "artwork", "website": "https://www.bennassar.com/ports-dalga-marina-can-picafort-paseo-esculturas/"}}, {"type": "node", "id": 9941921924, "lat": 39.7598496, "lon": 3.1695149, "tags": {"artist:wikidata": "Q19521847", "artist_name": "Joan Benn\u00e0ssar", "artwork_type": "statue", "material": "concrete", "name": "La ferida", "name:de": "Wunde", "name:en": "The Wound", "name:es": "La herida", "tourism": "artwork", "website": "https://www.bennassar.com/ports-dalga-marina-can-picafort-paseo-esculturas/"}}, {"type": "node", "id": 9941921925, "lat": 39.7624241, "lon": 3.1621516, "tags": {"artist:wikidata": "Q19521847", "artist_name": "Joan Benn\u00e0ssar", "artwork_type": "statue", "material": "concrete", "name": "Els meus ports", "name:ca": "Els meus ports", "name:de": "Meine H\u00e4fen", "name:en": "My ports", "name:es": "Mis puertos", "tourism": "artwork", "website": "https://www.bennassar.com/ports-dalga-marina-can-picafort-paseo-esculturas/"}}, {"type": "node", "id": 9941961042, "lat": 39.8413858, "lon": 3.1249932, "tags": {"artist_name": "Durban", "artwork_type": "mural", "fixme": "Afegir fotografia / Add picture", "tourism": "artwork"}}, {"type": "node", "id": 9941961043, "lat": 39.8413727, "lon": 3.1249473, "tags": {"artwork_type": "mural", "fixme": "Afegir fotografia / Add picture", "tourism": "artwork"}}, {"type": "node", "id": 9941997552, "lat": 39.8397749, "lon": 3.1210895, "tags": {"artwork_type": "sculpture", "material": "metal", "tourism": "artwork"}}, {"type": "node", "id": 9942052198, "lat": 39.7991683, "lon": 3.1194238, "tags": {"artwork_type": "sculpture", "material": "metal", "tourism": "artwork"}}, {"type": "node", "id": 9942083473, "lat": 39.7237537, "lon": 3.2099923, "tags": {"artwork_type": "sculpture", "material": "wood", "name": "Lla\u00fct", "tourism": "artwork"}}, {"type": "node", "id": 10182003545, "lat": 39.6911739, "lon": 3.3482913, "tags": {"artwork_type": "statue", "name": "Dimoni", "tourism": "artwork"}}, {"type": "node", "id": 10200639190, "lat": 39.699163, "lon": 3.1028849, "tags": {"artist_name": "Rem\u00edgia Caubet", "artwork_type": "sculpture", "name": "el Dimoni amb la Beata", "tourism": "artwork"}}, {"type": "node", "id": 10250384404, "lat": 39.7112844, "lon": 3.4682887, "tags": {"artist_name": "Armand Pierre Hern\u00e1ndez", "artwork_type": "sculpture", "name": "Homos de la Mar", "tourism": "artwork"}}]}