{"version": 0.6, "generator": "Overpass API 0.7.59 e21c39fe", "osm3s": {"timestamp_osm_base": "2023-03-01T09:40:39Z", "copyright": "The data included in this document is from www.openstreetmap.org. The data is made available under ODbL."}, "elements": [{"type": "node", "id": 471117099, "lat": 47.0563515, "lon": 16.3227834}, {"type": "node", "id": 471117100, "lat": 47.0564059, "lon": 16.3224857}, {"type": "node", "id": 471117101, "lat": 47.0564941, "lon": 16.322401}, {"type": "node", "id": 471117132, "lat": 47.0569744, "lon": 16.3235299}, {"type": "node", "id": 471117133, "lat": 47.0570081, "lon": 16.3235075}, {"type": "node", "id": 471117149, "lat": 47.0564793, "lon": 16.3227907}, {"type": "node", "id": 471117150, "lat": 47.0564702, "lon": 16.3228754}, {"type": "node", "id": 471117156, "lat": 47.0570273, "lon": 16.3236064}, {"type": "node", "id": 471117188, "lat": 47.0577484, "lon": 16.32299}, {"type": "node", "id": 471117190, "lat": 47.0577787, "lon": 16.3230902}, {"type": "node", "id": 471117192, "lat": 47.0577133, "lon": 16.3232299}, {"type": "node", "id": 471117193, "lat": 47.0576754, "lon": 16.3230081}, {"type": "node", "id": 471117263, "lat": 47.0570942, "lon": 16.3235502}, {"type": "node", "id": 471117265, "lat": 47.0570842, "lon": 16.3234894}, {"type": "node", "id": 794844156, "lat": 47.0433229, "lon": 16.3137194, "tags": {"name": "Blick auf Burg G\u00fcssing", "tourism": "viewpoint"}}, {"type": "node", "id": 1345827592, "lat": 47.1946214, "lon": 16.4137743, "tags": {"name": "Weinblick Aussichtsplattform", "source": "www.eisenberg.at", "tourism": "viewpoint"}}, {"type": "node", "id": 1358008052, "lat": 47.0563606, "lon": 16.3226225}, {"type": "node", "id": 1944112715, "lat": 47.229352, "lon": 16.600818, "tags": {"direction": "0-180", "tourism": "viewpoint"}}, {"type": "node", "id": 2543541838, "lat": 47.0566096, "lon": 16.3224773}, {"type": "node", "id": 2550578490, "lat": 47.0576273, "lon": 16.323287}, {"type": "node", "id": 2550635053, "lat": 47.057054, "lon": 16.3233502}, {"type": "node", "id": 2550635057, "lat": 47.0570019, "lon": 16.3233667}, {"type": "node", "id": 2553922677, "lat": 47.0565901, "lon": 16.3225085}, {"type": "node", "id": 2553922679, "lat": 47.0577212, "lon": 16.3231245}, {"type": "node", "id": 2553922684, "lat": 47.0570233, "lon": 16.3234616}, {"type": "node", "id": 2989885985, "lat": 47.2342821, "lon": 16.5992293, "tags": {"tourism": "viewpoint"}}, {"type": "node", "id": 3432013639, "lat": 47.2388497, "lon": 16.5861608, "tags": {"ele": "241", "man_made": "tower", "name": "Olad-R\u00f3zsadombi kil\u00e1t\u00f3", "opening_hours": "May-Sep 10:00-17:00", "source": "turistautak.hu", "tourism": "viewpoint", "tower:type": "observation", "url": "http://turistautak.hu/poi.php?id=27083"}}, {"type": "node", "id": 3465190362, "lat": 46.8944693, "lon": 16.2650924, "tags": {"man_made": "tower", "source": "turistautak.hu", "source:date": "2013-06-30", "tourism": "viewpoint", "tower:type": "observation", "url": "http://turistautak.hu/poi.php?id=11681"}}, {"type": "node", "id": 3467760481, "lat": 47.0565288, "lon": 16.3226116}, {"type": "node", "id": 3467818209, "lat": 47.0571176, "lon": 16.3235419}, {"type": "node", "id": 3467818210, "lat": 47.057122, "lon": 16.3235687}, {"type": "node", "id": 3467838965, "lat": 47.085339, "lon": 16.299105, "tags": {"amenity": "bench", "tourism": "viewpoint"}}, {"type": "node", "id": 3471878051, "lat": 47.224409, "lon": 16.60714, "tags": {"source": "turistautak.hu", "source:date": "2013-05-31", "tourism": "viewpoint", "url": "http://turistautak.hu/poi.php?id=154184"}}, {"type": "node", "id": 3474961245, "lat": 47.2069263, "lon": 16.4207589, "tags": {"source": "turistautak.hu", "source:date": "2015-03-03", "tourism": "viewpoint", "url": "http://turistautak.hu/poi.php?id=165657"}}, {"type": "node", "id": 4396333864, "lat": 47.2296283, "lon": 16.5130893, "tags": {"man_made": "tower", "material": "wood", "name": "Krisztina-kil\u00e1t\u00f3", "operator": "Dozmat K\u00f6zs\u00e9g \u00d6nkorm\u00e1nyzata", "start_date": "2015", "tourism": "viewpoint", "tower:type": "observation", "url": "http://turistautak.hu/poi.php?id=178523"}}, {"type": "node", "id": 4431572771, "lat": 46.8825592, "lon": 16.2100136, "tags": {"name": "Ritkah\u00e1za Panor\u00e1ma", "tourism": "viewpoint"}}, {"type": "node", "id": 5016423078, "lat": 47.0567111, "lon": 16.3231255, "tags": {"name": "Glockenturm", "name:hu": "Harangtorony", "tourism": "viewpoint"}}, {"type": "node", "id": 5816327956, "lat": 47.0093669, "lon": 16.6066429, "tags": {"level": "2", "tourism": "viewpoint"}}, {"type": "node", "id": 6284591758, "lat": 46.9636646, "lon": 16.5439904, "tags": {"man_made": "tower", "name": "kil\u00e1t\u00f3", "tourism": "viewpoint", "tower:type": "observation"}}, {"type": "node", "id": 6316879126, "lat": 46.93255, "lon": 16.4020751, "tags": {"direction": "50", "tourism": "viewpoint"}}, {"type": "node", "id": 6316879127, "lat": 46.941008, "lon": 16.4325531, "tags": {"description": "Blick auf das Sch\u00f6ckl", "direction": "280", "tourism": "viewpoint"}}, {"type": "node", "id": 6316879128, "lat": 46.9300899, "lon": 16.4318879, "tags": {"direction": "355", "tourism": "viewpoint"}}, {"type": "node", "id": 6316879129, "lat": 46.9327192, "lon": 16.4174611, "tags": {"tourism": "viewpoint"}}, {"type": "node", "id": 6827325690, "lat": 46.8886117, "lon": 16.1616089, "tags": {"name": "Fels\u0151sz\u00f6ln\u00f6ki kil\u00e1t\u00f3", "tourism": "viewpoint"}}, {"type": "node", "id": 7256096285, "lat": 47.2039153, "lon": 16.4323309, "tags": {"direction": "315-90", "tourism": "viewpoint"}}, {"type": "node", "id": 7677683361, "lat": 47.0092376, "lon": 16.5644939, "tags": {"tourism": "viewpoint"}}, {"type": "node", "id": 7739425870, "lat": 46.8775411, "lon": 16.2275746, "tags": {"tourism": "viewpoint"}}, {"type": "way", "id": 39323334, "nodes": [2553922677, 3467760481, 471117149, 471117150, 471117099, 1358008052, 471117100, 471117101, 2543541838, 2553922677], "tags": {"area": "yes", "foot": "yes", "name": "Aussichtsplatform S\u00fcd - Burg G\u00fcssing", "name:hu": "D\u00e9li kil\u00e1t\u00f3terasz", "surface": "grass", "tourism": "viewpoint"}}, {"type": "way", "id": 39323344, "nodes": [471117188, 471117190, 2553922679, 471117192, 2550578490, 471117193, 471117188], "tags": {"area": "yes", "foot": "yes", "name": "Aussichtsplatform Nord - Burg G\u00fcssing", "name:hu": "\u00c9szaki kil\u00e1t\u00f3terasz", "surface": "grass", "tourism": "viewpoint"}}, {"type": "way", "id": 248244745, "nodes": [2550635057, 2550635053, 471117265, 471117263, 3467818209, 3467818210, 471117156, 471117132, 471117133, 2553922684, 2550635057], "tags": {"area": "yes", "foot": "yes", "name": "Aussichtsplatform Ost - Burg G\u00fcssing", "name:hu": "Keleti kil\u00e1t\u00f3terasz", "surface": "grass", "tourism": "viewpoint"}}]}