{"version": 0.6, "generator": "Overpass API 0.7.59 e21c39fe", "osm3s": {"timestamp_osm_base": "2023-03-01T09:20:23Z", "copyright": "The data included in this document is from www.openstreetmap.org. The data is made available under ODbL."}, "elements": [{"type": "node", "id": 2634652258, "lat": 47.6838664, "lon": 22.4672179, "tags": {"LMI": "SM-II-a-A-05280", "SIRUTA:code": "136535", "addr:city": "Carei", "addr:housenumber": "1", "addr:postcode": "445100", "addr:street": "Pia\u021ba 25 Octombrie", "codul_entit\u0103\u021bii_muzeale": "7062500.0", "description:en": "Founder as District Museum, it turned into Town Museum in 1985 under the administration of the County Museum Complex. The heritage has been created through researches and collectings conducted in the Carei zone.", "description:ro": "infiintat sub numele de Muzeu Raional, devine Muzeul Orasenesc in 1985 si intra sub administratia Complexului Muzeal Judetean. Patrimoniul s-a format prin cercetari si colectari efectuate in zona Carei.", "fee": "yes", "name": "Muzeul Municipiului Carei", "name:en": "Carei City Museum", "name:ro": "Muzeul Municipiului Carei", "opening_hours": "10:00-18:00,Sa 10:00-14:00 Apr-Sep; 9:00-17:00,Sa 10:00-14:00 Oct-Mar; Mo closed", "phone": "0261/864.981", "source": "INP", "source:link": "http://date.gov.ro/dataset/ghidul-muzeelor-din-romania", "start_date": "1958", "survey:date": "2022-05-05", "tourism": "museum", "tourism_survey": "29.10.2012 18:05:00", "website": "http://www.muzeusm.ro"}}, {"type": "node", "id": 2634652446, "lat": 47.4616207, "lon": 22.3035939, "tags": {"SIRUTA:code": "30997", "addr:city": "S\u0103lacea", "addr:housenumber": "400", "codul_entit\u0103\u021bii_muzeale": "7108700.0", "email": "kerigaspar@freemail.hu", "fax": "0259352529", "fixme": "Adresa muzeului este de fapt adresa localitati, trebuie cautat manual unde este adresa corecta", "name": "Casa muzeu", "name:en": "House-Museum", "opening_hours": "unknown \"(Horv?th S?ra: 0761049057, Keri Gaspar: 0745451989)\"", "phone": "0745451989", "source": "INP", "source:link": "http://date.gov.ro/dataset/ghidul-muzeelor-din-romania", "tourism": "museum", "tourism_survey": "07.08.2013 15:24:04"}}, {"type": "node", "id": 2634652945, "lat": 47.605209, "lon": 22.363067, "tags": {"SIRUTA:code": "138510", "addr:city": "Petre\u0219ti", "addr:postcode": "447240", "addr:street": "nr. 405", "codul_entit\u0103\u021bii_muzeale": "6962505.0", "fixme": "Adresa muzeului este de fapt adresa strazi, trebuie cautat manual unde este adresa corecta", "name": "Muzeul svabesc", "name:en": "The Swabian Museum of Petresti", "opening_hours": "10:00-18:00; Sa 10:00-14:00 Apr-Sep; 09:00-17:00; Sa 10:00-14:00; Mo closed", "phone": "pentru programari se va suna la 0261/737526", "source": "INP", "source:link": "http://date.gov.ro/dataset/ghidul-muzeelor-din-romania", "start_date": "1993", "tourism": "museum", "tourism_survey": "12.11.2012 18:12:59", "website": "http://www.muzeusm.ro/petresti/"}}]}