{"version": 0.6, "generator": "Overpass API 0.7.59 e21c39fe", "osm3s": {"timestamp_osm_base": "2023-03-01T08:35:54Z", "copyright": "The data included in this document is from www.openstreetmap.org. The data is made available under ODbL."}, "elements": [{"type": "node", "id": 3441443514, "lat": 46.839393, "lon": 17.973633, "tags": {"artwork_type": "statue", "name": "Szenth\u00e1roms\u00e1g-szobor", "source": "turistautak.hu", "source:date": "2012-10-14", "tourism": "artwork", "url": "http://turistautak.hu/poi.php?id=113255"}}, {"type": "node", "id": 3441443701, "lat": 46.800773, "lon": 18.104086, "tags": {"artwork_type": "statue", "source": "turistautak.hu", "source:date": "2013-12-03", "tourism": "artwork", "url": "http://turistautak.hu/poi.php?id=105787"}}, {"type": "node", "id": 3446561079, "lat": 46.624624, "lon": 18.291519, "tags": {"artwork_type": "statue", "name": "Munk\u00e1sn\u0151 (?) szobra", "source": "turistautak.hu", "source:date": "2012-10-14", "tourism": "artwork", "url": "http://turistautak.hu/poi.php?id=90359"}}, {"type": "node", "id": 3446561081, "lat": 46.593447, "lon": 18.199283, "tags": {"artwork_type": "statue", "description": "A rk. templom kertj\u00e9ben \u00e1ll a M\u00e1ria (\u00c9g kir\u00e1lyn\u0151je?) szobor.", "name": "M\u00e1ria-szobor", "source": "turistautak.hu", "source:date": "2012-10-14", "tourism": "artwork", "url": "http://turistautak.hu/poi.php?id=75273"}}, {"type": "node", "id": 3446569422, "lat": 46.679233, "lon": 18.539183, "tags": {"artwork_type": "statue", "name": "Szenth\u00e1roms\u00e1g-szobor", "source": "turistautak.hu", "source:date": "2012-10-14", "tourism": "artwork", "url": "http://turistautak.hu/poi.php?id=130035"}}, {"type": "node", "id": 3446569423, "lat": 46.753675, "lon": 18.552236, "tags": {"artwork_type": "statue", "name": "Szenth\u00e1roms\u00e1g-szobor", "source": "turistautak.hu", "source:date": "2012-10-14", "tourism": "artwork", "url": "http://turistautak.hu/poi.php?id=77659"}}, {"type": "node", "id": 3471814153, "lat": 46.9099017, "lon": 18.0480211, "tags": {"alt_name": "Ill\u00e9s szeker\u00e9n", "artist_name": "Varga Imre", "artwork_type": "statue", "ele": "110", "name": "Az \u00f6reg Kr\u00fady", "tourism": "artwork"}}, {"type": "node", "id": 3471814173, "lat": 46.9172141, "lon": 18.1334355, "tags": {"artwork_subject": "templom ablakny\u00edl\u00e1s", "artwork_type": "installation", "building": "castle", "historic": "yes", "is_in": "Balatonszabadi d\u00e9li sz\u0151ll\u0151k", "material": "stone", "name": "Pusztatorony romjai", "source": "turistautak.hu", "source:date": "2015-01-26", "tourism": "artwork", "url": "http://turistautak.hu/poi.php?id=176252"}}, {"type": "node", "id": 3485110242, "lat": 46.54373, "lon": 18.10692, "tags": {"artwork_type": "statue", "name": "Szerzetes szobor", "source": "turistautak.hu", "source:date": "2010-01-13", "tourism": "artwork", "url": "http://turistautak.hu/poi.php?id=84613"}}, {"type": "node", "id": 3625434058, "lat": 46.6923705, "lon": 18.1846952, "tags": {"tourism": "artwork"}}, {"type": "node", "id": 3625448631, "lat": 46.692827, "lon": 18.1841706, "tags": {"tourism": "artwork"}}, {"type": "node", "id": 3625448632, "lat": 46.6926587, "lon": 18.1843396, "tags": {"tourism": "artwork"}}, {"type": "node", "id": 3625448633, "lat": 46.6925124, "lon": 18.1845207, "tags": {"tourism": "artwork"}}, {"type": "node", "id": 3678787614, "lat": 46.9129252, "lon": 18.0428358, "tags": {"artist_name": "Pjotr Tyimofejevics Sztronszkij", "artwork_type": "statue", "name": "A B\u00e9ke j\u00f3s\u00e1gos angyala", "name:it": "L'angelo benevolo della pace", "tourism": "artwork", "wheelchair": "yes"}}, {"type": "node", "id": 3678787617, "lat": 46.8869885, "lon": 18.0708787, "tags": {"addr:city": "Si\u00f3fok", "addr:housenumber": "4", "addr:postcode": "8600", "addr:street": "Asztalos utca", "addr:suburb": "Balatonkiliti", "artist_name": "Varga Imre", "artwork_type": "statue", "description": "Szent Kiliti R\u00f3mai Katolikus Pl\u00e9b\u00e1niatemplom kertj\u00e9ben \u00e1ll Varga Imre kr\u00f3mac\u00e9l alkot\u00e1sa", "material": "steel", "name": "Sarl\u00f3s Madonna", "start_date": "2004", "tourism": "artwork", "website": "https://www.kozterkep.hu/9853/sarlos-madonna"}}, {"type": "node", "id": 3693187287, "lat": 46.6006605, "lon": 18.050072, "tags": {"addr:city": "T\u00f6r\u00f6kkopp\u00e1ny", "artwork_type": "statue", "name": "G\u00fcl Baba", "source": "survey", "tourism": "artwork"}}, {"type": "node", "id": 3693187289, "lat": 46.6006056, "lon": 18.0491976, "tags": {"artwork_type": "statue", "name": "II. J\u00e1nos P\u00e1l p\u00e1pa", "source": "survey", "tourism": "artwork"}}, {"type": "node", "id": 3693187290, "lat": 46.6003085, "lon": 18.0515982, "tags": {"artwork_type": "statue", "material": "wood", "name": "Kopp\u00e1ny vez\u00e9r", "source": "survey", "source:date": "2013-10-19", "start_date": "2010", "tourism": "artwork"}}, {"type": "node", "id": 3713456277, "lat": 46.600569, "lon": 18.0493367, "tags": {"artwork_type": "statue", "name": "Szenth\u00e1roms\u00e1g", "tourism": "artwork"}}, {"type": "node", "id": 4815993721, "lat": 46.9107125, "lon": 18.0462557, "tags": {"artist_name": "Somogyi J\u00f3zsef", "ele": "109", "name": "Hal\u00e1szok", "name:hu": "Hal\u00e1szok", "tourism": "artwork", "wheelchair": "yes", "year": "1971"}}, {"type": "node", "id": 5044638879, "lat": 46.907318, "lon": 18.0545411, "tags": {"artwork_type": "sculpture", "name": "Akt", "tourism": "artwork", "wheelchair": "limited"}}, {"type": "node", "id": 5044638881, "lat": 46.9070967, "lon": 18.0539174, "tags": {"artwork_type": "statue", "memorial": "statue", "name": "K\u00e1lm\u00e1n Imre", "tourism": "artwork", "wheelchair": "yes"}}, {"type": "node", "id": 5044638882, "lat": 46.906912, "lon": 18.0530587, "tags": {"artist_name": "Varga Imre", "artwork_type": "sculpture", "name": "M\u00e1rt\u00edrok szoborcsoport", "tourism": "artwork"}}, {"type": "node", "id": 5141045092, "lat": 46.910975, "lon": 18.0449035, "tags": {"artist_name": "Vilt Tibor", "artwork_type": "statue", "ele": "108", "name": "Balatoni sell\u0151", "tourism": "artwork", "wheelchair": "yes", "year": "1974"}}, {"type": "node", "id": 5578463318, "lat": 46.631312, "lon": 18.2820707, "tags": {"artwork_type": "statue", "name": "Szenth\u00e1roms\u00e1g szobor", "tourism": "artwork"}}, {"type": "node", "id": 6019848173, "lat": 46.8967231, "lon": 18.0642423, "tags": {"artist_name": "Bors Istv\u00e1n", "artwork_type": "statue", "name": "M\u00e1rt\u00edrsirat\u00f3", "note": "2011. janu\u00e1r v\u00e9g\u00e9n az alkot\u00e1s fekv\u0151 alakj\u00e1t f\u00e9mtolvajok ellopt\u00e1k. \u00dajra\u00f6nt\u00f6tt\u00e9k amit 2014. j\u00falius\u00e1ban visszahelyeztek a hely\u00e9re.", "tourism": "artwork"}}, {"type": "node", "id": 6645014331, "lat": 46.7524722, "lon": 18.5529732, "tags": {"artwork_type": "bust", "historic": "memorial", "inscription": "Egressy B\u00e9ni (1814\u20131851)", "name": "Egressy B\u00e9ni-szobor", "tourism": "artwork"}}, {"type": "node", "id": 6645014423, "lat": 46.7524233, "lon": 18.553885, "tags": {"artwork_type": "bust", "tourism": "artwork"}}, {"type": "node", "id": 6645014428, "lat": 46.7526118, "lon": 18.5544455, "tags": {"artwork_type": "bust", "historic": "memorial", "tourism": "artwork"}}, {"type": "node", "id": 6645014451, "lat": 46.7520376, "lon": 18.5548816, "tags": {"artwork_type": "sculpture", "historic": "memorial", "tourism": "artwork"}}, {"type": "node", "id": 6645014615, "lat": 46.7524971, "lon": 18.5536287, "tags": {"artwork_type": "sculpture", "historic": "memorial", "memorial": "war_memorial", "tourism": "artwork"}}, {"type": "node", "id": 7741783392, "lat": 46.9173442, "lon": 18.1332846, "tags": {"artwork_subject": "olt\u00e1rk\u0151", "artwork_type": "installation", "ele": "138", "is_in": "Balatonszabadi d\u00e9li sz\u0151ll\u0151k", "material": "stone", "name": "Olt\u00e1rk\u0151", "ruins": "yes", "tourism": "artwork", "url": "https://geocaching.hu/caches.geo?id=1297", "website": "https://varak.hu/latnivalo/index/128-Balatonszabadi-Pusztatorony/"}}, {"type": "node", "id": 7829807315, "lat": 46.6937594, "lon": 18.1832367, "tags": {"artwork_type": "statue", "tourism": "artwork"}}, {"type": "node", "id": 7829807325, "lat": 46.692673, "lon": 18.1837356, "tags": {"artwork_type": "bust", "tourism": "artwork"}}, {"type": "node", "id": 8946951291, "lat": 46.8861218, "lon": 17.9731178, "tags": {"artwork_subject": "\u00d3ri\u00e1s Boh\u00f3c", "artwork_type": "statue", "name": "Boh\u00f3c", "start_date": "2021-06-11", "tourism": "artwork"}}, {"type": "node", "id": 8957821910, "lat": 46.8868179, "lon": 18.0704351, "tags": {"alt_name": "kereszt\u00fat, Si\u00f3foki k\u00e1lv\u00e1ria", "artist_name": "\u00c1goston-Papp M\u00f3nika keramikus m\u0171v\u00e9sz", "artwork_subject": "sz\u00ednes m\u00e1zas ker\u00e1mia st\u00e1ci\u00f3", "artwork_type": "mural", "denomination": "catholic", "description": "I. J\u00e9zust hal\u00e1lra \u00edt\u00e9lik", "historic": "wayside_shrine", "material": "ceramic", "memorial": "plaque", "name": "I. st\u00e1ci\u00f3", "name:en": "Stations of the Cross", "opening_hours": "24/7", "religion": "christian", "start_date": "2017", "tourism": "artwork", "url": "http://csendhegyek.blogspot.com/2017/05/balatonkiliti-kalvaria.html", "url:gc": "https://www.geocaching.hu/caches.geo?id=2746", "website": "https://www.kozterkep.hu/30800/staciok-i-vii#", "wheelchair": "yes", "wikidata": "Q231685", "wikipedia": "hu:Kereszt\u00fat"}}, {"type": "node", "id": 8957883426, "lat": 46.8869165, "lon": 18.070885, "tags": {"alt_name": "kereszt\u00fat, Si\u00f3foki k\u00e1lv\u00e1ria", "artist_name": "\u00c1goston-Papp M\u00f3nika keramikus m\u0171v\u00e9sz", "artwork_subject": "sz\u00ednes m\u00e1zas ker\u00e1mia st\u00e1ci\u00f3", "artwork_type": "mural", "denomination": "catholic", "description": "XIV. J\u00e9zust eltemetik", "historic": "wayside_shrine", "material": "ceramic", "memorial": "plaque", "name": "XIV. st\u00e1ci\u00f3", "name:en": "Stations of the Cross", "opening_hours": "24/7", "religion": "christian", "start_date": "2017", "tourism": "artwork", "url": "http://csendhegyek.blogspot.com/2017/05/balatonkiliti-kalvaria.html", "url:gc": "https://www.geocaching.hu/caches.geo?id=2746", "website": "https://www.kozterkep.hu/32896/staciok-viii-xiv", "wheelchair": "yes", "wikidata": "Q231685", "wikipedia": "hu:Kereszt\u00fat"}}, {"type": "node", "id": 8957883427, "lat": 46.8869559, "lon": 18.0708555, "tags": {"alt_name": "kereszt\u00fat, Si\u00f3foki k\u00e1lv\u00e1ria", "artist_name": "\u00c1goston-Papp M\u00f3nika keramikus m\u0171v\u00e9sz", "artwork_subject": "sz\u00ednes m\u00e1zas ker\u00e1mia st\u00e1ci\u00f3", "artwork_type": "mural", "denomination": "catholic", "description": "XIII. J\u00e9zust leveszik a keresztr\u0151l \u00e9s anyja \u00f6l\u00e9be helyezik", "historic": "wayside_shrine", "material": "ceramic", "memorial": "plaque", "name": "XIII. st\u00e1ci\u00f3", "name:en": "Stations of the Cross", "opening_hours": "24/7", "religion": "christian", "start_date": "2017", "tourism": "artwork", "url": "http://csendhegyek.blogspot.com/2017/05/balatonkiliti-kalvaria.html", "url:gc": "https://www.geocaching.hu/caches.geo?id=2746", "website": "https://www.kozterkep.hu/32896/staciok-viii-xiv", "wheelchair": "yes", "wikidata": "Q231685", "wikipedia": "hu:Kereszt\u00fat"}}, {"type": "node", "id": 8957883428, "lat": 46.8868876, "lon": 18.0708159, "tags": {"alt_name": "kereszt\u00fat, Si\u00f3foki k\u00e1lv\u00e1ria", "artist_name": "\u00c1goston-Papp M\u00f3nika keramikus m\u0171v\u00e9sz", "artwork_subject": "sz\u00ednes m\u00e1zas ker\u00e1mia st\u00e1ci\u00f3", "artwork_type": "mural", "denomination": "catholic", "description": "XII. J\u00e9zus meghal a kereszten", "historic": "wayside_shrine", "material": "ceramic", "memorial": "plaque", "name": "XII. st\u00e1ci\u00f3", "name:en": "Stations of the Cross", "opening_hours": "24/7", "religion": "christian", "start_date": "2017", "tourism": "artwork", "url": "http://csendhegyek.blogspot.com/2017/05/balatonkiliti-kalvaria.html", "url:gc": "https://www.geocaching.hu/caches.geo?id=2746", "website": "https://www.kozterkep.hu/32896/staciok-viii-xiv", "wheelchair": "yes", "wikidata": "Q231685", "wikipedia": "hu:Kereszt\u00fat"}}, {"type": "node", "id": 8957883429, "lat": 46.886932, "lon": 18.0707878, "tags": {"alt_name": "kereszt\u00fat, Si\u00f3foki k\u00e1lv\u00e1ria", "artist_name": "\u00c1goston-Papp M\u00f3nika keramikus m\u0171v\u00e9sz", "artwork_subject": "sz\u00ednes m\u00e1zas ker\u00e1mia st\u00e1ci\u00f3", "artwork_type": "mural", "denomination": "catholic", "description": "XI J\u00e9zust a keresztre szegezik", "historic": "wayside_shrine", "material": "ceramic", "memorial": "plaque", "name": "XI. st\u00e1ci\u00f3", "name:en": "Stations of the Cross", "opening_hours": "24/7", "religion": "christian", "start_date": "2017", "tourism": "artwork", "url": "http://csendhegyek.blogspot.com/2017/05/balatonkiliti-kalvaria.html", "url:gc": "https://www.geocaching.hu/caches.geo?id=2746", "website": "https://www.kozterkep.hu/32896/staciok-viii-xiv", "wheelchair": "yes", "wikidata": "Q231685", "wikipedia": "hu:Kereszt\u00fat"}}, {"type": "node", "id": 8957883430, "lat": 46.886866, "lon": 18.0707522, "tags": {"alt_name": "kereszt\u00fat, Si\u00f3foki k\u00e1lv\u00e1ria", "artist_name": "\u00c1goston-Papp M\u00f3nika keramikus m\u0171v\u00e9sz", "artwork_subject": "sz\u00ednes m\u00e1zas ker\u00e1mia st\u00e1ci\u00f3", "artwork_type": "mural", "denomination": "catholic", "description": "X. J\u00e9zust megfosztj\u00e1k ruh\u00e1j\u00e1t\u00f3l", "historic": "wayside_shrine", "material": "ceramic", "memorial": "plaque", "name": "X. st\u00e1ci\u00f3", "name:en": "Stations of the Cross", "opening_hours": "24/7", "religion": "christian", "start_date": "2017", "tourism": "artwork", "url": "http://csendhegyek.blogspot.com/2017/05/balatonkiliti-kalvaria.html", "url:gc": "https://www.geocaching.hu/caches.geo?id=2746", "website": "https://www.kozterkep.hu/32896/staciok-viii-xiv", "wheelchair": "yes", "wikidata": "Q231685", "wikipedia": "hu:Kereszt\u00fat"}}, {"type": "node", "id": 8957883431, "lat": 46.8869114, "lon": 18.070718, "tags": {"alt_name": "kereszt\u00fat, Si\u00f3foki k\u00e1lv\u00e1ria", "artist_name": "\u00c1goston-Papp M\u00f3nika keramikus m\u0171v\u00e9sz", "artwork_subject": "sz\u00ednes m\u00e1zas ker\u00e1mia st\u00e1ci\u00f3", "artwork_type": "mural", "denomination": "catholic", "description": "IX. J\u00e9zus harmadszor esik el a kereszttel", "historic": "wayside_shrine", "material": "ceramic", "memorial": "plaque", "name": "IX. st\u00e1ci\u00f3", "name:en": "Stations of the Cross", "opening_hours": "24/7", "religion": "christian", "start_date": "2017", "tourism": "artwork", "url": "http://csendhegyek.blogspot.com/2017/05/balatonkiliti-kalvaria.html", "url:gc": "https://www.geocaching.hu/caches.geo?id=2746", "website": "https://www.kozterkep.hu/32896/staciok-viii-xiv", "wheelchair": "yes", "wikidata": "Q231685", "wikipedia": "hu:Kereszt\u00fat"}}, {"type": "node", "id": 8957883432, "lat": 46.8868431, "lon": 18.0706771, "tags": {"alt_name": "kereszt\u00fat, Si\u00f3foki k\u00e1lv\u00e1ria", "artist_name": "\u00c1goston-Papp M\u00f3nika keramikus m\u0171v\u00e9sz", "artwork_subject": "sz\u00ednes m\u00e1zas ker\u00e1mia st\u00e1ci\u00f3", "artwork_type": "mural", "denomination": "catholic", "description": "VIII. J\u00e9zus vigasztalja a s\u00edr\u00f3 asszonyokat", "historic": "wayside_shrine", "material": "ceramic", "memorial": "plaque", "name": "VIII. st\u00e1ci\u00f3", "name:en": "Stations of the Cross", "opening_hours": "24/7", "religion": "christian", "start_date": "2017", "tourism": "artwork", "url": "http://csendhegyek.blogspot.com/2017/05/balatonkiliti-kalvaria.html", "url:gc": "https://www.geocaching.hu/caches.geo?id=2746", "website": "https://www.kozterkep.hu/32896/staciok-viii-xiv", "wheelchair": "yes", "wikidata": "Q231685", "wikipedia": "hu:Kereszt\u00fat"}}, {"type": "node", "id": 8957883433, "lat": 46.886888, "lon": 18.0706463, "tags": {"alt_name": "kereszt\u00fat, Si\u00f3foki k\u00e1lv\u00e1ria", "artist_name": "\u00c1goston-Papp M\u00f3nika keramikus m\u0171v\u00e9sz", "artwork_subject": "sz\u00ednes m\u00e1zas ker\u00e1mia st\u00e1ci\u00f3", "artwork_type": "mural", "denomination": "catholic", "description": "VII. J\u00e9zus m\u00e1sodszor esik el a kereszttel", "historic": "wayside_shrine", "material": "ceramic", "memorial": "plaque", "name": "VII. st\u00e1ci\u00f3", "name:en": "Stations of the Cross", "opening_hours": "24/7", "religion": "christian", "start_date": "2017", "tourism": "artwork", "url": "http://csendhegyek.blogspot.com/2017/05/balatonkiliti-kalvaria.html", "url:gc": "https://www.geocaching.hu/caches.geo?id=2746", "website": "https://www.kozterkep.hu/30800/staciok-i-vii#", "wheelchair": "yes", "wikidata": "Q231685", "wikipedia": "hu:Kereszt\u00fat"}}, {"type": "node", "id": 8957883434, "lat": 46.8868179, "lon": 18.0706108, "tags": {"alt_name": "kereszt\u00fat, Si\u00f3foki k\u00e1lv\u00e1ria", "artist_name": "\u00c1goston-Papp M\u00f3nika keramikus m\u0171v\u00e9sz", "artwork_subject": "sz\u00ednes m\u00e1zas ker\u00e1mia st\u00e1ci\u00f3", "artwork_type": "mural", "denomination": "catholic", "description": "VI. Veronika megt\u00f6rli kend\u0151j\u00e9vel J\u00e9zus arc\u00e1t", "historic": "wayside_shrine", "material": "ceramic", "memorial": "plaque", "name": "VI. st\u00e1ci\u00f3", "name:en": "Stations of the Cross", "opening_hours": "24/7", "religion": "christian", "start_date": "2017", "tourism": "artwork", "url": "http://csendhegyek.blogspot.com/2017/05/balatonkiliti-kalvaria.html", "url:gc": "https://www.geocaching.hu/caches.geo?id=2746", "website": "https://www.kozterkep.hu/30800/staciok-i-vii#", "wheelchair": "yes", "wikidata": "Q231685", "wikipedia": "hu:Kereszt\u00fat"}}, {"type": "node", "id": 8957883435, "lat": 46.8868638, "lon": 18.0705779, "tags": {"alt_name": "kereszt\u00fat, Si\u00f3foki k\u00e1lv\u00e1ria", "artist_name": "\u00c1goston-Papp M\u00f3nika keramikus m\u0171v\u00e9sz", "artwork_subject": "sz\u00ednes m\u00e1zas ker\u00e1mia st\u00e1ci\u00f3", "artwork_type": "mural", "denomination": "catholic", "description": "V. Cirenei Simon seg\u00edt J\u00e9zusnak vinni a keresztet", "historic": "wayside_shrine", "material": "ceramic", "memorial": "plaque", "name": "V. st\u00e1ci\u00f3", "name:en": "Stations of the Cross", "opening_hours": "24/7", "religion": "christian", "start_date": "2017", "tourism": "artwork", "url": "http://csendhegyek.blogspot.com/2017/05/balatonkiliti-kalvaria.html", "url:gc": "https://www.geocaching.hu/caches.geo?id=2746", "website": "https://www.kozterkep.hu/30800/staciok-i-vii#", "wheelchair": "yes", "wikidata": "Q231685", "wikipedia": "hu:Kereszt\u00fat"}}, {"type": "node", "id": 8957883436, "lat": 46.8867946, "lon": 18.0705407, "tags": {"alt_name": "kereszt\u00fat, Si\u00f3foki k\u00e1lv\u00e1ria", "artist_name": "\u00c1goston-Papp M\u00f3nika keramikus m\u0171v\u00e9sz", "artwork_subject": "sz\u00ednes m\u00e1zas ker\u00e1mia st\u00e1ci\u00f3", "artwork_type": "mural", "denomination": "catholic", "description": "IV. J\u00e9zus anyj\u00e1val tal\u00e1lkozik a kereszt\u00faton", "historic": "wayside_shrine", "material": "ceramic", "memorial": "plaque", "name": "IV. st\u00e1ci\u00f3", "name:en": "Stations of the Cross", "opening_hours": "24/7", "religion": "christian", "start_date": "2017", "tourism": "artwork", "url": "http://csendhegyek.blogspot.com/2017/05/balatonkiliti-kalvaria.html", "url:gc": "https://www.geocaching.hu/caches.geo?id=2746", "website": "https://www.kozterkep.hu/30800/staciok-i-vii#", "wheelchair": "yes", "wikidata": "Q231685", "wikipedia": "hu:Kereszt\u00fat"}}, {"type": "node", "id": 8957883437, "lat": 46.8868399, "lon": 18.0705078, "tags": {"alt_name": "kereszt\u00fat, Si\u00f3foki k\u00e1lv\u00e1ria", "artist_name": "\u00c1goston-Papp M\u00f3nika keramikus m\u0171v\u00e9sz", "artwork_subject": "sz\u00ednes m\u00e1zas ker\u00e1mia st\u00e1ci\u00f3", "artwork_type": "mural", "denomination": "catholic", "description": "III. J\u00e9zus el\u0151sz\u00f6r esik el a kereszttel", "historic": "wayside_shrine", "material": "ceramic", "memorial": "plaque", "name": "III. st\u00e1ci\u00f3", "name:en": "Stations of the Cross", "opening_hours": "24/7", "religion": "christian", "start_date": "2017", "tourism": "artwork", "url": "http://csendhegyek.blogspot.com/2017/05/balatonkiliti-kalvaria.html", "url:gc": "https://www.geocaching.hu/caches.geo?id=2746", "website": "https://www.kozterkep.hu/30800/staciok-i-vii#", "wheelchair": "yes", "wikidata": "Q231685", "wikipedia": "hu:Kereszt\u00fat"}}, {"type": "node", "id": 8957883438, "lat": 46.8867671, "lon": 18.070474, "tags": {"alt_name": "kereszt\u00fat, Si\u00f3foki k\u00e1lv\u00e1ria", "artist_name": "\u00c1goston-Papp M\u00f3nika keramikus m\u0171v\u00e9sz", "artwork_subject": "sz\u00ednes m\u00e1zas ker\u00e1mia st\u00e1ci\u00f3", "artwork_type": "mural", "denomination": "catholic", "description": "II. J\u00e9zus v\u00e1ll\u00e1ra veszi a keresztet", "historic": "wayside_shrine", "material": "ceramic", "memorial": "plaque", "name": "II. st\u00e1ci\u00f3", "name:en": "Stations of the Cross", "opening_hours": "24/7", "religion": "christian", "start_date": "2017", "tourism": "artwork", "url": "http://csendhegyek.blogspot.com/2017/05/balatonkiliti-kalvaria.html", "url:gc": "https://www.geocaching.hu/caches.geo?id=2746", "website": "https://www.kozterkep.hu/30800/staciok-i-vii#", "wheelchair": "yes", "wikidata": "Q231685", "wikipedia": "hu:Kereszt\u00fat"}}, {"type": "node", "id": 8993879851, "lat": 46.7558869, "lon": 18.4350754, "tags": {"artwork_subject": "OZORA Fesztiv\u00e1l bel\u00e9p\u00e9si jelszobor", "artwork_type": "installation", "material": "wood", "start_date": "2012", "tourism": "artwork"}}, {"type": "node", "id": 8993879852, "lat": 46.7558795, "lon": 18.4351759, "tags": {"artwork_subject": "OZORA Fesztiv\u00e1l bel\u00e9p\u00e9si jelszobor", "artwork_type": "installation", "material": "wood", "name": "Ozora Fesztiv\u00e1l jelszobor", "name:en": "OZORA Festival entry sign sculpture", "operator": "O.Z.O.R.A.; Zim\u00e1nyi D\u00e1niel juh\u00e1sz (2018+) \u00e9s fia Zim\u00e1nyi \u00c1rp\u00e1d", "start_date": "2012", "tourism": "artwork"}}, {"type": "node", "id": 8993879862, "lat": 46.7554558, "lon": 18.4349889, "tags": {"artwork_subject": "OZORA Fesztiv\u00e1l bel\u00e9p\u00e9si jelszobor", "artwork_type": "installation", "material": "wood", "start_date": "2012", "tourism": "artwork"}}, {"type": "node", "id": 8993879863, "lat": 46.7554485, "lon": 18.4350879, "tags": {"artwork_subject": "OZORA Fesztiv\u00e1l bel\u00e9p\u00e9si jelszobor", "artwork_type": "installation", "material": "wood", "name": "Ozora Fesztiv\u00e1l jelszobor", "name:en": "OZORA Festival entry sign sculpture", "operator": "O.Z.O.R.A.; Zim\u00e1nyi D\u00e1niel juh\u00e1sz (2018+) \u00e9s fia Zim\u00e1nyi \u00c1rp\u00e1d", "start_date": "2012", "tourism": "artwork"}}, {"type": "node", "id": 8993904513, "lat": 46.7704285, "lon": 18.4324382, "tags": {"addr:city": "Igar", "addr:postcode": "7015", "addr:suburb": "D\u00e1dpuszta", "artwork_subject": "\u00d3ri\u00e1s-szobor: A K\u00edgy\u00f3 alm\u00e1j\u00e1t \u00c9va \u00e1tny\u00fajtja \u00c1d\u00e1mnak", "artwork_type": "statue", "description": "m\u0171alkot\u00e1s: \u00f3ri\u00e1s fa-szobrok", "ele": "120", "is_in": "Ozora Fesztiv\u00e1l", "material": "wood", "name": "\u00c1d\u00e1m \u00e9s \u00c9va", "name:en": "Adam and Eve", "operator": "O.Z.O.R.A.", "source": "survey 2015-06-30", "start_date": "2015", "tourism": "artwork", "url": "https://kulturkor.wordpress.com/2020/07/03/ozora-3-ozora-epuletei/", "website": "https://kulturkor.wordpress.com/category/ozora/"}}, {"type": "node", "id": 8993906668, "lat": 46.7732023, "lon": 18.4360025, "tags": {"artwork_type": "installation", "ele": "120", "is_in": "Ozora Fesztiv\u00e1l", "material": "wood", "name": "Vil\u00e1gfa", "tourism": "artwork", "url": "https://kulturkor.wordpress.com/2020/07/21/ozora-4-a-nagyszinpadtol-az-ambyssig/", "website": "https://kulturkor.wordpress.com/category/ozora/"}}, {"type": "node", "id": 8995690845, "lat": 46.770857, "lon": 18.4333525, "tags": {"artwork_type": "installation", "description": "ritu\u00e1lis szertart\u00e1sok", "is_in": "Ozora Fesztiv\u00e1l", "material": "wood", "name": "Csod\u00e1k Kertje", "name:en": "Magic Garden", "operator": "O.Z.O.R.A.", "start_date": "2010", "tourism": "artwork", "url": "https://kulturkor.wordpress.com/2020/07/03/ozora-3-ozora-epuletei/", "website": "https://kulturkor.wordpress.com/category/ozora/"}}, {"type": "node", "id": 8995690846, "lat": 46.7730857, "lon": 18.4355276, "tags": {"artwork_type": "installation", "ele": "120", "is_in": "Ozora Fesztiv\u00e1l", "material": "wood", "name": "Sz\u00e9ltorony", "tourism": "artwork", "website": "https://kulturkor.wordpress.com/2020/07/03/ozora-3-ozora-epuletei/"}}, {"type": "node", "id": 8995690847, "lat": 46.772952, "lon": 18.4356729, "tags": {"artwork_type": "installation", "ele": "120", "is_in": "Ozora Fesztiv\u00e1l", "material": "wood", "name": "Sz\u00e9ltorony", "tourism": "artwork", "website": "https://kulturkor.wordpress.com/2020/07/03/ozora-3-ozora-epuletei/"}}, {"type": "node", "id": 8995690848, "lat": 46.7728629, "lon": 18.4359071, "tags": {"artwork_type": "installation", "ele": "120", "is_in": "Ozora Fesztiv\u00e1l", "material": "wood", "name": "Sz\u00e9ltorony", "tourism": "artwork", "website": "https://kulturkor.wordpress.com/2020/07/03/ozora-3-ozora-epuletei/"}}, {"type": "node", "id": 8995690849, "lat": 46.7728777, "lon": 18.43615, "tags": {"artwork_type": "installation", "ele": "120", "is_in": "Ozora Fesztiv\u00e1l", "material": "wood", "name": "Sz\u00e9ltorony", "tourism": "artwork", "website": "https://kulturkor.wordpress.com/2020/07/03/ozora-3-ozora-epuletei/"}}, {"type": "node", "id": 8995690850, "lat": 46.7729639, "lon": 18.436343, "tags": {"artwork_type": "installation", "ele": "120", "is_in": "Ozora Fesztiv\u00e1l", "material": "wood", "name": "Sz\u00e9ltorony", "tourism": "artwork", "website": "https://kulturkor.wordpress.com/2020/07/03/ozora-3-ozora-epuletei/"}}, {"type": "node", "id": 8995690851, "lat": 46.7732995, "lon": 18.436421, "tags": {"artwork_type": "installation", "ele": "120", "is_in": "Ozora Fesztiv\u00e1l", "material": "wood", "name": "Sz\u00e9ltorony", "tourism": "artwork", "website": "https://kulturkor.wordpress.com/2020/07/03/ozora-3-ozora-epuletei/"}}, {"type": "node", "id": 8995690852, "lat": 46.7734347, "lon": 18.4362974, "tags": {"artwork_type": "installation", "ele": "120", "is_in": "Ozora Fesztiv\u00e1l", "material": "wood", "name": "Sz\u00e9ltorony", "tourism": "artwork", "website": "https://kulturkor.wordpress.com/2020/07/03/ozora-3-ozora-epuletei/"}}, {"type": "node", "id": 8995690853, "lat": 46.7735075, "lon": 18.4360437, "tags": {"artwork_type": "installation", "ele": "120", "is_in": "Ozora Fesztiv\u00e1l", "material": "wood", "name": "Sz\u00e9ltorony", "tourism": "artwork", "website": "https://kulturkor.wordpress.com/2020/07/03/ozora-3-ozora-epuletei/"}}, {"type": "node", "id": 8995690854, "lat": 46.7734986, "lon": 18.4358312, "tags": {"artwork_type": "installation", "ele": "120", "is_in": "Ozora Fesztiv\u00e1l", "material": "wood", "name": "Sz\u00e9ltorony", "tourism": "artwork", "website": "https://kulturkor.wordpress.com/2020/07/03/ozora-3-ozora-epuletei/"}}, {"type": "node", "id": 8995690855, "lat": 46.7734124, "lon": 18.4356078, "tags": {"artwork_type": "installation", "ele": "120", "is_in": "Ozora Fesztiv\u00e1l", "material": "wood", "name": "Sz\u00e9ltorony", "tourism": "artwork", "website": "https://kulturkor.wordpress.com/2020/07/03/ozora-3-ozora-epuletei/"}}, {"type": "node", "id": 8995692034, "lat": 46.772851, "lon": 18.4375856, "tags": {"artwork_subject": "fa, gy\u00f6k\u00e9rrel az \u00e9g fel\u00e9", "artwork_type": "installation", "denotation": "landmark", "leaf_type": "leafless", "material": "wood", "tourism": "artwork", "website": "https://kulturkor.wordpress.com/2020/07/03/ozora-3-ozora-epuletei/"}}, {"type": "node", "id": 8995692035, "lat": 46.7722302, "lon": 18.4366249, "tags": {"artwork_subject": "fa, gy\u00f6k\u00e9rrel az \u00e9g fel\u00e9", "artwork_type": "installation", "denotation": "landmark", "leaf_type": "leafless", "material": "wood", "tourism": "artwork", "website": "https://kulturkor.wordpress.com/2020/07/03/ozora-3-ozora-epuletei/"}}, {"type": "node", "id": 8995692036, "lat": 46.7722435, "lon": 18.4367485, "tags": {"artwork_subject": "fa, gy\u00f6k\u00e9rrel az \u00e9g fel\u00e9", "artwork_type": "installation", "denotation": "landmark", "leaf_type": "leafless", "material": "wood", "name": "fa-szobor", "tourism": "artwork", "website": "https://kulturkor.wordpress.com/2020/07/03/ozora-3-ozora-epuletei/"}}, {"type": "node", "id": 8995692037, "lat": 46.7729163, "lon": 18.4376051, "tags": {"artwork_subject": "fa, gy\u00f6k\u00e9rrel az \u00e9g fel\u00e9", "artwork_type": "installation", "denotation": "landmark", "leaf_type": "leafless", "material": "wood", "tourism": "artwork", "website": "https://kulturkor.wordpress.com/2020/07/03/ozora-3-ozora-epuletei/"}}, {"type": "node", "id": 8995692038, "lat": 46.7730099, "lon": 18.4376268, "tags": {"artwork_subject": "fa, gy\u00f6k\u00e9rrel az \u00e9g fel\u00e9", "artwork_type": "installation", "denotation": "landmark", "leaf_type": "leafless", "material": "wood", "name": "fa-szobor", "tourism": "artwork", "website": "https://kulturkor.wordpress.com/2020/07/03/ozora-3-ozora-epuletei/"}}, {"type": "node", "id": 8996028550, "lat": 46.7723267, "lon": 18.4343305, "tags": {"artwork_type": "sculpture", "material": "wood", "tourism": "artwork"}}, {"type": "node", "id": 8996028551, "lat": 46.7723044, "lon": 18.434504, "tags": {"artwork_type": "sculpture", "material": "wood", "tourism": "artwork"}}, {"type": "node", "id": 8996028552, "lat": 46.7723193, "lon": 18.4347057, "tags": {"artwork_type": "sculpture", "material": "wood", "tourism": "artwork"}}, {"type": "node", "id": 8996028553, "lat": 46.772404, "lon": 18.4348271, "tags": {"artwork_type": "sculpture", "material": "wood", "tourism": "artwork"}}, {"type": "node", "id": 8996028554, "lat": 46.7725629, "lon": 18.434916, "tags": {"artwork_subject": "\u00d3ri\u00e1s-szobor feje, fa l\u00e9cekb\u0151l", "artwork_type": "statue", "material": "wood", "name": "\u00d3ri\u00e1s fej", "name:en": "Giant head", "operator": "O.Z.O.R.A.; Zim\u00e1nyi D\u00e1niel juh\u00e1sz (2018+) \u00e9s fia Zim\u00e1nyi \u00c1rp\u00e1d", "start_date": "2014", "tourism": "artwork"}}, {"type": "node", "id": 8996200866, "lat": 46.7731027, "lon": 18.4362226, "tags": {"artwork_subject": "fa, gy\u00f6k\u00e9rrel az \u00e9g fel\u00e9", "artwork_type": "installation", "denotation": "landmark", "leaf_type": "leafless", "material": "wood", "tourism": "artwork", "website": "https://kulturkor.wordpress.com/2020/07/03/ozora-3-ozora-epuletei/"}}, {"type": "node", "id": 8996200867, "lat": 46.773206, "lon": 18.4362475, "tags": {"artwork_subject": "fa, gy\u00f6k\u00e9rrel az \u00e9g fel\u00e9", "artwork_type": "installation", "denotation": "landmark", "leaf_type": "leafless", "material": "wood", "tourism": "artwork", "website": "https://kulturkor.wordpress.com/2020/07/03/ozora-3-ozora-epuletei/"}}, {"type": "node", "id": 8996200868, "lat": 46.773304, "lon": 18.4361966, "tags": {"artwork_subject": "fa, gy\u00f6k\u00e9rrel az \u00e9g fel\u00e9", "artwork_type": "installation", "denotation": "landmark", "leaf_type": "leafless", "material": "wood", "tourism": "artwork", "website": "https://kulturkor.wordpress.com/2020/07/03/ozora-3-ozora-epuletei/"}}, {"type": "node", "id": 8996200869, "lat": 46.7733508, "lon": 18.4361055, "tags": {"artwork_subject": "fa, gy\u00f6k\u00e9rrel az \u00e9g fel\u00e9", "artwork_type": "installation", "denotation": "landmark", "leaf_type": "leafless", "material": "wood", "tourism": "artwork", "website": "https://kulturkor.wordpress.com/2020/07/03/ozora-3-ozora-epuletei/"}}, {"type": "node", "id": 8996200870, "lat": 46.7733775, "lon": 18.4359613, "tags": {"artwork_subject": "fa, gy\u00f6k\u00e9rrel az \u00e9g fel\u00e9", "artwork_type": "installation", "denotation": "landmark", "leaf_type": "leafless", "material": "wood", "tourism": "artwork", "website": "https://kulturkor.wordpress.com/2020/07/03/ozora-3-ozora-epuletei/"}}, {"type": "node", "id": 8996200871, "lat": 46.773356, "lon": 18.4358366, "tags": {"artwork_subject": "fa, gy\u00f6k\u00e9rrel az \u00e9g fel\u00e9", "artwork_type": "installation", "denotation": "landmark", "leaf_type": "leafless", "material": "wood", "tourism": "artwork", "website": "https://kulturkor.wordpress.com/2020/07/03/ozora-3-ozora-epuletei/"}}, {"type": "node", "id": 8996200872, "lat": 46.7732713, "lon": 18.4357466, "tags": {"artwork_subject": "fa, gy\u00f6k\u00e9rrel az \u00e9g fel\u00e9", "artwork_type": "installation", "denotation": "landmark", "leaf_type": "leafless", "material": "wood", "tourism": "artwork", "website": "https://kulturkor.wordpress.com/2020/07/03/ozora-3-ozora-epuletei/"}}, {"type": "node", "id": 8996200873, "lat": 46.7732, "lon": 18.435713, "tags": {"artwork_subject": "fa, gy\u00f6k\u00e9rrel az \u00e9g fel\u00e9", "artwork_type": "installation", "denotation": "landmark", "leaf_type": "leafless", "material": "wood", "tourism": "artwork", "website": "https://kulturkor.wordpress.com/2020/07/03/ozora-3-ozora-epuletei/"}}, {"type": "node", "id": 8996200874, "lat": 46.7730782, "lon": 18.4357715, "tags": {"artwork_subject": "fa, gy\u00f6k\u00e9rrel az \u00e9g fel\u00e9", "artwork_type": "installation", "denotation": "landmark", "leaf_type": "leafless", "material": "wood", "tourism": "artwork", "website": "https://kulturkor.wordpress.com/2020/07/03/ozora-3-ozora-epuletei/"}}, {"type": "node", "id": 8996200875, "lat": 46.7730218, "lon": 18.4358691, "tags": {"artwork_subject": "fa, gy\u00f6k\u00e9rrel az \u00e9g fel\u00e9", "artwork_type": "installation", "denotation": "landmark", "leaf_type": "leafless", "material": "wood", "tourism": "artwork", "website": "https://kulturkor.wordpress.com/2020/07/03/ozora-3-ozora-epuletei/"}}, {"type": "node", "id": 8996200876, "lat": 46.7730329, "lon": 18.4361304, "tags": {"artwork_subject": "fa, gy\u00f6k\u00e9rrel az \u00e9g fel\u00e9", "artwork_type": "installation", "denotation": "landmark", "leaf_type": "leafless", "material": "wood", "tourism": "artwork", "website": "https://kulturkor.wordpress.com/2020/07/03/ozora-3-ozora-epuletei/"}}, {"type": "node", "id": 8996200877, "lat": 46.7730047, "lon": 18.4360014, "tags": {"artwork_subject": "fa, gy\u00f6k\u00e9rrel az \u00e9g fel\u00e9", "artwork_type": "installation", "denotation": "landmark", "leaf_type": "leafless", "material": "wood", "tourism": "artwork", "website": "https://kulturkor.wordpress.com/2020/07/03/ozora-3-ozora-epuletei/"}}, {"type": "node", "id": 8996224774, "lat": 46.7697927, "lon": 18.4307178, "tags": {"artist_name": "sok m\u0171v\u00e9sz", "artwork_subject": "L\u00f6szfalba faragott szobrok, domborm\u0171vek \u00e9s rejt\u00e9lyes dolgok.", "artwork_type": "sculpture", "is_in": "O.Z.O.R.A. Szurdok", "material": "wood", "name": "L\u00f6sz-szobrok", "start_date": "2012", "tourism": "artwork"}}, {"type": "node", "id": 8996224775, "lat": 46.7695838, "lon": 18.4304518, "tags": {"artist_name": "sok m\u0171v\u00e9sz", "artwork_subject": "L\u00f6szfalba faragott szobrok, domborm\u0171vek \u00e9s rejt\u00e9lyes dolgok.", "artwork_type": "sculpture", "is_in": "O.Z.O.R.A. Szurdok", "material": "wood", "start_date": "2012", "tourism": "artwork"}}, {"type": "node", "id": 8996224776, "lat": 46.7692571, "lon": 18.4299439, "tags": {"artist_name": "sok m\u0171v\u00e9sz", "artwork_subject": "L\u00f6szfalba faragott szobrok, domborm\u0171vek \u00e9s rejt\u00e9lyes dolgok.", "artwork_type": "sculpture", "is_in": "O.Z.O.R.A. Szurdok", "material": "wood", "name": "L\u00f6sz-szobrok", "start_date": "2012", "tourism": "artwork"}}, {"type": "node", "id": 8996224777, "lat": 46.7690159, "lon": 18.4292324, "tags": {"addr:city": "Igar", "addr:postcode": "7015", "addr:suburb": "D\u00e1dpuszta", "artist_name": "sok m\u0171v\u00e9sz", "artwork_subject": "L\u00f6szfalba faragott szobrok, domborm\u0171vek \u00e9s rejt\u00e9lyes dolgok.", "artwork_type": "sculpture", "is_in": "O.Z.O.R.A. Szurdok", "material": "wood", "name": "L\u00f6sz-szobrok", "operator": "O.Z.O.R.A.", "start_date": "2012", "tourism": "artwork", "url": "https://kulturkor.wordpress.com/2020/07/03/ozora-3-ozora-epuletei/", "website": "https://kulturkor.wordpress.com/category/ozora/"}}, {"type": "node", "id": 8996224778, "lat": 46.7692588, "lon": 18.4296617, "tags": {"artist_name": "sok m\u0171v\u00e9sz", "artwork_subject": "L\u00f6szfalba faragott szobrok, domborm\u0171vek \u00e9s rejt\u00e9lyes dolgok.", "artwork_type": "sculpture", "is_in": "O.Z.O.R.A. Szurdok", "material": "wood", "start_date": "2012", "tourism": "artwork"}}, {"type": "node", "id": 8996224779, "lat": 46.7693977, "lon": 18.4298784, "tags": {"artist_name": "sok m\u0171v\u00e9sz", "artwork_subject": "L\u00f6szfalba faragott szobrok, domborm\u0171vek \u00e9s rejt\u00e9lyes dolgok.", "artwork_type": "sculpture", "is_in": "O.Z.O.R.A. Szurdok", "material": "wood", "start_date": "2012", "tourism": "artwork"}}, {"type": "node", "id": 8996224780, "lat": 46.7696438, "lon": 18.4301496, "tags": {"artist_name": "sok m\u0171v\u00e9sz", "artwork_subject": "L\u00f6szfalba faragott szobrok, domborm\u0171vek \u00e9s rejt\u00e9lyes dolgok.", "artwork_type": "sculpture", "is_in": "O.Z.O.R.A. Szurdok", "material": "wood", "name": "L\u00f6sz-szobrok", "start_date": "2012", "tourism": "artwork"}}, {"type": "node", "id": 8996224781, "lat": 46.7698088, "lon": 18.4303745, "tags": {"artist_name": "sok m\u0171v\u00e9sz", "artwork_subject": "L\u00f6szfalba faragott szobrok, domborm\u0171vek \u00e9s rejt\u00e9lyes dolgok.", "artwork_type": "sculpture", "is_in": "O.Z.O.R.A. Szurdok", "material": "wood", "start_date": "2012", "tourism": "artwork"}}, {"type": "node", "id": 8996224782, "lat": 46.7694214, "lon": 18.4302297, "tags": {"artist_name": "sok m\u0171v\u00e9sz", "artwork_subject": "L\u00f6szfalba faragott szobrok, domborm\u0171vek \u00e9s rejt\u00e9lyes dolgok.", "artwork_type": "sculpture", "is_in": "O.Z.O.R.A. Szurdok", "material": "wood", "start_date": "2012", "tourism": "artwork"}}, {"type": "node", "id": 8996224801, "lat": 46.7714979, "lon": 18.4335628, "tags": {"artwork_type": "sculpture", "material": "wood", "tourism": "artwork"}}, {"type": "node", "id": 8996561490, "lat": 46.7704853, "lon": 18.4323428, "tags": {"addr:city": "Igar", "addr:postcode": "7015", "addr:suburb": "D\u00e1dpuszta", "artwork_subject": "\u00d3ri\u00e1s-szobor: A K\u00edgy\u00f3 alm\u00e1j\u00e1t \u00c9va \u00e1tny\u00fajtja \u00c1d\u00e1mnak", "artwork_type": "statue", "description": "m\u0171alkot\u00e1s: \u00f3ri\u00e1s fa-szobrok", "ele": "120", "is_in": "Ozora Fesztiv\u00e1l", "material": "wood", "name": "K\u00edgy\u00f3", "name:en": "Snake", "operator": "O.Z.O.R.A.", "source": "survey 2015-06-30", "start_date": "2015", "tourism": "artwork", "url": "https://kulturkor.wordpress.com/2020/07/03/ozora-3-ozora-epuletei/", "website": "https://kulturkor.wordpress.com/category/ozora/"}}, {"type": "node", "id": 9000970928, "lat": 46.7690648, "lon": 18.4295744, "tags": {"artist_name": "sok m\u0171v\u00e9sz", "artwork_subject": "L\u00f6szfalba faragott szobrok, domborm\u0171vek \u00e9s rejt\u00e9lyes dolgok.", "artwork_type": "sculpture", "is_in": "O.Z.O.R.A. Szurdok", "material": "wood", "start_date": "2012", "tourism": "artwork"}}, {"type": "node", "id": 9755500157, "lat": 46.7308017, "lon": 18.0329564, "tags": {"artist_name": "Leyer Korn\u00e9l", "artwork_type": "statue", "material": "bronze", "name": "Tak\u00e1ts Gyula K\u00f6lt\u0151", "start_date": "2017", "tourism": "artwork"}}, {"type": "node", "id": 9755512565, "lat": 46.7352746, "lon": 18.0378325, "tags": {"artwork_type": "statue", "tourism": "artwork"}}]}