{"version": 0.6, "generator": "Overpass API 0.7.59 e21c39fe", "osm3s": {"timestamp_osm_base": "2023-02-28T18:02:21Z", "copyright": "The data included in this document is from www.openstreetmap.org. The data is made available under ODbL."}, "elements": [{"type": "node", "id": 297356680, "lat": 39.7607804, "lon": 2.706282, "tags": {"name": "Mirador des Pujol d'en Banya", "tourism": "viewpoint"}}, {"type": "node", "id": 319106447, "lat": 39.8039463, "lon": 2.8967546, "tags": {"name": "Mirador de sa Llangonissa", "tourism": "viewpoint"}}, {"type": "node", "id": 322042092, "lat": 39.7981114, "lon": 2.6931027, "tags": {"tourism": "viewpoint"}}, {"type": "node", "id": 352805371, "lat": 39.8214758, "lon": 2.9012479, "tags": {"name": "Mirador del Centenari del Foment", "tourism": "viewpoint"}}, {"type": "node", "id": 366051791, "lat": 39.7597845, "lon": 2.7472322, "tags": {"name": "es Cornador gran", "tourism": "viewpoint"}}, {"type": "node", "id": 366054175, "lat": 39.7592485, "lon": 2.7047303, "tags": {"name": "Es Pujol d'en Banya", "tourism": "viewpoint"}}, {"type": "node", "id": 366997154, "lat": 39.7979749, "lon": 2.6916513, "tags": {"source": "PNOA Spain", "tourism": "viewpoint"}}, {"type": "node", "id": 434573118, "lat": 39.7339376, "lon": 2.792108, "tags": {"note": "you see Tramuntana mountains", "tourism": "viewpoint", "wheelchair": "no"}}, {"type": "node", "id": 463538725, "lat": 39.8063853, "lon": 2.6974385, "tags": {"height": "11", "heritage": "3", "heritage:operator": "Consell de Mallorca", "man_made": "tower", "name": "Torre Picada", "name:ca": "Torre Picada", "tourism": "viewpoint", "tower:type": "defensive", "wheelchair": "no", "wikidata": "Q2444541", "wikipedia": "ca:Torre Picada"}}, {"type": "node", "id": 501883695, "lat": 39.7302514, "lon": 2.6863773, "tags": {"tourism": "viewpoint"}}, {"type": "node", "id": 614104982, "lat": 39.6805038, "lon": 2.5407956, "tags": {"tourism": "viewpoint"}}, {"type": "node", "id": 614223317, "lat": 39.7208304, "lon": 2.6243666, "tags": {"name": "mirador de sa Regata de les Onze", "tourism": "viewpoint"}}, {"type": "node", "id": 614223351, "lat": 39.7213746, "lon": 2.6253666, "tags": {"name": "Mirador de ses Basses", "tourism": "viewpoint"}}, {"type": "node", "id": 655364649, "lat": 39.7254484, "lon": 2.6120304, "tags": {"alt_name": "Mirador de Can Costa", "name": "Mirador de ses Puntes", "tourism": "viewpoint"}}, {"type": "node", "id": 668011501, "lat": 39.6897412, "lon": 2.5214323, "tags": {"name": "Volta des General", "tourism": "viewpoint"}}, {"type": "node", "id": 668501233, "lat": 39.7968284, "lon": 2.6820485, "tags": {"tourism": "viewpoint"}}, {"type": "node", "id": 668979416, "lat": 39.7908695, "lon": 2.7244194, "tags": {"tourism": "viewpoint"}}, {"type": "node", "id": 685475995, "lat": 39.6457554, "lon": 2.4692134, "tags": {"name": "Mirador de ses Serveres", "tourism": "viewpoint"}}, {"type": "node", "id": 687002515, "lat": 39.7517345, "lon": 2.6241202, "tags": {"tourism": "viewpoint"}}, {"type": "node", "id": 687002706, "lat": 39.7503067, "lon": 2.6278472, "tags": {"name": "Mirador de sa Foradada", "tourism": "viewpoint"}}, {"type": "node", "id": 687002750, "lat": 39.7513139, "lon": 2.6269644, "tags": {"name": "Mirador des Rotlo Gros", "tourism": "viewpoint"}}, {"type": "node", "id": 687002781, "lat": 39.7519821, "lon": 2.6290926, "tags": {"name": "Mirador des Galliner", "tourism": "viewpoint"}}, {"type": "node", "id": 687002802, "lat": 39.7522672, "lon": 2.6292219, "tags": {"tourism": "viewpoint"}}, {"type": "node", "id": 687043991, "lat": 39.6456815, "lon": 2.4516713, "tags": {"name": "Mirador Ricardo Roca", "tourism": "viewpoint"}}, {"type": "node", "id": 687043999, "lat": 39.6837233, "lon": 2.500036}, {"type": "node", "id": 687044011, "lat": 39.7909672, "lon": 2.724705, "tags": {"date": "1961", "name": "Mirador de ses Barques", "operator": "Obras P\u00fablicas", "tourism": "viewpoint", "wheelchair": "no"}}, {"type": "node", "id": 687044020, "lat": 39.7916369, "lon": 2.7915263, "tags": {"name": "coll des Xoriguer", "tourism": "viewpoint", "wheelchair": "yes"}}, {"type": "node", "id": 699734514, "lat": 39.8321307, "lon": 2.8163032, "tags": {"tourism": "viewpoint"}}, {"type": "node", "id": 700157164, "lat": 39.6540904, "lon": 2.4815333, "tags": {"tourism": "viewpoint"}}, {"type": "node", "id": 702784654, "lat": 39.7904803, "lon": 2.7743119, "tags": {"tourism": "viewpoint"}}, {"type": "node", "id": 702795679, "lat": 39.8482048, "lon": 2.783633, "tags": {"disused": "yes", "man_made": "tower", "name": "Torre de sa Mola de Can Palou", "note": "Defense tower", "tourism": "viewpoint", "tower:type": "observation"}}, {"type": "node", "id": 703731317, "lat": 39.7981754, "lon": 2.7728033, "tags": {"tourism": "viewpoint"}}, {"type": "node", "id": 708689997, "lat": 39.6803664, "lon": 2.5452745, "tags": {"name": "Era del Moro", "tourism": "viewpoint"}}, {"type": "node", "id": 933470148, "lat": 39.7064999, "lon": 2.5816563, "tags": {"ele": "446", "name": "Puig de sa Moneda", "name:ca": "Puig de sa Moneda", "natural": "peak", "tourism": "viewpoint"}}, {"type": "node", "id": 933470184, "lat": 39.7064192, "lon": 2.5816441, "tags": {"height": "4", "historic": "yes", "man_made": "tower", "name": "Torre del puig de sa Moneda", "tourism": "viewpoint", "tower:construction": "stone", "type": "observation"}}, {"type": "node", "id": 960710690, "lat": 39.6858342, "lon": 2.5593699, "tags": {"name": "Mirant de Mar", "tourism": "viewpoint"}}, {"type": "node", "id": 974123385, "lat": 39.7654192, "lon": 2.7613773, "tags": {"tourism": "viewpoint"}}, {"type": "node", "id": 1089040705, "lat": 39.7283237, "lon": 2.6861174, "tags": {"note": "This is also a zone for give way", "tourism": "viewpoint", "type": "informal"}}, {"type": "node", "id": 1127572425, "lat": 39.6234858, "lon": 2.4238996, "tags": {"tourism": "viewpoint"}}, {"type": "node", "id": 1135394151, "lat": 39.735991, "lon": 2.6163062, "tags": {"name": "Mirador dels Tudons", "tourism": "viewpoint"}}, {"type": "node", "id": 1135394159, "lat": 39.7341717, "lon": 2.6241417, "tags": {"name": "mirador de Son Gallard", "tourism": "viewpoint"}}, {"type": "node", "id": 1146984971, "lat": 39.7916374, "lon": 2.6867487, "tags": {"tourism": "viewpoint"}}, {"type": "node", "id": 1152038310, "lat": 39.7344567, "lon": 2.7901133, "tags": {"tourism": "viewpoint"}}, {"type": "node", "id": 1200595991, "lat": 39.7379719, "lon": 2.6133563, "tags": {"historic": "yes", "man_made": "tower", "name": "Capella d'en Ramon LLull", "tourism": "viewpoint", "tower:type": "defensive"}}, {"type": "node", "id": 1200595994, "lat": 39.7389184, "lon": 2.6143966, "tags": {"historic": "ruins", "name": "mirador des Creuer", "tourism": "viewpoint"}}, {"type": "node", "id": 1200596000, "lat": 39.7288819, "lon": 2.6033528, "tags": {"name": "mirador de sa Rassa", "tourism": "viewpoint"}}, {"type": "node", "id": 1242625392, "lat": 39.7165176, "lon": 2.6157449, "tags": {"name": "Mirador de na Torta", "tourism": "viewpoint"}}, {"type": "node", "id": 1268567292, "lat": 39.732026, "lon": 2.6514789, "tags": {"tourism": "viewpoint"}}, {"type": "node", "id": 1336502951, "lat": 39.7646079, "lon": 2.6355128, "tags": {"name": "Torre de sa Pedrissa", "tourism": "viewpoint"}}, {"type": "node", "id": 1359283238, "lat": 39.7394189, "lon": 2.6167052, "tags": {"name": "mirador de Miramar", "tourism": "viewpoint"}}, {"type": "node", "id": 1359283270, "lat": 39.7404871, "lon": 2.6177475, "tags": {"name": "mirador de sa Ferradura", "tourism": "viewpoint"}}, {"type": "node", "id": 1367044847, "lat": 39.7616485, "lon": 2.6451835, "tags": {"tourism": "viewpoint"}}, {"type": "node", "id": 1614274299, "lat": 39.727265, "lon": 2.756706, "tags": {"barrier": "stile", "ele": "570", "mountain_pass": "yes", "name": "pas de s'Estal\u00f3", "natural": "saddle", "source": "Joan Riera", "tourism": "viewpoint"}}, {"type": "node", "id": 1615413382, "lat": 39.8287195, "lon": 2.8371546, "tags": {"name": "Mirador de sa Casa Nova", "toilets:wheelchair": "no", "tourism": "viewpoint", "wheelchair": "limited", "wheelchair:description": "kein Randstreifen in Rollstuhlbreite, in Kurve gelegen."}}, {"type": "node", "id": 1650538569, "lat": 39.7018588, "lon": 2.6392049, "tags": {"tourism": "viewpoint"}}, {"type": "node", "id": 1650545891, "lat": 39.7104348, "lon": 2.6422005, "tags": {"tourism": "viewpoint"}}, {"type": "node", "id": 1650546136, "lat": 39.71479, "lon": 2.645736, "tags": {"tourism": "viewpoint"}}, {"type": "node", "id": 1721122298, "lat": 39.6224992, "lon": 2.8296714, "tags": {"man_made": "cross", "name": "monument del Sagrat Cor", "tourism": "viewpoint"}}, {"type": "node", "id": 1721122334, "lat": 39.6205751, "lon": 2.8320919, "tags": {"tourism": "viewpoint"}}, {"type": "node", "id": 1721122461, "lat": 39.6214685, "lon": 2.8313241, "tags": {"name": "Es Submar\u00ed", "tourism": "viewpoint"}}, {"type": "node", "id": 1726936351, "lat": 39.7081298, "lon": 2.6187513, "tags": {"tourism": "viewpoint"}}, {"type": "node", "id": 1741672081, "lat": 39.6865106, "lon": 2.5564567, "tags": {"tourism": "viewpoint"}}, {"type": "node", "id": 1742190775, "lat": 39.7601242, "lon": 2.7469844, "tags": {"name": "mirador d'en Xim Quesada", "tourism": "viewpoint"}}, {"type": "node", "id": 1744217458, "lat": 39.7145973, "lon": 2.7501072, "tags": {"tourism": "viewpoint"}}, {"type": "node", "id": 1749960639, "lat": 39.7296977, "lon": 2.6091674, "tags": {"tourism": "viewpoint"}}, {"type": "node", "id": 1798550320, "lat": 39.6881198, "lon": 2.5223232, "tags": {"tourism": "viewpoint"}}, {"type": "node", "id": 1798550323, "lat": 39.6878426, "lon": 2.5194466, "tags": {"tourism": "viewpoint"}}, {"type": "node", "id": 1798550325, "lat": 39.6848508, "lon": 2.5041951, "tags": {"tourism": "viewpoint"}}, {"type": "node", "id": 1885218777, "lat": 39.7090616, "lon": 2.6233418, "tags": {"name": "Miranda des Lledoners", "tourism": "viewpoint"}}, {"type": "node", "id": 1993710562, "lat": 39.830441, "lon": 2.8428767, "tags": {"name": "sa Penya foradada", "tourism": "viewpoint"}}, {"type": "node", "id": 2185155984, "lat": 39.7324625, "lon": 2.79311, "tags": {"note": "you see the way to Castell d'Alar\u00f3", "tourism": "viewpoint", "wheelchair": "no"}}, {"type": "node", "id": 2189863130, "lat": 39.6629539, "lon": 2.5673139, "tags": {"addr:country": "ES", "description": "Sagrado Coraz\u00f3n de Jes\u00fas El pueblo de Esporlas est\u00e1 con vos", "historic": "monument", "name": "es Cor de Jes\u00fas", "tourism": "viewpoint", "wheelchair": "no"}}, {"type": "node", "id": 2261694757, "lat": 39.7351551, "lon": 2.6108722, "tags": {"name": "mirador des Niu des Corbs", "tourism": "viewpoint"}}, {"type": "node", "id": 2270566642, "lat": 39.6657591, "lon": 2.4886044, "tags": {"tourism": "viewpoint"}}, {"type": "node", "id": 2282443256, "lat": 39.702876, "lon": 2.7125965, "tags": {"name": "sa M\u00e0quina vella", "tourism": "viewpoint"}}, {"type": "node", "id": 2429278630, "lat": 39.7720884, "lon": 2.668588, "tags": {"tourism": "viewpoint"}}, {"type": "node", "id": 2429278631, "lat": 39.7732049, "lon": 2.6696975, "tags": {"tourism": "viewpoint"}}, {"type": "node", "id": 2588488000, "lat": 39.7440134, "lon": 2.7674704, "tags": {"tourism": "viewpoint"}}, {"type": "node", "id": 2688887034, "lat": 39.7745165, "lon": 2.9001411, "tags": {"name": "Mirador de la quarta volta", "note": "Mirador de acceso peatonal, con unas vistas espectaculares.", "tourism": "viewpoint"}}, {"type": "node", "id": 2751511188, "lat": 39.7970499, "lon": 2.680944, "tags": {"tourism": "viewpoint"}}, {"type": "node", "id": 2891294526, "lat": 39.7324522, "lon": 2.6482, "tags": {"tourism": "viewpoint"}}, {"type": "node", "id": 2917234501, "lat": 39.737896, "lon": 2.6119416, "tags": {"name": "mirador des Figueral", "tourism": "viewpoint"}}, {"type": "node", "id": 2917258476, "lat": 39.7387246, "lon": 2.616701, "tags": {"name": "jard\u00ed de sa torre des Moro", "name:ca": "jard\u00ed de sa torre des Moro", "tourism": "viewpoint"}}, {"type": "node", "id": 3088984705, "lat": 39.7342698, "lon": 2.6332706, "tags": {"tourism": "viewpoint"}}, {"type": "node", "id": 3129897664, "lat": 39.6836787, "lon": 2.5000311}, {"type": "node", "id": 3129897665, "lat": 39.6836797, "lon": 2.5000402}, {"type": "node", "id": 3129897666, "lat": 39.6836799, "lon": 2.5000222}, {"type": "node", "id": 3129897667, "lat": 39.6836828, "lon": 2.5000484}, {"type": "node", "id": 3129897668, "lat": 39.6836832, "lon": 2.5000141}, {"type": "node", "id": 3129897669, "lat": 39.6836877, "lon": 2.5000549}, {"type": "node", "id": 3129897670, "lat": 39.6836882, "lon": 2.5000077}, {"type": "node", "id": 3129897671, "lat": 39.6836939, "lon": 2.5000592}, {"type": "node", "id": 3129897672, "lat": 39.6836945, "lon": 2.5000037}, {"type": "node", "id": 3129897673, "lat": 39.6837015, "lon": 2.5000024}, {"type": "node", "id": 3129897674, "lat": 39.6837016, "lon": 2.5000607}, {"type": "node", "id": 3129897676, "lat": 39.6837084, "lon": 2.500004}, {"type": "node", "id": 3129897677, "lat": 39.6837093, "lon": 2.5000588}, {"type": "node", "id": 3129897679, "lat": 39.6837152, "lon": 2.5000089}, {"type": "node", "id": 3129897680, "lat": 39.6837159, "lon": 2.5000535}, {"type": "node", "id": 3129897681, "lat": 39.6837204, "lon": 2.5000165}, {"type": "node", "id": 3129897682, "lat": 39.6837208, "lon": 2.5000456}, {"type": "node", "id": 3129897683, "lat": 39.6837232, "lon": 2.5000259}, {"type": "node", "id": 3284002578, "lat": 39.6972882, "lon": 2.6738915, "tags": {"tourism": "viewpoint"}}, {"type": "node", "id": 3306422621, "lat": 39.665621, "lon": 2.5656137, "tags": {"name": "es Castellet", "name:ca": "es Castellet", "tourism": "viewpoint"}}, {"type": "node", "id": 3424015563, "lat": 39.6376631, "lon": 2.5579537, "tags": {"name": "mola de Sobremunt", "tourism": "viewpoint"}}, {"type": "node", "id": 3426553711, "lat": 39.7578212, "lon": 2.6321802, "tags": {"name": "Cingle d'en Visc", "tourism": "viewpoint"}}, {"type": "node", "id": 3486629588, "lat": 39.6999742, "lon": 2.5763342, "tags": {"alt_name": "Mirador dels Coloms;Mirador del Cable", "name": "Mirador de Son Ferrandell", "tourism": "viewpoint"}}, {"type": "node", "id": 3623084190, "lat": 39.7185397, "lon": 2.5992884, "tags": {"name": "mirador des Barranc", "tourism": "viewpoint"}}, {"type": "node", "id": 3623085493, "lat": 39.7207078, "lon": 2.5990729, "tags": {"name": "mirador del Port", "name:ca": "mirador del Port", "tourism": "viewpoint"}}, {"type": "node", "id": 3623085500, "lat": 39.723396, "lon": 2.602182, "tags": {"name": "mirador de sa Font Figuera", "tourism": "viewpoint"}}, {"type": "node", "id": 3623085507, "lat": 39.7218691, "lon": 2.6002901, "tags": {"name": "mirador de sa Volta de s\u2019Escolta", "tourism": "viewpoint"}}, {"type": "node", "id": 3623679814, "lat": 39.6866073, "lon": 2.597536, "tags": {"description:de": "Blick auf Palma de Mallorca", "tourism": "viewpoint"}}, {"type": "node", "id": 3623679815, "lat": 39.6866687, "lon": 2.5974386, "tags": {"tourism": "viewpoint"}}, {"type": "node", "id": 3623679830, "lat": 39.687613, "lon": 2.5996378, "tags": {"tourism": "viewpoint"}}, {"type": "node", "id": 3623679852, "lat": 39.6938977, "lon": 2.5999428, "tags": {"tourism": "viewpoint"}}, {"type": "node", "id": 3623679854, "lat": 39.6996267, "lon": 2.6040351, "tags": {"tourism": "viewpoint"}}, {"type": "node", "id": 3623679856, "lat": 39.7010123, "lon": 2.6026594, "tags": {"tourism": "viewpoint"}}, {"type": "node", "id": 3623679857, "lat": 39.7010434, "lon": 2.603574, "tags": {"tourism": "viewpoint"}}, {"type": "node", "id": 3623679858, "lat": 39.7012211, "lon": 2.6047318, "tags": {"tourism": "viewpoint"}}, {"type": "node", "id": 3623679859, "lat": 39.7013071, "lon": 2.6071207, "tags": {"description:de": "Blick auf Palma", "description:en": "View of Palma", "tourism": "viewpoint"}}, {"type": "node", "id": 3623679866, "lat": 39.7056735, "lon": 2.6153184, "tags": {"description:de": "Blick auf Valdemossa", "description:en": "View of Valdemossa", "tourism": "viewpoint"}}, {"type": "node", "id": 3733690330, "lat": 39.7295535, "lon": 2.6060232, "tags": {"name": "mirador Nou", "tourism": "viewpoint"}}, {"type": "node", "id": 3789033401, "lat": 39.747389, "lon": 2.8972512, "tags": {"tourism": "viewpoint"}}, {"type": "node", "id": 3923199084, "lat": 39.7352463, "lon": 2.6180788, "tags": {"name": "mirador del Pla de l\u2019Ullastre", "tourism": "viewpoint"}}, {"type": "node", "id": 3977036757, "lat": 39.733043, "lon": 2.6082167, "tags": {"name": "mirador de ses Pites", "tourism": "viewpoint"}}, {"type": "node", "id": 4016863771, "lat": 39.7388523, "lon": 2.6350875, "tags": {"tourism": "viewpoint"}}, {"type": "node", "id": 4049125168, "lat": 39.8187153, "lon": 2.8918192, "tags": {"tourism": "viewpoint"}}, {"type": "node", "id": 4049182928, "lat": 39.8186591, "lon": 2.8920861, "tags": {"name": "mirador des mol\u00ed", "tourism": "viewpoint"}}, {"type": "node", "id": 4077192477, "lat": 39.7112982, "lon": 2.5826418, "tags": {"name": "mirador de s'Escaleta", "tourism": "viewpoint"}}, {"type": "node", "id": 4083503236, "lat": 39.7028583, "lon": 2.5763511, "tags": {"name": "mirador de Sa Cova", "tourism": "viewpoint"}}, {"type": "node", "id": 4112767547, "lat": 39.8562507, "lon": 2.8175253, "tags": {"name": "Mirador des Pare Rafel", "tourism": "viewpoint"}}, {"type": "node", "id": 4165912387, "lat": 39.7747196, "lon": 2.8899358, "tags": {"name": "l'Esquena de l'Ermita", "tourism": "viewpoint"}}, {"type": "node", "id": 4184363370, "lat": 39.7134278, "lon": 2.6463248, "tags": {"tourism": "viewpoint"}}, {"type": "node", "id": 4197873282, "lat": 39.8452933, "lon": 2.7995899, "tags": {"tourism": "viewpoint"}}, {"type": "node", "id": 4225207293, "lat": 39.7587857, "lon": 2.6425097, "tags": {"name": "mirador de Son Bujosa", "tourism": "viewpoint"}}, {"type": "node", "id": 4226527364, "lat": 39.6946209, "lon": 2.5277361, "tags": {"name": "observatori de ses Planes", "name:ca": "observatori de ses Planes", "tourism": "viewpoint"}}, {"type": "node", "id": 4271561497, "lat": 39.7486644, "lon": 2.6463908, "tags": {"tourism": "viewpoint"}}, {"type": "node", "id": 4395051071, "lat": 39.7030221, "lon": 2.6100007, "tags": {"tourism": "viewpoint"}}, {"type": "node", "id": 4403051257, "lat": 39.6978817, "lon": 2.540579, "tags": {"tourism": "viewpoint"}}, {"type": "node", "id": 4425381839, "lat": 39.8134147, "lon": 2.7128396, "tags": {"tourism": "viewpoint"}}, {"type": "node", "id": 4501811788, "lat": 39.7762434, "lon": 2.8975957, "tags": {"name": "mirador de ses Rotes", "tourism": "viewpoint"}}, {"type": "node", "id": 4518190547, "lat": 39.7084129, "lon": 2.8307234, "tags": {"name": "sa Panada", "tourism": "viewpoint"}}, {"type": "node", "id": 4541973129, "lat": 39.6815259, "lon": 2.5072266, "tags": {"addr:city": "Banyalbufar", "addr:place": "Els Bandejats", "direction": "W", "name": "mirador des Rafal", "tourism": "viewpoint"}}, {"type": "node", "id": 4722914793, "lat": 39.8286928, "lon": 2.8886887, "tags": {"tourism": "viewpoint"}}, {"type": "node", "id": 4934476024, "lat": 39.6930501, "lon": 2.5185159, "tags": {"name:en": "Secluded spot", "tourism": "viewpoint"}}, {"type": "node", "id": 5155722621, "lat": 39.7899261, "lon": 2.6685701, "tags": {"name": "punta de S\u00f3ller", "tourism": "viewpoint"}}, {"type": "node", "id": 5155722622, "lat": 39.7843854, "lon": 2.6683675, "tags": {"name": "sa Falconera", "tourism": "viewpoint"}}, {"type": "node", "id": 5318891246, "lat": 39.7154566, "lon": 2.6265267, "tags": {"tourism": "viewpoint"}}, {"type": "node", "id": 5318891549, "lat": 39.7161353, "lon": 2.6284132, "tags": {"tourism": "viewpoint"}}, {"type": "node", "id": 5332680721, "lat": 39.7123446, "lon": 2.6286309, "tags": {"description:de": "Aussicht auf Valldemossa", "description:es": "Vista a la ciudad de Valldemossa", "description:ru": "\u0412\u0438\u0434 \u043d\u0430 \u0433\u043e\u0440\u043e\u0434 \u0412\u0430\u043b\u044c\u0434\u0435\u043c\u043e\u0441", "tourism": "viewpoint"}}, {"type": "node", "id": 5645790036, "lat": 39.7246409, "lon": 2.6044739, "tags": {"name": "Mirador de sa Vorera", "tourism": "viewpoint"}}, {"type": "node", "id": 5747111660, "lat": 39.7841144, "lon": 2.6868774, "tags": {"tourism": "viewpoint"}}, {"type": "node", "id": 6056623793, "lat": 39.7214892, "lon": 2.5994591, "tags": {"tourism": "viewpoint"}}, {"type": "node", "id": 6112684537, "lat": 39.7302794, "lon": 2.6189547, "tags": {"name": "mirador des Garriguer", "tourism": "viewpoint"}}, {"type": "node", "id": 6152270485, "lat": 39.85226, "lon": 2.8057232, "tags": {"name": "Torrent de Pareis", "tourism": "viewpoint"}}, {"type": "node", "id": 6359214788, "lat": 39.7400813, "lon": 2.6168506, "tags": {"name": "Mirador des Guix", "tourism": "viewpoint"}}, {"type": "node", "id": 6408507555, "lat": 39.6378941, "lon": 2.5462237, "tags": {"tourism": "viewpoint"}}, {"type": "node", "id": 6478116487, "lat": 39.8014867, "lon": 2.6939269, "tags": {"tourism": "viewpoint"}}, {"type": "node", "id": 6539444078, "lat": 39.6836047, "lon": 2.5003187, "tags": {"tourism": "viewpoint"}}, {"type": "node", "id": 6583272089, "lat": 39.6617636, "lon": 2.4769547, "tags": {"tourism": "viewpoint"}}, {"type": "node", "id": 6694661518, "lat": 39.7507607, "lon": 2.6286949, "tags": {"tourism": "viewpoint"}}, {"type": "node", "id": 6715772987, "lat": 39.6446423, "lon": 2.4869419, "tags": {"name:de": "Aussichtspunkt", "name:en": "Panoramic view", "tourism": "viewpoint"}}, {"type": "node", "id": 6804092305, "lat": 39.6937655, "lon": 2.5264124, "tags": {"name": "Penyal de s'Heura", "name:ca": "Penyal de s'Heura", "tourism": "viewpoint"}}, {"type": "node", "id": 6873208693, "lat": 39.7337041, "lon": 2.6161983, "tags": {"name": "mirador dels Ermitans", "tourism": "viewpoint"}}, {"type": "node", "id": 6874332874, "lat": 39.6933971, "lon": 2.6357834, "tags": {"tourism": "viewpoint"}}, {"type": "node", "id": 7053919276, "lat": 39.7328257, "lon": 2.7935569, "tags": {"name": "Mirador de l'Orengar", "tourism": "viewpoint"}}, {"type": "node", "id": 7116491168, "lat": 39.6732936, "lon": 2.5088508, "tags": {"name": "penyals des Boixar", "tourism": "viewpoint"}}, {"type": "node", "id": 7198235313, "lat": 39.6569179, "lon": 2.5642878, "tags": {"tourism": "viewpoint"}}, {"type": "node", "id": 7249596697, "lat": 39.7044724, "lon": 2.6340168, "tags": {"name": "mirador d'Es Mirab\u00f2", "tourism": "viewpoint"}}, {"type": "node", "id": 7460547917, "lat": 39.6575164, "lon": 2.5642785, "tags": {"tourism": "viewpoint"}}, {"type": "node", "id": 7566089269, "lat": 39.6212567, "lon": 2.464736, "tags": {"tourism": "viewpoint"}}, {"type": "node", "id": 7752001185, "lat": 39.7612374, "lon": 2.6421741, "tags": {"name:en": "Nice view", "tourism": "viewpoint"}}, {"type": "node", "id": 8050400296, "lat": 39.7840942, "lon": 2.7156274, "tags": {"tourism": "viewpoint"}}, {"type": "node", "id": 8182638148, "lat": 39.6468712, "lon": 2.4698869, "tags": {"tourism": "viewpoint"}}, {"type": "node", "id": 8223959417, "lat": 39.7592383, "lon": 2.7676998, "tags": {"description": "telescope w/o optics", "tourism": "viewpoint"}}, {"type": "node", "id": 8242645717, "lat": 39.8080183, "lon": 2.7231954, "tags": {"tourism": "viewpoint"}}, {"type": "node", "id": 8302513496, "lat": 39.8053897, "lon": 2.8965914, "tags": {"tourism": "viewpoint"}}, {"type": "node", "id": 8302644588, "lat": 39.6997339, "lon": 2.575824, "tags": {"tourism": "viewpoint"}}, {"type": "node", "id": 8302644597, "lat": 39.692651, "lon": 2.5664786, "tags": {"tourism": "viewpoint"}}, {"type": "node", "id": 8434099381, "lat": 39.7719713, "lon": 2.6706417, "tags": {"name": "mirador de Son Mico", "tourism": "viewpoint"}}, {"type": "node", "id": 8635310208, "lat": 39.6560979, "lon": 2.5639941, "tags": {"tourism": "viewpoint"}}, {"type": "node", "id": 8769447181, "lat": 39.6484541, "lon": 2.4760915, "tags": {"tourism": "viewpoint"}}, {"type": "node", "id": 8775729164, "lat": 39.7112504, "lon": 2.5914017, "tags": {"name": "mirador des Pi", "tourism": "viewpoint"}}, {"type": "node", "id": 8808675244, "lat": 39.805759, "lon": 2.6965159, "tags": {"direction": "180-45", "tourism": "viewpoint"}}, {"type": "node", "id": 8841497018, "lat": 39.733371, "lon": 2.7785821, "tags": {"tourism": "viewpoint"}}, {"type": "node", "id": 8841544920, "lat": 39.7341787, "lon": 2.7827918, "tags": {"tourism": "viewpoint"}}, {"type": "node", "id": 9374485087, "lat": 39.8073414, "lon": 2.8984573, "tags": {"name": "mirador de la Pedra en sec", "tourism": "viewpoint"}}, {"type": "node", "id": 9545898277, "lat": 39.6932735, "lon": 2.7126432, "tags": {"tourism": "viewpoint"}}, {"type": "node", "id": 9623358001, "lat": 39.8056881, "lon": 2.6975831, "tags": {"tourism": "viewpoint"}}, {"type": "node", "id": 9651329220, "lat": 39.8099724, "lon": 2.7091515, "tags": {"direction": "W", "tourism": "viewpoint"}}, {"type": "node", "id": 9653646625, "lat": 39.7940197, "lon": 2.717993, "tags": {"direction": "S", "tourism": "viewpoint"}}, {"type": "node", "id": 9753718018, "lat": 39.7039001, "lon": 2.615721, "tags": {"tourism": "viewpoint"}}, {"type": "node", "id": 9865886399, "lat": 39.7586151, "lon": 2.6424217, "tags": {"tourism": "viewpoint"}}, {"type": "node", "id": 9919547119, "lat": 39.6174024, "lon": 2.4935696, "tags": {"name": "#11 S'entreforte", "tourism": "viewpoint"}}, {"type": "node", "id": 9919573348, "lat": 39.6188861, "lon": 2.4943886, "tags": {"name": "#9 Es Refugi", "tourism": "viewpoint"}}, {"type": "node", "id": 9919602918, "lat": 39.6193004, "lon": 2.4937768, "tags": {"name": "#10 Vall de les sis Fonts", "tourism": "viewpoint"}}, {"type": "node", "id": 9945933320, "lat": 39.6938064, "lon": 2.5670553, "tags": {"tourism": "viewpoint"}}, {"type": "node", "id": 9945933405, "lat": 39.707024, "lon": 2.5784657, "tags": {"addr:country": "ES", "tourism": "viewpoint"}}, {"type": "node", "id": 9945933406, "lat": 39.709566, "lon": 2.5801291, "tags": {"addr:country": "ES", "name": "mirador de Son Olesa", "tourism": "viewpoint"}}, {"type": "node", "id": 10181482332, "lat": 39.7336285, "lon": 2.6257573, "tags": {"tourism": "viewpoint"}}, {"type": "node", "id": 10255801693, "lat": 39.7326027, "lon": 2.6006534, "tags": {"name": "sa Punta Seca", "tourism": "viewpoint"}}, {"type": "node", "id": 10277991731, "lat": 39.8322651, "lon": 2.8155566, "tags": {"tourism": "viewpoint"}}, {"type": "way", "id": 307781617, "nodes": [3129897671, 3129897674, 3129897677, 3129897680, 3129897682, 687043999, 3129897683, 3129897681, 3129897679, 3129897676, 3129897673, 3129897672, 3129897670, 3129897668, 3129897666, 3129897664, 3129897665, 3129897667, 3129897669, 3129897671], "tags": {"alt_name": "Torre de Ses Animes", "building": "yes", "heritage": "3", "heritage:operator": "Consell de Mallorca", "historic": "castle", "man_made": "tower", "name": "Torre del Verger", "name:ca": "Torre del Verger", "seamark:landmark:category": "tower", "seamark:type": "landmark", "tourism": "viewpoint", "tower:type": "defensive", "wikidata": "Q18008271", "wikipedia": "ca:Talaia de ses \u00c0nimes"}}]}