{"version": 0.6, "generator": "Overpass API 0.7.59 e21c39fe", "osm3s": {"timestamp_osm_base": "2023-03-01T09:15:23Z", "copyright": "The data included in this document is from www.openstreetmap.org. The data is made available under ODbL."}, "elements": [{"type": "node", "id": 369866611, "lat": 47.7467757, "lon": 20.5175707, "tags": {"name": "Szikv\u00edz M\u00fazeum", "tourism": "museum"}}, {"type": "node", "id": 2327871056, "lat": 47.6223321, "lon": 20.7521939}, {"type": "node", "id": 2327871057, "lat": 47.6223458, "lon": 20.7521014}, {"type": "node", "id": 2327871058, "lat": 47.6223596, "lon": 20.7521838}, {"type": "node", "id": 2327871060, "lat": 47.6223907, "lon": 20.7525441}, {"type": "node", "id": 2327871061, "lat": 47.622431, "lon": 20.75207}, {"type": "node", "id": 2327871063, "lat": 47.6224631, "lon": 20.7522614}, {"type": "node", "id": 2327871065, "lat": 47.622503, "lon": 20.7523852}, {"type": "node", "id": 2327871066, "lat": 47.622509, "lon": 20.7522445}, {"type": "node", "id": 2327871068, "lat": 47.6225215, "lon": 20.7524959}, {"type": "node", "id": 2327871070, "lat": 47.6225308, "lon": 20.752375}, {"type": "node", "id": 2682146466, "lat": 47.645913, "lon": 20.6592048}, {"type": "node", "id": 2682146467, "lat": 47.6459426, "lon": 20.6592868}, {"type": "node", "id": 2682146470, "lat": 47.6460282, "lon": 20.6591133}, {"type": "node", "id": 2682146473, "lat": 47.6460578, "lon": 20.6591954}, {"type": "node", "id": 2927991064, "lat": 47.6458909, "lon": 20.6611338}, {"type": "node", "id": 2927991070, "lat": 47.6459058, "lon": 20.6609419}, {"type": "node", "id": 2927991073, "lat": 47.6458576, "lon": 20.6617795}, {"type": "node", "id": 2927991077, "lat": 47.6461042, "lon": 20.6613596}, {"type": "node", "id": 3485204409, "lat": 47.589306, "lon": 20.595256, "tags": {"fixme": "resurvey (source was old)", "name": "Cs\u00f3nakmotor M\u00fazeum", "source": "turistautak.hu", "source:date": "2009-04-28", "tourism": "museum", "url": "http://turistautak.hu/poi.php?id=70311"}}, {"type": "node", "id": 3487710208, "lat": 47.612033, "lon": 20.764067, "tags": {"addr:city": "Tiszaf\u00fcred", "addr:housenumber": "14", "addr:postcode": "5350", "addr:street": "Malom utca", "name": "Ny\u00faz\u00f3 G\u00e1sp\u00e1r Fazekas T\u00e1jh\u00e1z", "source": "turistautak.hu", "source:date": "2010-10-27", "tourism": "museum", "url": "http://turistautak.hu/poi.php?id=11859"}}, {"type": "node", "id": 3489588037, "lat": 47.653774, "lon": 20.991936, "tags": {"is_in": "Nagymajor; Hortob\u00e1gyi Nemzeti park", "name": "R\u00e1di\u00f3m\u00fazeum", "source": "turistautak.hu", "source:date": "2010-03-26", "tourism": "museum", "url": "http://www.radiomuseum.hu/", "url:tuhu": "http://turistautak.hu/poi.php?id=66797", "website": "https://manda.blog.hu/2016/10/21/a_nagymajori_pincefulkek_titka", "wikipedia": "hu:R\u00e1di\u00f3m\u00fazeum"}}, {"type": "node", "id": 4709783297, "lat": 47.3836969, "lon": 20.8414085}, {"type": "node", "id": 4709783298, "lat": 47.3837763, "lon": 20.841547}, {"type": "node", "id": 4709783299, "lat": 47.3838801, "lon": 20.8414173}, {"type": "node", "id": 4709783300, "lat": 47.3838006, "lon": 20.8412787}, {"type": "node", "id": 4818601725, "lat": 47.6454246, "lon": 20.6595061, "tags": {"name": "Hal\u00e1szskanzen", "tourism": "museum"}}, {"type": "node", "id": 4846994759, "lat": 47.6461276, "lon": 20.6614134, "tags": {"entrance": "yes"}}, {"type": "node", "id": 4846994760, "lat": 47.6460991, "lon": 20.661457}, {"type": "node", "id": 4846994761, "lat": 47.6461118, "lon": 20.6614839}, {"type": "node", "id": 4846994762, "lat": 47.6461181, "lon": 20.661343}, {"type": "node", "id": 4846994764, "lat": 47.6458307, "lon": 20.6613641}, {"type": "node", "id": 4846994765, "lat": 47.645913, "lon": 20.6615356}, {"type": "node", "id": 4846994766, "lat": 47.6459426, "lon": 20.6612351}, {"type": "node", "id": 4846994767, "lat": 47.6458615, "lon": 20.6616031}, {"type": "node", "id": 5607485958, "lat": 47.382209, "lon": 20.8475331}, {"type": "node", "id": 5607485959, "lat": 47.3822491, "lon": 20.8476018}, {"type": "node", "id": 5607485960, "lat": 47.3823034, "lon": 20.8475327}, {"type": "node", "id": 5607485961, "lat": 47.3822633, "lon": 20.847464}, {"type": "node", "id": 5721077491, "lat": 47.5875258, "lon": 20.5967974}, {"type": "node", "id": 5721077492, "lat": 47.5875909, "lon": 20.59702}, {"type": "node", "id": 5721077493, "lat": 47.5876562, "lon": 20.5969781}, {"type": "node", "id": 5721077494, "lat": 47.587591, "lon": 20.5967554}, {"type": "node", "id": 5924396956, "lat": 47.4534247, "lon": 20.7497151}, {"type": "node", "id": 5924396957, "lat": 47.4534127, "lon": 20.749723}, {"type": "node", "id": 5924396958, "lat": 47.4535142, "lon": 20.7496579}, {"type": "node", "id": 5924396959, "lat": 47.453448, "lon": 20.7497014}, {"type": "node", "id": 5924396960, "lat": 47.4534631, "lon": 20.7497944}, {"type": "node", "id": 5924396961, "lat": 47.4534513, "lon": 20.7497554}, {"type": "node", "id": 5924396962, "lat": 47.4534271, "lon": 20.7497712}, {"type": "node", "id": 5924396963, "lat": 47.45354, "lon": 20.7497438}, {"type": "node", "id": 5924396964, "lat": 47.4534276, "lon": 20.7496336}, {"type": "node", "id": 5924396965, "lat": 47.4534048, "lon": 20.7496486}, {"type": "node", "id": 5924396966, "lat": 47.4534455, "lon": 20.7496218}, {"type": "node", "id": 5924396967, "lat": 47.4533281, "lon": 20.7496989}, {"type": "node", "id": 5924396968, "lat": 47.4533053, "lon": 20.7496233}, {"type": "node", "id": 5924396969, "lat": 47.4534228, "lon": 20.7495461}, {"type": "node", "id": 5994656556, "lat": 47.5849932, "lon": 20.9740001, "tags": {"addr:city": "Tiszaf\u00fcred", "addr:country": "HU", "addr:postcode": "5359", "addr:province": "Hajd\u00fa-Bihar Megye", "addr:street": "Szeghalmi \u00fat", "addr:subdistrict": "Meggyes erd\u0151", "addr:suburb": "K\u00f3cs\u00fajfalu", "description": "A 33-as \u00fat ment\u00e9n az 54-es vagy a 60-as kilom\u00e9terk\u0151n\u00e9l lekanyarodva kiz\u00e1r\u00f3lag gyalogosan vagy ker\u00e9kp\u00e1rral, f\u00f6ld\u00faton. (A megk\u00f6zel\u00edthet\u0151s\u00e9g id\u0151j\u00e1r\u00e1sf\u00fcgg\u0151!) El\u0151zetes bejelentkez\u00e9s alapj\u00e1n", "email": "info@hnp.hu", "is_in": "Egyek-pusztak\u00f3csi mocsarak;Hortob\u00e1gyi Nemzeti Park", "name": "Cs\u00e1rda M\u00fazeum", "operator": "Hortob\u00e1gyi Nemzeti Park", "phone": "+36 52 589 000;+36 52 589 321", "start_date": "1975", "tourism": "museum", "url": "http://www.museum.hu/muzeum/462/Meggyes_Csardamuzeum", "website": "https://www.hnp.hu/hu/szervezeti-egyseg/turizmus/oldal/egyek-pusztakocsi-mocsarak-goresi-tanosveny"}}, {"type": "node", "id": 10257831346, "lat": 47.6460006, "lon": 20.6616126}, {"type": "node", "id": 10685372941, "lat": 47.4925587, "lon": 20.7228214, "tags": {"contact:email": "tegularium@gmail.com", "contact:facebook": "egyhazipecsetesteglakmuzeuma", "contact:phone": "+36 30 5400 390", "description": "Nyitva tart\u00e1s: el\u0151zetes egyeztet\u00e9s alapj\u00e1n", "description:en": "Open on request", "fee": "no", "name": "Egyh\u00e1zit\u00e9gla-m\u00fazeum", "tourism": "museum"}}, {"type": "way", "id": 223946602, "nodes": [2327871066, 2327871070, 2327871065, 2327871068, 2327871060, 2327871056, 2327871058, 2327871057, 2327871061, 2327871063, 2327871066], "tags": {"addr:city": "Tiszaf\u00fcred", "addr:housenumber": "8", "addr:postcode": "5350", "addr:street": "Tariczky s\u00e9t\u00e1ny", "alt_name": "Lipcsey-k\u00faria", "building": "yes", "castle_type": "manor", "historic": "castle", "name": "Kiss P\u00e1l M\u00fazeum", "tourism": "museum"}}, {"type": "way", "id": 262554355, "nodes": [2682146470, 2682146466, 2682146467, 2682146473, 2682146470], "tags": {"building": "yes", "name": "T\u00e1jh\u00e1z, Poroszl\u00f3", "tourism": "museum"}}, {"type": "way", "id": 289249776, "nodes": [2927991070, 2927991064, 4846994766, 4846994764, 4846994765, 4846994767, 2927991073, 10257831346, 4846994761, 4846994760, 4846994759, 2927991077, 4846994762, 2927991070], "tags": {"addr:city": "Poroszl\u00f3", "addr:housenumber": "41", "addr:postcode": "3388", "addr:street": "Kossuth \u00fat", "building": "yes", "building:levels": "9", "height": "27", "name": "Tisza-tavi \u00d6kocentrum", "note:hu": "poroszl\u00f3i \u00f3ri\u00e1s akv\u00e1rium", "opening_hours": "Apr-Jun,Sep-Oct Mo-Su 09:00-18:00; Jul-Aug Mo-Su 09:00-19:00; Jan-Mar,Nov-Dec Mo-Su 10:00-16:00", "payment:cash": "yes", "payment:mastercard": "yes", "payment:visa": "yes", "phone": "+36 36 553 033;+36 36 553 074", "tourism": "museum", "website": "http://www.tiszataviokocentrum.hu"}}, {"type": "way", "id": 477670270, "nodes": [4709783300, 4709783299, 4709783298, 4709783297, 4709783300], "tags": {"addr:city": "Berekf\u00fcrd\u0151", "addr:housenumber": "2/B", "addr:postcode": "5309", "addr:street": "Berek t\u00e9r", "building": "yes", "contact:email": "info@soviet-airforce.com", "contact:facebook": "https://www.facebook.com/SovietAirforceMuseum", "contact:mobile": "+36 30 546 6950", "contact:phone": "+36 59 519 059", "contact:website": "https://soviet-airforce.com/", "name": "Szovjet Rep\u00fcl\u0151t\u00e9r Titkai", "name:en": "Soviet Airforce Museum", "name:ru": "\u041c\u0443\u0437\u0435\u0439 \u0412\u0412\u0421 \u042e\u0413\u0412", "note:en": "The phone number starting with 30 is the organizers' number, the number starting with 59 is the tourinform.", "note:hu": "A 30-assal kezd\u0151d\u0151 sz\u00e1m az a ki\u00e1ll\u00edt\u00e1s szervez\u0151i, az 59-es telefonsz\u00e1m meg a tourinform", "opening_hours": "Mo-Fr 13:00-19:00", "tourism": "museum"}}, {"type": "way", "id": 586976842, "nodes": [5607485961, 5607485960, 5607485959, 5607485958, 5607485961], "tags": {"addr:city": "Berekf\u00fcrd\u0151", "addr:housenumber": "12", "addr:postcode": "5309", "addr:street": "Gerle utca", "building": "house", "name": "N\u00e9prajzi Mag\u00e1ngy\u0171jtem\u00e9ny Berekfurd\u0151", "opening_hours": "10:00-17:00", "operator": "Balog Bertalan \u00e9s feles\u00e9ge: Peredi Julianna", "payment:cash": "yes", "payment:coins": "yes", "ref:HU:vatin": "79652182-1-36", "tourism": "museum"}}, {"type": "way", "id": 602231560, "nodes": [5721077494, 5721077493, 5721077492, 5721077491, 5721077494], "tags": {"addr:city": "Sarud", "addr:housenumber": "42", "addr:postcode": "3386", "addr:street": "Kossuth \u00fat", "building": "yes", "mapillary": "5525389730868410", "name": "Falum\u00fazeum", "tourism": "museum"}}, {"type": "way", "id": 627593495, "nodes": [5924396969, 5924396966, 5924396964, 5924396959, 5924396958, 5924396963, 5924396960, 5924396961, 5924396962, 5924396957, 5924396956, 5924396965, 5924396967, 5924396968, 5924396969], "tags": {"building": "train_station", "building:levels": "1", "height": "5", "is_in": "Pusztakett\u0151s meg\u00e1ll\u00f3hely", "name": "Vas\u00fatm\u00fazeum", "opening_hours": "Tu-Su 10:00-22:00", "tourism": "museum"}}]}