{"version": 0.6, "generator": "Overpass API 0.7.59 e21c39fe", "osm3s": {"timestamp_osm_base": "2023-03-01T09:16:24Z", "copyright": "The data included in this document is from www.openstreetmap.org. The data is made available under ODbL."}, "elements": [{"type": "node", "id": 1416102313, "lat": 46.3194654, "lon": 20.8192522, "tags": {"name": "Kocsim\u00fazeum", "name:de": "Kutschenmuseum", "tourism": "museum"}}, {"type": "node", "id": 2634652509, "lat": 46.233828, "lon": 20.906935, "tags": {"SIRUTA:code": "11646", "addr:city": "Peregu Mare", "codul_entit\u0103\u021bii_muzeale": "650630.0", "fixme": "Adresa muzeului este de fapt adresa localitati, trebuie cautat manual unde este adresa corecta", "name": "Colec\u021bia Particular\u0103", "name:en": "Museum Collection", "source": "INP", "source:link": "http://date.gov.ro/dataset/ghidul-muzeelor-din-romania", "tourism": "museum", "tourism_survey": "13.02.2013 20:23:13"}}, {"type": "node", "id": 2634652553, "lat": 46.170601, "lon": 20.759724, "tags": {"SIRUTA:code": "9396", "addr:city": "N\u0103dlac", "addr:housenumber": "11", "addr:postcode": "315500", "addr:street": "Strada Tajovsky", "codul_entit\u0103\u021bii_muzeale": "650780.0", "email": "office@dzscr.ro", "fax": "0257206446", "fixme": "Adresa muzeului este de fapt adresa localitati, trebuie cautat manual unde este adresa corecta", "name": "Muzeul Tradi\u021biilor Slovacilor din N\u0103dlac", "name:en": "Museum of Slovak traditions", "phone": "0257474006", "source": "INP", "source:link": "http://date.gov.ro/dataset/ghidul-muzeelor-din-romania", "start_date": "1995", "tourism": "museum", "tourism_survey": "15.11.2012 19:11:28"}}, {"type": "node", "id": 3226449954, "lat": 46.563421, "lon": 20.6713902}, {"type": "node", "id": 3226449955, "lat": 46.5634246, "lon": 20.6713689}, {"type": "node", "id": 3226449956, "lat": 46.5634288, "lon": 20.671409}, {"type": "node", "id": 3226449957, "lat": 46.5634375, "lon": 20.6713576}, {"type": "node", "id": 3226449958, "lat": 46.5634434, "lon": 20.6714142}, {"type": "node", "id": 3226449959, "lat": 46.5634521, "lon": 20.6713628}, {"type": "node", "id": 3226449960, "lat": 46.5634563, "lon": 20.6714029}, {"type": "node", "id": 3226450861, "lat": 46.5634599, "lon": 20.6713816}, {"type": "node", "id": 3227860351, "lat": 46.5594245, "lon": 20.6702386, "tags": {"addr:city": "Orosh\u00e1za", "addr:country": "HU", "addr:housenumber": "1", "addr:postcode": "5900", "addr:street": "Th\u00e9k Endre utca", "name": "V\u00e1rosi K\u00e9pt\u00e1r", "tourism": "museum"}}, {"type": "node", "id": 3227930605, "lat": 46.5615805, "lon": 20.6874582}, {"type": "node", "id": 3227930606, "lat": 46.5616071, "lon": 20.6875541}, {"type": "node", "id": 3227930607, "lat": 46.5617417, "lon": 20.6873636}, {"type": "node", "id": 3227930608, "lat": 46.5617683, "lon": 20.6874594}, {"type": "node", "id": 3229636681, "lat": 46.5591197, "lon": 20.6745279}, {"type": "node", "id": 3229636682, "lat": 46.5591207, "lon": 20.6746015}, {"type": "node", "id": 3229636683, "lat": 46.559127, "lon": 20.6746001}, {"type": "node", "id": 3229636684, "lat": 46.559137, "lon": 20.674762}, {"type": "node", "id": 3229636685, "lat": 46.5591454, "lon": 20.6747602}, {"type": "node", "id": 3229636686, "lat": 46.5591521, "lon": 20.6748266}, {"type": "node", "id": 3229636687, "lat": 46.5592154, "lon": 20.6745074}, {"type": "node", "id": 3229636688, "lat": 46.5592457, "lon": 20.6748066}, {"type": "node", "id": 3488445992, "lat": 46.442575, "lon": 20.726433, "tags": {"addr:city": "T\u00f3tkoml\u00f3s", "addr:country": "HU", "addr:postcode": "5940", "building": "yes", "description": "L\u00e1togat\u00e1s: ig\u00e9ny szerint", "email": "totkomrt@mail.totkomlos.hu", "name": "Tanyam\u00fazeum", "operator": "T\u00f3tkoml\u00f3si Agr\u00e1r Zrt.", "phone": "0668462422, 06309273810", "source": "turistautak.hu", "source:date": "2012-12-27", "tourism": "museum", "url": "http://turistautak.hu/poi.php?id=103490"}}, {"type": "node", "id": 3664175290, "lat": 46.5412675, "lon": 20.8852969, "tags": {"name": "Falum\u00fazeum", "tourism": "museum"}}, {"type": "node", "id": 3664175307, "lat": 46.5410999, "lon": 20.8853057}, {"type": "node", "id": 3664175308, "lat": 46.5411045, "lon": 20.8852351}, {"type": "node", "id": 3664175309, "lat": 46.5412369, "lon": 20.8854619}, {"type": "node", "id": 3664175310, "lat": 46.5412458, "lon": 20.8853259}, {"type": "node", "id": 3664175311, "lat": 46.5412844, "lon": 20.8854685}, {"type": "node", "id": 3664175312, "lat": 46.5412979, "lon": 20.8852619}, {"type": "node", "id": 3664322244, "lat": 46.4605688, "lon": 20.8199974}, {"type": "node", "id": 3664322245, "lat": 46.4605735, "lon": 20.8199265}, {"type": "node", "id": 3664322246, "lat": 46.4605782, "lon": 20.8200481}, {"type": "node", "id": 3664322247, "lat": 46.4605886, "lon": 20.819891}, {"type": "node", "id": 3664322248, "lat": 46.4605921, "lon": 20.8201072}, {"type": "node", "id": 3664322249, "lat": 46.4606131, "lon": 20.8201731}, {"type": "node", "id": 3664322250, "lat": 46.460655, "lon": 20.8202863}, {"type": "node", "id": 3664322251, "lat": 46.4607903, "lon": 20.8197604}, {"type": "node", "id": 3664322252, "lat": 46.4608339, "lon": 20.8198449}, {"type": "node", "id": 3664322253, "lat": 46.4608763, "lon": 20.8195577}, {"type": "node", "id": 3664322254, "lat": 46.4609094, "lon": 20.8196307}, {"type": "node", "id": 3664322255, "lat": 46.4609531, "lon": 20.8197151}, {"type": "node", "id": 3664322256, "lat": 46.4610227, "lon": 20.819842}, {"type": "node", "id": 3664322261, "lat": 46.4840504, "lon": 20.6517484}, {"type": "node", "id": 3664322262, "lat": 46.4840717, "lon": 20.6515804}, {"type": "node", "id": 3664322263, "lat": 46.4845602, "lon": 20.6518849}, {"type": "node", "id": 3664322264, "lat": 46.4845815, "lon": 20.651717}, {"type": "node", "id": 3664322310, "lat": 46.531177, "lon": 20.8038787}, {"type": "node", "id": 3664322311, "lat": 46.531211, "lon": 20.803556}, {"type": "node", "id": 3664322312, "lat": 46.5312893, "lon": 20.8039034}, {"type": "node", "id": 3664322313, "lat": 46.5313233, "lon": 20.8035806}, {"type": "node", "id": 3664505537, "lat": 46.4067361, "lon": 20.7396374}, {"type": "node", "id": 3664505538, "lat": 46.4067509, "lon": 20.7397421}, {"type": "node", "id": 3664505539, "lat": 46.4069253, "lon": 20.7395814}, {"type": "node", "id": 3664505540, "lat": 46.4069401, "lon": 20.7396862}, {"type": "node", "id": 3664505591, "lat": 46.4119963, "lon": 20.7365854}, {"type": "node", "id": 3664505593, "lat": 46.4120458, "lon": 20.7367565}, {"type": "node", "id": 3664505594, "lat": 46.4120751, "lon": 20.7364778}, {"type": "node", "id": 3664505595, "lat": 46.4120898, "lon": 20.7365284}, {"type": "node", "id": 3664505596, "lat": 46.4121582, "lon": 20.7364272}, {"type": "node", "id": 3664505597, "lat": 46.4121726, "lon": 20.7364768}, {"type": "node", "id": 3664505598, "lat": 46.4124404, "lon": 20.7363136}, {"type": "node", "id": 3664505599, "lat": 46.4124902, "lon": 20.7364858}, {"type": "node", "id": 3664505600, "lat": 46.4138734, "lon": 20.7420441}, {"type": "node", "id": 3664505601, "lat": 46.4139186, "lon": 20.7421304}, {"type": "node", "id": 3664505602, "lat": 46.4140717, "lon": 20.7418254}, {"type": "node", "id": 3664505603, "lat": 46.414117, "lon": 20.7419117}, {"type": "node", "id": 3668262964, "lat": 46.5076011, "lon": 20.5350461}, {"type": "node", "id": 3668262965, "lat": 46.5076305, "lon": 20.5351605}, {"type": "node", "id": 3668262966, "lat": 46.5077473, "lon": 20.5349669}, {"type": "node", "id": 3668262967, "lat": 46.5077767, "lon": 20.5350813}, {"type": "node", "id": 4085235634, "lat": 46.214809, "lon": 20.4803471}, {"type": "node", "id": 4085235635, "lat": 46.2148913, "lon": 20.4809682}, {"type": "node", "id": 4085235636, "lat": 46.2149408, "lon": 20.4802713}, {"type": "node", "id": 4085235637, "lat": 46.2149767, "lon": 20.480609}, {"type": "node", "id": 4085235638, "lat": 46.2150198, "lon": 20.4812307}, {"type": "node", "id": 4085235639, "lat": 46.2150246, "lon": 20.4808665}, {"type": "node", "id": 4085235642, "lat": 46.2151549, "lon": 20.4811717}, {"type": "node", "id": 4085235644, "lat": 46.2152553, "lon": 20.480583}, {"type": "node", "id": 4085235647, "lat": 46.2153197, "lon": 20.4807475}, {"type": "node", "id": 4085235653, "lat": 46.2156632, "lon": 20.4812976}, {"type": "node", "id": 4085235655, "lat": 46.2157108, "lon": 20.4813906}, {"type": "node", "id": 4085235656, "lat": 46.2157675, "lon": 20.4809902}, {"type": "node", "id": 4085235657, "lat": 46.2158323, "lon": 20.481117}, {"type": "node", "id": 4085235658, "lat": 46.2158403, "lon": 20.4809124}, {"type": "node", "id": 4085235659, "lat": 46.2159527, "lon": 20.4811322}, {"type": "node", "id": 4807842484, "lat": 46.3156619, "lon": 20.817727, "tags": {"tourism": "museum"}}, {"type": "node", "id": 5577935269, "lat": 46.2969888, "lon": 20.4358927, "tags": {"description": "\u00d3f\u00f6lde\u00e1ki m\u00fazeum a falu t\u00f6rt\u00e9nelm\u00e9r\u0151l", "tourism": "museum"}}, {"type": "node", "id": 5614196882, "lat": 46.2857217, "lon": 21.0147672}, {"type": "node", "id": 5614196883, "lat": 46.2858665, "lon": 21.0147597}, {"type": "node", "id": 5614196884, "lat": 46.2858698, "lon": 21.0148947}, {"type": "node", "id": 5614196885, "lat": 46.2859809, "lon": 21.0148889}, {"type": "node", "id": 5614196886, "lat": 46.2859835, "lon": 21.0149932}, {"type": "node", "id": 5614196887, "lat": 46.2858207, "lon": 21.0150017}, {"type": "node", "id": 5614196888, "lat": 46.2858223, "lon": 21.0150688}, {"type": "node", "id": 5614196889, "lat": 46.2857293, "lon": 21.0150737}, {"type": "node", "id": 5728269601, "lat": 46.1712955, "lon": 20.752372}, {"type": "node", "id": 5728269602, "lat": 46.171249, "lon": 20.7520552}, {"type": "node", "id": 5728269603, "lat": 46.1711734, "lon": 20.7520785}, {"type": "node", "id": 5728269604, "lat": 46.1712217, "lon": 20.7523927}, {"type": "node", "id": 6483533854, "lat": 46.5076355, "lon": 20.5350929, "tags": {"name": "Falum\u00fazeum", "tourism": "museum"}}, {"type": "node", "id": 7004253521, "lat": 46.5638456, "lon": 20.6353498, "tags": {"contact:website": "http://mn5581oroshaza.lapunk.hu/", "level": "2", "museum_type": "municipial", "name": "Laktanya eml\u00e9szoba", "opening_hours": "We 13:00-16:00; Sa 09:00-13:00; PH closed", "tourism": "museum"}}, {"type": "node", "id": 9829150950, "lat": 46.5620364, "lon": 20.6688153, "tags": {"addr:city": "Orosh\u00e1za", "addr:housenumber": "21", "addr:postcode": "5900", "addr:street": "K\u00f6nd utca", "contact:facebook": "https://facebook.com/people/Ka%C3%A1li-Aut%C3%B2-Motor-M%C3%BAzeum-Orosh%C3%A1za/100069266395192/", "contact:phone": "+36 20 5588737", "name": "Ka\u00e1li Aut\u00f3-Motor M\u00fazeum", "opening_hours": "Sa 14:00-18:00", "tourism": "museum"}}, {"type": "node", "id": 9957706346, "lat": 46.4842202, "lon": 20.6515547, "tags": {"addr:city": "Kardosk\u00fat", "addr:hamlet": "Pusztak\u00f6zpont", "addr:housenumber": "251", "addr:postcode": "5945", "addr:street": "Tanya", "addr:suburb": "Kardoskuti Feh\u00e9rt\u00f3", "name": "Kardosk\u00fati Mad\u00e1rvonul\u00e1si M\u00fazeum", "operator": "K\u0151r\u00f6s-Maros Nemzeti Park", "tourism": "museum", "url": "https://www.kmnp.hu/hu/kardoskuti-feherto"}}, {"type": "way", "id": 316521924, "nodes": [3226449959, 3226449957, 3226449955, 3226449954, 3226449956, 3226449958, 3226449960, 3226450861, 3226449959], "tags": {"man_made": "water_tower", "name": "K\u00fatm\u00fazeum", "tourism": "museum"}}, {"type": "way", "id": 316649792, "nodes": [3227930607, 3227930608, 3227930606, 3227930605, 3227930607], "tags": {"addr:city": "Orosh\u00e1za", "addr:country": "HU", "addr:housenumber": "74", "addr:postcode": "5900", "addr:street": "D\u00f3zsa Gy\u00f6rgy utca", "alt_name": "Dumitr\u00e1s-h\u00e1z", "building": "yes", "name": "Darvas J\u00f3zsef Irodalmi Eml\u00e9kh\u00e1z", "tourism": "museum"}}, {"type": "way", "id": 316782467, "nodes": [3229636687, 3229636688, 3229636686, 3229636685, 3229636684, 3229636682, 3229636683, 3229636681, 3229636687], "tags": {"addr:city": "Orosh\u00e1za", "addr:country": "HU", "addr:housenumber": "5", "addr:postcode": "5900", "addr:street": "D\u00f3zsa Gy\u00f6rgy utca", "building": "yes", "name": "Sz\u00e1nt\u00f3 Kov\u00e1cs J\u00e1nos Ter\u00fcleti M\u00fazeum", "tourism": "museum"}}, {"type": "way", "id": 362028079, "nodes": [3664175308, 3664175312, 3664175311, 3664175309, 3664175310, 3664175307, 3664175308], "tags": {"building": "yes", "name": "Kov\u00e1cs-f\u00e9le h\u00e1z", "tourism": "museum"}}, {"type": "way", "id": 362048109, "nodes": [3664322311, 3664322310, 3664322312, 3664322313, 3664322311], "tags": {"building": "yes", "name": "Falum\u00fazeum", "tourism": "museum"}}, {"type": "way", "id": 362048112, "nodes": [3664322261, 3664322263, 3664322264, 3664322262, 3664322261], "tags": {"building": "yes", "name": "Kardosk\u00fati M\u00fazeum", "tourism": "museum"}}, {"type": "way", "id": 362048119, "nodes": [3664322253, 3664322256, 3664322250, 3664322249, 3664322248, 3664322246, 3664322244, 3664322245, 3664322247, 3664322253], "tags": {"name": "Vas\u00fatt\u00f6rt\u00e9neti ki\u00e1ll\u00edt\u00e1s", "tourism": "museum"}}, {"type": "way", "id": 362048121, "nodes": [3664322251, 3664322252, 3664322255, 3664322254, 3664322251], "tags": {"building": "yes", "tourism": "museum"}}, {"type": "way", "id": 362070229, "nodes": [3664505591, 3664505593, 3664505599, 3664505598, 3664505597, 3664505596, 3664505594, 3664505595, 3664505591], "tags": {"building": "yes", "name": "Szlov\u00e1k N\u00e9prajzi Gy\u0171jtem\u00e9ny", "tourism": "museum"}}, {"type": "way", "id": 362070230, "nodes": [3664505537, 3664505538, 3664505540, 3664505539, 3664505537], "tags": {"building": "yes", "name": "Szlov\u00e1k N\u00e9prajzi H\u00e1z", "tourism": "museum"}}, {"type": "way", "id": 362070231, "nodes": [3664505600, 3664505601, 3664505603, 3664505602, 3664505600], "tags": {"building": "yes", "name": "Szlov\u00e1k T\u00e1jh\u00e1z", "tourism": "museum"}}, {"type": "way", "id": 362548086, "nodes": [3668262964, 3668262965, 3668262967, 3668262966, 3668262964], "tags": {"building": "yes", "name": "Falum\u00fazeum", "tourism": "museum"}}, {"type": "way", "id": 406457304, "nodes": [4085235642, 4085235639, 4085235647, 4085235644, 4085235637, 4085235636, 4085235634, 4085235635, 4085235638, 4085235642], "tags": {"building": "yes", "fixme": "resurvey", "name": "J\u00f3zsef Attila M\u00fazeum", "tourism": "museum", "wikidata": "Q1102846", "wikipedia": "hu:J\u00f3zsef Attila M\u00fazeum"}}, {"type": "way", "id": 406457307, "nodes": [4085235653, 4085235655, 4085235659, 4085235658, 4085235656, 4085235657, 4085235653], "tags": {"building": "yes", "name": "t\u00e1jh\u00e1z", "tourism": "museum"}}, {"type": "way", "id": 587766467, "nodes": [5614196882, 5614196883, 5614196884, 5614196885, 5614196886, 5614196887, 5614196888, 5614196889, 5614196882], "tags": {"building": "yes", "name": "Moln\u00e1r C. P\u00e1l eml\u00e9kh\u00e1z", "tourism": "museum", "wikidata": "Q111961992"}}, {"type": "way", "id": 603398527, "nodes": [5728269601, 5728269602, 5728269603, 5728269604, 5728269601], "tags": {"addr:city": "Nadlac", "addr:housenumber": "11", "addr:postcode": "315500", "addr:street": "Strada Jozef Gregor Tajovsky", "building": "yes", "museum": "history", "name": "Muzeul Etnografic Slovac", "tourism": "museum"}}]}