{"version": 0.6, "generator": "Overpass API 0.7.59 e21c39fe", "osm3s": {"timestamp_osm_base": "2023-03-01T09:28:36Z", "copyright": "The data included in this document is from www.openstreetmap.org. The data is made available under ODbL."}, "elements": [{"type": "node", "id": 2293671910, "lat": 47.8323796, "lon": 19.166399, "tags": {"source": "survey", "survey:date": "2021-10-31", "tourism": "viewpoint"}}, {"type": "node", "id": 2357295729, "lat": 47.9113999, "lon": 19.4229108, "tags": {"tourism": "viewpoint"}}, {"type": "node", "id": 2437095645, "lat": 47.8350018, "lon": 19.2142229, "tags": {"tourism": "viewpoint"}}, {"type": "node", "id": 2437095666, "lat": 47.8359205, "lon": 19.1892164, "tags": {"direction": "70-210", "tourism": "viewpoint"}}, {"type": "node", "id": 2719704824, "lat": 47.8707295, "lon": 19.7384239, "tags": {"tourism": "viewpoint"}}, {"type": "node", "id": 2784110150, "lat": 48.1316091, "lon": 19.4913083, "tags": {"tourism": "viewpoint"}}, {"type": "node", "id": 2784110156, "lat": 48.1348186, "lon": 19.4890921, "tags": {"tourism": "viewpoint"}}, {"type": "node", "id": 2942411650, "lat": 47.8656242, "lon": 19.4781046, "tags": {"tourism": "viewpoint"}}, {"type": "node", "id": 2944618426, "lat": 47.7978645, "lon": 19.7097832, "tags": {"tourism": "viewpoint"}}, {"type": "node", "id": 2944618427, "lat": 47.8124364, "lon": 19.7150026, "tags": {"tourism": "viewpoint"}}, {"type": "node", "id": 3137528097, "lat": 47.9114969, "lon": 19.4225849, "tags": {"tourism": "viewpoint"}}, {"type": "node", "id": 3158586771, "lat": 47.8217007, "lon": 19.3071653, "tags": {"tourism": "viewpoint"}}, {"type": "node", "id": 3188990736, "lat": 47.8272866, "lon": 19.3031068, "tags": {"tourism": "viewpoint"}}, {"type": "node", "id": 3445508222, "lat": 47.856967, "lon": 19.758259, "tags": {"source": "turistautak.hu", "source:date": "2013-06-22", "tourism": "viewpoint", "url": "http://turistautak.hu/poi.php?id=79692"}}, {"type": "node", "id": 3446891212, "lat": 47.952283, "lon": 19.601017, "tags": {"ele": "265", "man_made": "tower", "source": "turistautak.hu", "source:date": "2014-10-15", "tourism": "viewpoint", "tower:type": "observation", "url": "http://turistautak.hu/poi.php?id=131277"}}, {"type": "node", "id": 3446895023, "lat": 47.9102017, "lon": 19.4962078, "tags": {"source": "survey", "survey:date": "2020-10-23", "tourism": "viewpoint", "url": "http://turistautak.hu/poi.php?id=143832"}}, {"type": "node", "id": 3446895024, "lat": 47.911655, "lon": 19.768334, "tags": {"source": "survey", "survey:date": "2021-03-06", "tourism": "viewpoint", "url": "http://turistautak.hu/poi.php?id=147054"}}, {"type": "node", "id": 3446895036, "lat": 47.915393, "lon": 19.63509, "tags": {"source": "turistautak.hu", "source:date": "2014-10-15", "tourism": "viewpoint", "url": "http://turistautak.hu/poi.php?id=158994"}}, {"type": "node", "id": 3446895075, "lat": 47.926801, "lon": 19.5512, "tags": {"tourism": "viewpoint", "url": "http://turistautak.hu/poi.php?id=148784"}}, {"type": "node", "id": 3446895695, "lat": 47.93998, "lon": 19.52457, "tags": {"source": "turistautak.hu", "source:date": "2014-10-15", "tourism": "viewpoint", "url": "http://turistautak.hu/poi.php?id=68364"}}, {"type": "node", "id": 3446895734, "lat": 47.952133, "lon": 19.766217, "tags": {"source": "turistautak.hu", "source:date": "2013-06-22", "tourism": "viewpoint", "url": "http://turistautak.hu/poi.php?id=141703"}}, {"type": "node", "id": 3446895763, "lat": 47.9667004, "lon": 19.6452061, "tags": {"source": "turistautak.hu", "source:date": "2014-10-15", "tourism": "viewpoint", "url": "http://turistautak.hu/poi.php?id=89589"}}, {"type": "node", "id": 3446895772, "lat": 47.97482, "lon": 19.748285, "tags": {"ele": "277", "man_made": "survey_point", "ref": "86-4315", "source": "turistautak.hu", "source:date": "2014-10-15", "tourism": "viewpoint", "url": "http://turistautak.hu/poi.php?id=148781"}}, {"type": "node", "id": 3456335669, "lat": 47.835416, "lon": 19.251857, "tags": {"source": "turistautak.hu", "source:date": "2014-10-15", "tourism": "viewpoint", "url": "http://turistautak.hu/poi.php?id=141304"}}, {"type": "node", "id": 3456376800, "lat": 47.8274927, "lon": 19.1569368, "tags": {"source": "turistautak.hu", "source:date": "2014-10-15", "tourism": "viewpoint", "url": "http://turistautak.hu/poi.php?id=120945"}}, {"type": "node", "id": 3456376806, "lat": 47.8283376, "lon": 19.1581602, "tags": {"source": "turistautak.hu", "source:date": "2014-10-15", "tourism": "viewpoint", "url": "http://turistautak.hu/poi.php?id=120944"}}, {"type": "node", "id": 3456376807, "lat": 47.8287516, "lon": 19.1574737, "tags": {"direction": "180", "source": "turistautak.hu", "source:date": "2014-10-15", "tourism": "viewpoint", "url": "http://turistautak.hu/poi.php?id=41096"}}, {"type": "node", "id": 3456376813, "lat": 47.8339316, "lon": 19.1616828, "tags": {"source": "survey", "survey:date": "2022-01-29", "tourism": "viewpoint", "url": "http://turistautak.hu/poi.php?id=120940"}}, {"type": "node", "id": 3456376820, "lat": 47.837658, "lon": 19.18635, "tags": {"source": "turistautak.hu", "source:date": "2014-10-15", "tourism": "viewpoint", "url": "http://turistautak.hu/poi.php?id=173354"}}, {"type": "node", "id": 3456392023, "lat": 47.847726, "lon": 19.229201, "tags": {"ele": "343", "name": "Dom\u00e1nyi dombtet\u0151", "source": "turistautak.hu", "source:date": "2014-10-15", "tourism": "viewpoint", "url": "http://turistautak.hu/poi.php?id=68363"}}, {"type": "node", "id": 3456392104, "lat": 47.8715101, "lon": 19.2783943, "tags": {"source": "survey", "survey:date": "2017-10-15", "tourism": "viewpoint", "url": "http://turistautak.hu/poi.php?id=67514"}}, {"type": "node", "id": 3456392381, "lat": 47.910734, "lon": 19.19925, "tags": {"source": "turistautak.hu", "source:date": "2014-10-15", "tourism": "viewpoint", "url": "http://turistautak.hu/poi.php?id=159796"}}, {"type": "node", "id": 3456392506, "lat": 47.927717, "lon": 19.301133, "tags": {"source": "turistautak.hu", "source:date": "2014-10-15", "tourism": "viewpoint", "url": "http://turistautak.hu/poi.php?id=130066"}}, {"type": "node", "id": 3459930626, "lat": 47.968885, "lon": 19.373897, "tags": {"source": "turistautak.hu", "source:date": "2014-10-15", "tourism": "viewpoint", "url": "http://turistautak.hu/poi.php?id=116833"}}, {"type": "node", "id": 3459930629, "lat": 47.973826, "lon": 19.369949, "tags": {"source": "turistautak.hu", "source:date": "2014-10-15", "tourism": "viewpoint", "url": "http://turistautak.hu/poi.php?id=116834"}}, {"type": "node", "id": 3459930680, "lat": 48.0303579, "lon": 19.432799, "tags": {"source": "turistautak.hu", "source:date": "2014-10-15", "tourism": "viewpoint", "url": "http://turistautak.hu/poi.php?id=163195"}}, {"type": "node", "id": 3468218480, "lat": 47.9794814, "lon": 19.6884786, "tags": {"tourism": "viewpoint"}}, {"type": "node", "id": 3468218996, "lat": 47.9801957, "lon": 19.695708, "tags": {"tourism": "viewpoint"}}, {"type": "node", "id": 3469960255, "lat": 47.985974, "lon": 19.740412, "tags": {"source": "turistautak.hu", "source:date": "2014-10-15", "tourism": "viewpoint", "url": "http://turistautak.hu/poi.php?id=135424"}}, {"type": "node", "id": 3469960823, "lat": 47.990029, "lon": 19.704742, "tags": {"source": "turistautak.hu", "source:date": "2014-12-18", "tourism": "viewpoint", "url": "http://turistautak.hu/poi.php?id=175217"}}, {"type": "node", "id": 3469960829, "lat": 48.012356, "lon": 19.728335, "tags": {"source": "turistautak.hu", "source:date": "2014-10-15", "tourism": "viewpoint", "url": "http://turistautak.hu/poi.php?id=145593"}}, {"type": "node", "id": 3469960834, "lat": 48.018261, "lon": 19.759911, "tags": {"source": "turistautak.hu", "source:date": "2014-10-15", "tourism": "viewpoint", "url": "http://turistautak.hu/poi.php?id=149427"}}, {"type": "node", "id": 3469960837, "lat": 48.018802, "lon": 19.679622, "tags": {"source": "turistautak.hu", "source:date": "2014-10-15", "tourism": "viewpoint", "url": "http://turistautak.hu/poi.php?id=147780"}}, {"type": "node", "id": 3469960838, "lat": 48.022334, "lon": 19.699538, "tags": {"source": "turistautak.hu", "source:date": "2014-10-15", "tourism": "viewpoint", "url": "http://turistautak.hu/poi.php?id=157677"}}, {"type": "node", "id": 3469960841, "lat": 48.024312, "lon": 19.736147, "tags": {"source": "turistautak.hu", "source:date": "2014-10-15", "tourism": "viewpoint", "url": "http://turistautak.hu/poi.php?id=138937"}}, {"type": "node", "id": 3469960843, "lat": 48.026574, "lon": 19.690331, "tags": {"source": "turistautak.hu", "source:date": "2014-10-15", "tourism": "viewpoint", "url": "http://turistautak.hu/poi.php?id=157676"}}, {"type": "node", "id": 3469960844, "lat": 48.028275, "lon": 19.750687, "tags": {"source": "turistautak.hu", "source:date": "2014-10-15", "tourism": "viewpoint", "url": "http://turistautak.hu/poi.php?id=149426"}}, {"type": "node", "id": 3469993979, "lat": 47.9972373, "lon": 19.5835263, "tags": {"ele": "350", "source": "turistautak.hu", "source:date": "2012-11-21", "tourism": "viewpoint", "url": "http://turistautak.hu/poi.php?id=1069"}}, {"type": "node", "id": 3469993990, "lat": 48.0029809, "lon": 19.6468526, "tags": {"source": "turistautak.hu", "source:date": "2014-10-15", "tourism": "viewpoint", "url": "http://turistautak.hu/poi.php?id=147070"}}, {"type": "node", "id": 3469996036, "lat": 47.981116, "lon": 19.587296, "tags": {"ele": "460", "source": "turistautak.hu", "source:date": "2014-10-15", "tourism": "viewpoint", "url": "http://turistautak.hu/poi.php?id=148263"}}, {"type": "node", "id": 3469996110, "lat": 48.031794, "lon": 19.566205, "tags": {"source": "turistautak.hu", "source:date": "2014-10-15", "tourism": "viewpoint", "url": "http://turistautak.hu/poi.php?id=160365"}}, {"type": "node", "id": 3469996113, "lat": 48.037074, "lon": 19.579146, "tags": {"source": "turistautak.hu", "source:date": "2014-10-15", "tourism": "viewpoint", "url": "http://turistautak.hu/poi.php?id=164630"}}, {"type": "node", "id": 3479961993, "lat": 47.8122645, "lon": 19.7140848, "tags": {"source": "turistautak.hu", "source:date": "2014-02-24", "tourism": "viewpoint", "url": "http://turistautak.hu/poi.php?id=166108"}}, {"type": "node", "id": 3651241910, "lat": 48.0274697, "lon": 19.3451186, "tags": {"tourism": "viewpoint"}}, {"type": "node", "id": 3841092192, "lat": 47.8339, "lon": 19.154633, "tags": {"source": "turistautak.hu", "tourism": "viewpoint", "url": "http://turistautak.hu/poi.php?id=166273"}}, {"type": "node", "id": 3984547336, "lat": 47.9649696, "lon": 19.4273011, "tags": {"ele": "309", "man_made": "tower", "name": "Kegyetlen-hegy", "natural": "peak", "tourism": "viewpoint"}}, {"type": "node", "id": 4063565342, "lat": 47.8776472, "lon": 19.3020403, "tags": {"man_made": "tower", "mapillary": "837196463550914", "name": "Leg\u00e9ndi Erdei Kil\u00e1t\u00f3", "name:en": "Leg\u00e9ndi Forest Lookout", "source": "survey", "survey:date": "2020-03-14", "tourism": "viewpoint", "tower:type": "observation"}}, {"type": "node", "id": 4432280608, "lat": 47.865344, "lon": 19.4777579, "tags": {"tourism": "viewpoint"}}, {"type": "node", "id": 4432280609, "lat": 47.8655039, "lon": 19.4788727, "tags": {"tourism": "viewpoint"}}, {"type": "node", "id": 4755483468, "lat": 47.9531464, "lon": 19.3342657, "tags": {"man_made": "tower", "name": "Nagy kil\u00e1t\u00f3", "source": "survey", "survey:date": "2017-03-25", "tourism": "viewpoint", "tower:type": "observation"}}, {"type": "node", "id": 4784031123, "lat": 47.8715733, "lon": 19.7447303, "tags": {"tourism": "viewpoint"}}, {"type": "node", "id": 4784031124, "lat": 47.8712458, "lon": 19.7437526, "tags": {"tourism": "viewpoint"}}, {"type": "node", "id": 4784031125, "lat": 47.8674691, "lon": 19.7296657, "tags": {"tourism": "viewpoint"}}, {"type": "node", "id": 4891358036, "lat": 47.9100139, "lon": 19.760893, "tags": {"tourism": "viewpoint"}}, {"type": "node", "id": 4920802121, "lat": 47.977967, "lon": 19.552023, "tags": {"ele": "511", "name": "Dobog\u00f3-tet\u0151, geod\u00e9ziai torony", "name:hu": "Dobog\u00f3-tet\u0151, geod\u00e9ziai torony", "tourism": "viewpoint"}}, {"type": "node", "id": 5006474516, "lat": 47.8605623, "lon": 19.1628018, "tags": {"tourism": "viewpoint"}}, {"type": "node", "id": 5142701146, "lat": 47.895427, "lon": 19.2410927, "tags": {"access": "yes", "architect": "B\u00e1ger Andr\u00e1s", "ele": "421", "fee": "no", "height": "26", "man_made": "tower", "material": "wood", "name": "Pr\u00f3nay-kil\u00e1t\u00f3", "opening_hours": "24/7", "source": "survey", "survey:date": "2017-10-15", "tourism": "viewpoint", "tower:construction": "lattice", "tower:type": "observation", "url": "https://epiteszforum.hu/csendes-es-eros-egyeniseg-kicsi-kalapban--a-pronay-kilato-a-cserhatban", "wikidata": "Q41969718", "wikipedia": "hu:Pr\u00f3nay-kil\u00e1t\u00f3"}}, {"type": "node", "id": 5281797140, "lat": 47.8810676, "lon": 19.2430552, "tags": {"tourism": "viewpoint"}}, {"type": "node", "id": 6651655544, "lat": 47.8772378, "lon": 19.4986402}, {"type": "node", "id": 6651655545, "lat": 47.8771973, "lon": 19.4986346}, {"type": "node", "id": 6651655546, "lat": 47.8771842, "lon": 19.498845}, {"type": "node", "id": 6651655547, "lat": 47.8772248, "lon": 19.4988506}, {"type": "node", "id": 7312264247, "lat": 47.8336692, "lon": 19.151993}, {"type": "node", "id": 7312264248, "lat": 47.8336667, "lon": 19.1519863}, {"type": "node", "id": 7312264249, "lat": 47.8336629, "lon": 19.1519811}, {"type": "node", "id": 7312264250, "lat": 47.8336581, "lon": 19.151978}, {"type": "node", "id": 7312264251, "lat": 47.8336529, "lon": 19.1519774}, {"type": "node", "id": 7312264252, "lat": 47.8336479, "lon": 19.1519792}, {"type": "node", "id": 7312264253, "lat": 47.8336435, "lon": 19.1519834}, {"type": "node", "id": 7312264254, "lat": 47.8336403, "lon": 19.1519895}, {"type": "node", "id": 7312264255, "lat": 47.8336386, "lon": 19.1519968}, {"type": "node", "id": 7312264256, "lat": 47.8336386, "lon": 19.1520044}, {"type": "node", "id": 7312264257, "lat": 47.8336403, "lon": 19.1520117}, {"type": "node", "id": 7312264258, "lat": 47.8336435, "lon": 19.1520178}, {"type": "node", "id": 7312264259, "lat": 47.8336479, "lon": 19.152022}, {"type": "node", "id": 7312264260, "lat": 47.8336529, "lon": 19.1520238}, {"type": "node", "id": 7312264261, "lat": 47.8336581, "lon": 19.1520232}, {"type": "node", "id": 7312264262, "lat": 47.8336629, "lon": 19.1520201}, {"type": "node", "id": 7312264263, "lat": 47.8336667, "lon": 19.1520149}, {"type": "node", "id": 7312264264, "lat": 47.8336692, "lon": 19.1520082}, {"type": "node", "id": 7312264265, "lat": 47.8336701, "lon": 19.1520006}, {"type": "node", "id": 7660381422, "lat": 47.8194369, "lon": 19.3901637, "tags": {"access": "public", "addr:city": "Acsa", "addr:country": "HU", "addr:province": "Pest Megye", "alt_name": "Acsa \u00e9szlel\u0151hely", "closest_town": "Acsa - Galgaguta", "dark_sky": "yes", "description": "6,32 magnit\u00fad\u00f3 az \u00e9gbolt szabad szemes hat\u00e1rf\u00e9nyess\u00e9ge", "direction": "292-247", "ele": "175", "fee": "no", "is_in": "Galga-mente", "leisure": "star_gazing", "name": "amat\u0151rcsillag\u00e1sz \u00e9szlel\u0151hely (6,7mn darksky), Acsa", "ref": "2108", "surface": "grass", "surveillance": "astronomy", "surveillance:type": "viewpoint", "tourism": "viewpoint", "type": "astronomy", "url": "https://umap.openstreetmap.fr/hu/map/csillag-terkep_441074#15/47.8158/19.3955", "url:darksky": "fenyszennyezes.hu", "url:egkep": "http://egkep.com/?ddqp", "website": "https://www.mcse.hu/eszlelohelyek/"}}, {"type": "node", "id": 7660381486, "lat": 47.8190974, "lon": 19.3961102, "tags": {"access": "public", "addr:city": "Acsa", "addr:country": "HU", "addr:province": "Pest Megye", "alt_name": "Acsa \u00e9szlel\u0151hely", "closest_town": "Acsa - Galgaguta", "dark_sky": "yes", "description": "6,32 magnit\u00fad\u00f3 az \u00e9gbolt szabad szemes hat\u00e1rf\u00e9nyess\u00e9ge", "direction": "292-247", "ele": "175", "fee": "no", "is_in": "Galga-mente", "leisure": "star_gazing", "name": "amat\u0151rcsillag\u00e1sz \u00e9szlel\u0151hely (6,7mn darksky), Acsa", "ref": "2108", "surface": "grass", "surveillance": "astronomy", "surveillance:type": "viewpoint", "tourism": "viewpoint", "type": "astronomy", "url": "https://umap.openstreetmap.fr/hu/map/csillag-terkep_441074#15/47.8158/19.3955", "url:darksky": "fenyszennyezes.hu", "url:egkep": "http://egkep.com/?ddqp", "website": "https://www.mcse.hu/eszlelohelyek/"}}, {"type": "node", "id": 8041770686, "lat": 47.9121784, "lon": 19.4955249}, {"type": "node", "id": 8041770687, "lat": 47.9121008, "lon": 19.4955303}, {"type": "node", "id": 8041770688, "lat": 47.912097, "lon": 19.4954096}, {"type": "node", "id": 8041770689, "lat": 47.9121746, "lon": 19.4954042}, {"type": "node", "id": 8521276121, "lat": 47.8992798, "lon": 19.5209995, "tags": {"tourism": "viewpoint"}}, {"type": "node", "id": 9215547836, "lat": 47.832483, "lon": 19.1661574, "tags": {"source": "survey", "survey:date": "2021-10-31", "tourism": "viewpoint"}}, {"type": "node", "id": 9289508175, "lat": 47.9490375, "lon": 19.6367652}, {"type": "node", "id": 9289508176, "lat": 47.9490285, "lon": 19.6368385}, {"type": "node", "id": 9289508177, "lat": 47.9489784, "lon": 19.6368248}, {"type": "node", "id": 9289508178, "lat": 47.9489875, "lon": 19.6367515}, {"type": "node", "id": 9319369004, "lat": 48.0133675, "lon": 19.6997631, "tags": {"source": "survey", "tourism": "viewpoint"}}, {"type": "node", "id": 9678352517, "lat": 47.9822708, "lon": 19.6027328, "tags": {"name": "Isten tenyere", "tourism": "viewpoint"}}, {"type": "node", "id": 9741917356, "lat": 47.7718752, "lon": 19.232905, "tags": {"access": "public", "closest_town": "R\u00e1d", "dark_sky": "yes", "description": "21.13 mag/arcsec2 darksky; 6,13 magnit\u00fad\u00f3 az \u00e9gbolt szabad szemes hat\u00e1rf\u00e9nyess\u00e9ge", "direction": "225-160", "ele": "125", "fee": "no", "is_in": "Gomb\u00e1s-patak v\u00f6lgye;R\u00e1d d\u00e9li k\u00fclter\u00fclet", "leisure": "star_gazing", "name": "amat\u0151rcsillag\u00e1sz \u00e9szlel\u0151hely R\u00e1d (21.13 / 6,1mn darksky)", "ref": "21.29 mag./arc sec2; 7,2 magnit\u00fad\u00f3; Bortle class 4", "seasonal": "no", "source": "survey 2022-06-01", "surface": "grass", "surveillance": "astronomy", "surveillance:type": "viewpoint", "tourism": "viewpoint", "type": "astronomy", "url": "https://www.lightpollutionmap.info/#zoom=15.63&lat=47.8274&lon=18.9469&layers=0BFFFFFFTFFFFFFFFFF&state=eyJtYXJrZXJzIjp7Im1hcmtlcm15TG9jYXRpb24iOlsyMTM4MjE0LDU5NTkzODhdfX0=", "url:darksky": "fenyszennyezes.hu", "url:egkep": "http://egkep.com/?dhyv", "url:mcse": "https://www.mcse.hu/eszlelohelyek/", "website": "http://umap.openstreetmap.fr/hu/map/csillag-terkep_441074#17/47.77172/19.23297"}}, {"type": "node", "id": 9871689817, "lat": 48.0556829, "lon": 19.1632237, "tags": {"tourism": "viewpoint"}}, {"type": "node", "id": 10265638111, "lat": 47.9619583, "lon": 19.3065221, "tags": {"tourism": "viewpoint"}}, {"type": "node", "id": 10265641244, "lat": 47.9545733, "lon": 19.3114778, "tags": {"tourism": "viewpoint"}}, {"type": "node", "id": 10265641245, "lat": 47.9526631, "lon": 19.3173713, "tags": {"tourism": "viewpoint"}}, {"type": "node", "id": 10265641246, "lat": 47.9514796, "lon": 19.3195746, "tags": {"tourism": "viewpoint"}}, {"type": "node", "id": 10313373145, "lat": 47.9903781, "lon": 19.7161278, "tags": {"tourism": "viewpoint"}}, {"type": "node", "id": 10313373148, "lat": 47.9924131, "lon": 19.7172745, "tags": {"tourism": "viewpoint"}}, {"type": "way", "id": 707877557, "nodes": [6651655544, 6651655545, 6651655546, 6651655547, 6651655544], "tags": {"man_made": "tower", "tourism": "viewpoint", "tower:type": "observation"}}, {"type": "way", "id": 783028058, "nodes": [7312264265, 7312264264, 7312264263, 7312264262, 7312264261, 7312264260, 7312264259, 7312264258, 7312264257, 7312264256, 7312264255, 7312264254, 7312264253, 7312264252, 7312264251, 7312264250, 7312264249, 7312264248, 7312264247, 7312264265], "tags": {"building": "yes", "description": "75-2001 sz\u00e1m\u00fa alapponton \u00e9p\u00fclt vasbeton geod\u00e9ziai m\u00e9r\u0151torony.", "ele": "650", "height": "16", "man_made": "tower", "material": "reinforced_concrete", "name": "Nasz\u00e1ly (m\u00e9r\u0151torony)", "operator": "F\u00f6mi", "start_date": "1974", "structure": "tube", "tourism": "viewpoint", "tower:type": "observation"}}, {"type": "way", "id": 863252877, "nodes": [8041770689, 8041770688, 8041770687, 8041770686, 8041770689], "tags": {"man_made": "tower", "name": "Sasb\u00e9rci kil\u00e1t\u00f3 (h\u00e9tk\u00f6znap z\u00e1rva)", "opening_hours": "Sa,Su 09:00-17:00", "tourism": "viewpoint", "tower:type": "observation"}}, {"type": "way", "id": 1006904605, "nodes": [9289508175, 9289508176, 9289508177, 9289508178, 9289508175], "tags": {"building": "yes", "ele": "567", "man_made": "tower", "name": "Tepke-kil\u00e1t\u00f3", "source": "survey", "survey:date": "2021-11-28", "tourism": "viewpoint", "tower:type": "observation"}}]}