{"version": 0.6, "generator": "Overpass API 0.7.59 e21c39fe", "osm3s": {"timestamp_osm_base": "2023-03-01T09:25:32Z", "copyright": "The data included in this document is from www.openstreetmap.org. The data is made available under ODbL."}, "elements": [{"type": "node", "id": 497668319, "lat": 47.1706514, "lon": 18.4191678, "tags": {"height": "7", "man_made": "tower", "mapillary": "1936651166499439", "name": "K\u00f3csag-torony", "shelter": "yes", "tourism": "viewpoint", "tower:type": "observation"}}, {"type": "node", "id": 497668461, "lat": 47.1670406, "lon": 18.4167363, "tags": {"tourism": "viewpoint"}}, {"type": "node", "id": 1490703363, "lat": 47.2130712, "lon": 18.5178565, "tags": {"tourism": "viewpoint"}}, {"type": "node", "id": 1507141414, "lat": 47.2220009, "lon": 18.5032791, "tags": {"tourism": "viewpoint"}}, {"type": "node", "id": 1812666513, "lat": 46.9776231, "lon": 18.1652244, "tags": {"tourism": "viewpoint"}}, {"type": "node", "id": 1878357846, "lat": 47.0593747, "lon": 17.9976895, "tags": {"ele": "285", "name": "Megyehegyi kil\u00e1t\u00e1s", "tourism": "viewpoint"}}, {"type": "node", "id": 2223142349, "lat": 47.0116824, "lon": 18.1627494, "tags": {"tourism": "viewpoint"}}, {"type": "node", "id": 2342169287, "lat": 46.9970214, "lon": 17.9687541}, {"type": "node", "id": 2358730423, "lat": 47.0201044, "lon": 18.1479475, "tags": {"tourism": "viewpoint", "wheelchair": "yes"}}, {"type": "node", "id": 2393604997, "lat": 47.0073117, "lon": 17.980157}, {"type": "node", "id": 2393604998, "lat": 47.0073132, "lon": 17.9801334}, {"type": "node", "id": 2393604999, "lat": 47.0073174, "lon": 17.9801791}, {"type": "node", "id": 2393605000, "lat": 47.0073351, "lon": 17.9801002}, {"type": "node", "id": 2393605001, "lat": 47.0073444, "lon": 17.9802027}, {"type": "node", "id": 2393605002, "lat": 47.0073664, "lon": 17.9801048}, {"type": "node", "id": 2393605003, "lat": 47.0073614, "lon": 17.9803131}, {"type": "node", "id": 2393605004, "lat": 47.0073779, "lon": 17.9801213}, {"type": "node", "id": 2393605005, "lat": 47.0073734, "lon": 17.9801871}, {"type": "node", "id": 2393605006, "lat": 47.0073833, "lon": 17.9801436}, {"type": "node", "id": 2393605007, "lat": 47.007396, "lon": 17.9802999}, {"type": "node", "id": 2830012209, "lat": 47.2728331, "lon": 18.041115, "tags": {"height": "18.48", "man_made": "tower", "mapillary": "501732747619440", "name": "Sz\u00e9chenyi Zsigmond kil\u00e1t\u00f3", "operator": "HM Verga Zrt", "source": "survey", "survey:date": "2022-04-11", "tourism": "viewpoint", "tower:type": "observation", "wikidata": "Q110253868"}}, {"type": "node", "id": 2923543838, "lat": 46.9798665, "lon": 18.1665964, "tags": {"tourism": "viewpoint"}}, {"type": "node", "id": 2923543906, "lat": 46.9914071, "lon": 18.1698267, "tags": {"direction": "280", "tourism": "viewpoint"}}, {"type": "node", "id": 2923543923, "lat": 47.0049632, "lon": 18.1674876, "tags": {"tourism": "viewpoint"}}, {"type": "node", "id": 2929468166, "lat": 46.9933444, "lon": 18.169918, "tags": {"tourism": "viewpoint"}}, {"type": "node", "id": 2929468593, "lat": 47.0080377, "lon": 18.1652608, "tags": {"tourism": "viewpoint"}}, {"type": "node", "id": 2932481735, "lat": 47.0214911, "lon": 18.1460992, "tags": {"tourism": "viewpoint"}}, {"type": "node", "id": 2961951208, "lat": 46.9719863, "lon": 18.1627977, "tags": {"name": "Panor\u00e1ma Kil\u00e1t\u00f3", "tourism": "viewpoint"}}, {"type": "node", "id": 3006841896, "lat": 47.2241091, "lon": 18.1563342, "tags": {"man_made": "tower", "name": "Maderspach Viktor-kil\u00e1t\u00f3", "tourism": "viewpoint", "tower:type": "observation"}}, {"type": "node", "id": 3012318188, "lat": 47.0492966, "lon": 17.9861549, "tags": {"name": "Ember-szikla", "natural": "rock", "tourism": "viewpoint"}}, {"type": "node", "id": 3025823559, "lat": 47.2028439, "lon": 17.9504522, "tags": {"name": "Tob\u00e1n-szikla", "natural": "cliff", "tourism": "viewpoint"}}, {"type": "node", "id": 3028510945, "lat": 47.1927414, "lon": 18.5406121, "tags": {"man_made": "tower", "material": "wood", "name": "Mad\u00e1rmegfigyel\u0151 torony", "operator": "DINPI", "tourism": "viewpoint", "tower:type": "observation"}}, {"type": "node", "id": 3064048154, "lat": 47.2255903, "lon": 18.0948655, "tags": {"direction": "315-90", "is_in": "Fajdas-hegys\u00e9g; Bakony", "name": "Kil\u00e1t\u00e1s", "ref": "GCHARD+Kil\u00e1t\u00e1s2", "tourism": "viewpoint", "url": "http://geocaching.hu/caches.geo?id=4940"}}, {"type": "node", "id": 3201430539, "lat": 47.0075733, "lon": 17.9511967, "tags": {"tourism": "viewpoint"}}, {"type": "node", "id": 3215770314, "lat": 47.3144099, "lon": 18.2173091, "tags": {"tourism": "viewpoint"}}, {"type": "node", "id": 3237440009, "lat": 47.2627173, "lon": 18.1693425, "tags": {"name": "Kil\u00e1t\u00f3hely a Burok-v\u00f6lgyre", "tourism": "viewpoint"}}, {"type": "node", "id": 3255165544, "lat": 47.0363123, "lon": 18.0943635, "tags": {"MCC": "216", "MNC": "01; 03; 30; 70", "communication:mobile_phone": "gsm;umts;lte", "gsm:LAC": "fixme; fixme; fixme; 120", "gsm:cellid": "fixme; fixme; fixme; 30981;30982;30983;30984;30985", "lte:LAC": "23213; fixme; 23213; 3209", "lte:cellid": "6;7;8; fixme; 6;7;8; 0;1;2", "lte:eNB": "4757; fixme; 4757; 3098", "man_made": "tower", "name": "So\u00f3s-hegyi kil\u00e1t\u00f3", "operator": "Yettel; Digi; Telekom; Vodafone", "ref": "Balatonkenese, So\u00f3s-hegyi kil\u00e1t\u00f3", "ref:vodafone": "3098", "source": "survey; OpenCellID", "survey:date": "2015-07-10", "tourism": "viewpoint", "tower:type": "observation", "umts:LAC": "fixme; none; fixme; 220", "umts:RNC": "fixme; none; fixme; 20", "umts:cellid": "fixme; none; fixme; 30981;30982;30983;30984;30985;30986;30987;30988;30989", "wheelchair": "no"}}, {"type": "node", "id": 3255165568, "lat": 47.0347698, "lon": 18.0976746, "tags": {"tourism": "viewpoint"}}, {"type": "node", "id": 3337488900, "lat": 47.2483695, "lon": 17.9679276, "tags": {"man_made": "tower", "name": "Cseng\u0151-hegyi kil\u00e1t\u00f3", "source": "survey", "survey:date": "2021-10-02", "tourism": "viewpoint", "tower:type": "observation"}}, {"type": "node", "id": 3343700214, "lat": 47.2109362, "lon": 18.451279, "tags": {"is_in": "\u00d6reghegy", "name": "V\u00e1r", "name:en": "Castle", "source": "survey", "tourism": "viewpoint"}}, {"type": "node", "id": 3355819022, "lat": 47.2922774, "lon": 18.2595847, "tags": {"source": "turistautak.hu", "tourism": "viewpoint", "url": "http://turistautak.hu/poi.php?id=102958"}}, {"type": "node", "id": 3441443885, "lat": 46.96005, "lon": 18.155, "tags": {"source": "turistautak.hu", "source:date": "2012-10-14", "tourism": "viewpoint", "url": "http://turistautak.hu/poi.php?id=494"}}, {"type": "node", "id": 3458342324, "lat": 46.994738, "lon": 17.970465, "tags": {"source": "turistautak.hu", "source:date": "2011-05-26", "tourism": "viewpoint", "url": "http://turistautak.hu/poi.php?id=93239"}}, {"type": "node", "id": 3463077593, "lat": 47.1683639, "lon": 18.4142254, "tags": {"alt_name": "Mad\u00e1rmegfigyel\u0151 torony", "man_made": "tower", "mapillary": "153811649940779", "name": "Bibic-les", "source": "turistautak.hu", "source:date": "2012-03-29", "tourism": "viewpoint", "tower:type": "observation", "url": "http://turistautak.hu/poi.php?id=58201"}}, {"type": "node", "id": 3463077721, "lat": 47.191422, "lon": 18.410272, "tags": {"description": "Egy terasz, ahonnan kil\u00e1t\u00e1s ny\u00edlik a romkertre.", "source": "turistautak.hu", "source:date": "2011-06-25", "tourism": "viewpoint", "url": "http://turistautak.hu/poi.php?id=4817"}}, {"type": "node", "id": 3463077773, "lat": 47.204489, "lon": 18.468851, "tags": {"source": "turistautak.hu", "source:date": "2011-06-25", "tourism": "viewpoint", "url": "http://turistautak.hu/poi.php?id=118590"}}, {"type": "node", "id": 3470010483, "lat": 47.027483, "lon": 18.226717, "tags": {"source": "turistautak.hu", "source:date": "2011-06-25", "tourism": "viewpoint", "url": "http://turistautak.hu/poi.php?id=43948"}}, {"type": "node", "id": 3471757562, "lat": 47.21744, "lon": 18.0341, "tags": {"source": "turistautak.hu", "source:date": "2013-03-02", "tourism": "viewpoint", "url": "http://turistautak.hu/poi.php?id=14902"}}, {"type": "node", "id": 3471757565, "lat": 47.221108, "lon": 18.194652, "tags": {"source": "turistautak.hu", "source:date": "2013-03-02", "tourism": "viewpoint", "url": "http://turistautak.hu/poi.php?id=126231"}}, {"type": "node", "id": 3471757567, "lat": 47.222728, "lon": 18.195471, "tags": {"source": "turistautak.hu", "source:date": "2013-03-02", "tourism": "viewpoint", "url": "http://turistautak.hu/poi.php?id=126230"}}, {"type": "node", "id": 3471757574, "lat": 47.2264719, "lon": 18.0966992, "tags": {"direction": "225-0", "is_in": "Fajdas-hegys\u00e9g; Bakony", "name": "Kil\u00e1t\u00e1s", "ref": "GCHARD+Kil\u00e1t\u00e1s", "source": "turistautak.hu", "source:date": "2013-03-02", "tourism": "viewpoint", "url": "http://turistautak.hu/poi.php?id=37423", "website": "http://geocaching.hu/caches.geo?id=4940"}}, {"type": "node", "id": 3471757575, "lat": 47.227804, "lon": 18.101033, "tags": {"direction": "180-315", "is_in": "Fajdas-hegys\u00e9g; Bakony", "name": "Kil\u00e1t\u00e1s", "ref": "GCHARD+Kil\u00e1t\u00e1s4", "source": "turistautak.hu", "source:date": "2013-03-02", "tourism": "viewpoint", "url": "http://turistautak.hu/poi.php?id=113196", "website": "http://geocaching.hu/caches.geo?id=4940"}}, {"type": "node", "id": 3474931973, "lat": 47.270517, "lon": 18.160267, "tags": {"source": "turistautak.hu", "source:date": "2013-03-02", "tourism": "viewpoint", "url": "http://turistautak.hu/poi.php?id=137564"}}, {"type": "node", "id": 3474931987, "lat": 47.279673, "lon": 18.250654, "tags": {"source": "turistautak.hu", "source:date": "2013-03-02", "tourism": "viewpoint", "url": "http://turistautak.hu/poi.php?id=97473"}}, {"type": "node", "id": 3474931991, "lat": 47.280689, "lon": 18.254804, "tags": {"source": "turistautak.hu", "source:date": "2013-03-02", "tourism": "viewpoint", "url": "http://turistautak.hu/poi.php?id=97471"}}, {"type": "node", "id": 3474931992, "lat": 47.281112, "lon": 18.255575, "tags": {"source": "turistautak.hu", "source:date": "2013-03-02", "tourism": "viewpoint", "url": "http://turistautak.hu/poi.php?id=97472"}}, {"type": "node", "id": 3483454217, "lat": 47.2350059, "lon": 18.284052}, {"type": "node", "id": 3483454225, "lat": 47.2350499, "lon": 18.2841341}, {"type": "node", "id": 3483454227, "lat": 47.2349968, "lon": 18.2841959}, {"type": "node", "id": 3483454230, "lat": 47.2349527, "lon": 18.2841138}, {"type": "node", "id": 3747253380, "lat": 47.0163609, "lon": 18.1540568, "tags": {"tourism": "viewpoint"}}, {"type": "node", "id": 3747253381, "lat": 47.0168998, "lon": 18.1530541, "tags": {"tourism": "viewpoint"}}, {"type": "node", "id": 3747285505, "lat": 46.998927, "lon": 18.1659386, "tags": {"name": "Gumir\u00e1dli Szabadstrand", "tourism": "viewpoint"}}, {"type": "node", "id": 3754108717, "lat": 47.0336566, "lon": 18.0068272}, {"type": "node", "id": 4079968207, "lat": 47.2583382, "lon": 18.3543879, "tags": {"tourism": "viewpoint"}}, {"type": "node", "id": 4093280418, "lat": 47.0492338, "lon": 17.9862168, "tags": {"tourism": "viewpoint"}}, {"type": "node", "id": 4160870173, "lat": 47.1560991, "lon": 18.1004209}, {"type": "node", "id": 4160870174, "lat": 47.1561004, "lon": 18.1004322}, {"type": "node", "id": 4160870175, "lat": 47.1561009, "lon": 18.1004098}, {"type": "node", "id": 4160870176, "lat": 47.1561045, "lon": 18.1004419}, {"type": "node", "id": 4160870177, "lat": 47.1561054, "lon": 18.1004005}, {"type": "node", "id": 4160870178, "lat": 47.1561109, "lon": 18.1004485}, {"type": "node", "id": 4160870179, "lat": 47.156112, "lon": 18.1003944}, {"type": "node", "id": 4160870180, "lat": 47.1561184, "lon": 18.1004511}, {"type": "node", "id": 4160870181, "lat": 47.1561196, "lon": 18.1003925}, {"type": "node", "id": 4160870182, "lat": 47.1561261, "lon": 18.1004492}, {"type": "node", "id": 4160870183, "lat": 47.1561272, "lon": 18.1003951}, {"type": "node", "id": 4160870184, "lat": 47.1561327, "lon": 18.1004431}, {"type": "node", "id": 4160870185, "lat": 47.1561335, "lon": 18.1004017}, {"type": "node", "id": 4160870186, "lat": 47.1561372, "lon": 18.1004338}, {"type": "node", "id": 4160870187, "lat": 47.1561376, "lon": 18.1004114}, {"type": "node", "id": 4160870188, "lat": 47.1561389, "lon": 18.1004227}, {"type": "node", "id": 4573558732, "lat": 47.0337013, "lon": 18.0068117}, {"type": "node", "id": 4573558733, "lat": 47.0336675, "lon": 18.0068486}, {"type": "node", "id": 4573558734, "lat": 47.0336446, "lon": 18.0068035}, {"type": "node", "id": 4573558735, "lat": 47.0336785, "lon": 18.0067666}, {"type": "node", "id": 4770796321, "lat": 47.3104113, "lon": 18.2203113, "tags": {"mapillary": "4107403912651131", "name": "K\u00e1rolyi-kil\u00e1t\u00f3", "name:hu": "K\u00e1rolyi-kil\u00e1t\u00f3", "tourism": "viewpoint", "wikidata": "Q110087239", "wikipedia": "hu:K\u00e1rolyi-kil\u00e1t\u00f3"}}, {"type": "node", "id": 4772639252, "lat": 47.2159233, "lon": 18.0359043, "tags": {"name": "(GCMoro)", "tourism": "viewpoint"}}, {"type": "node", "id": 4922311139, "lat": 47.2690087, "lon": 18.1523323, "tags": {"tourism": "viewpoint"}}, {"type": "node", "id": 5007755142, "lat": 47.2008198, "lon": 18.1389748, "tags": {"description": "A v\u00e1r p\u00e1rk\u00e1nya k\u00f6rbej\u00e1rhat\u00f3", "level": "4", "tourism": "viewpoint"}}, {"type": "node", "id": 5475602621, "lat": 47.0706992, "lon": 18.0260431, "tags": {"name": "F\u00fczf\u0151i kil\u00e1t\u00f3", "tourism": "viewpoint"}}, {"type": "node", "id": 5538513763, "lat": 47.2168792, "lon": 18.1141537, "tags": {"direction": "45", "tourism": "viewpoint"}}, {"type": "node", "id": 5810293648, "lat": 47.3056875, "lon": 18.2265224, "tags": {"direction": "225", "tourism": "viewpoint"}}, {"type": "node", "id": 5858384637, "lat": 47.0611461, "lon": 18.001786, "tags": {"tourism": "viewpoint"}}, {"type": "node", "id": 5893178006, "lat": 47.1717598, "lon": 18.4196326, "tags": {"direction": "180-270", "tourism": "viewpoint"}}, {"type": "node", "id": 6017799592, "lat": 47.173306, "lon": 18.417517, "tags": {"amenity": "binoculars", "direction": "90-225", "fee": "no", "mapillary": "305419881100370", "tourism": "viewpoint"}}, {"type": "node", "id": 6017800256, "lat": 47.1733016, "lon": 18.4176506, "tags": {"amenity": "binoculars", "direction": "90-225", "fee": "no", "mapillary": "183212686985446", "tourism": "viewpoint"}}, {"type": "node", "id": 6356080246, "lat": 47.0073881, "lon": 17.9802553}, {"type": "node", "id": 6356080247, "lat": 47.0073534, "lon": 17.9802678}, {"type": "node", "id": 6356080248, "lat": 47.0073557, "lon": 17.9802669}, {"type": "node", "id": 6356080249, "lat": 47.0073857, "lon": 17.9802562}, {"type": "node", "id": 6356080250, "lat": 47.0073816, "lon": 17.9801671}, {"type": "node", "id": 6356080251, "lat": 47.0073215, "lon": 17.9801132}, {"type": "node", "id": 6356080252, "lat": 47.0073511, "lon": 17.9800973}, {"type": "node", "id": 6356080253, "lat": 47.0073291, "lon": 17.9801955}, {"type": "node", "id": 6418350681, "lat": 47.2246373, "lon": 18.2588596, "tags": {"direction": "225", "source": "survey", "survey:date": "2019-04-20", "tourism": "viewpoint"}}, {"type": "node", "id": 6497439232, "lat": 47.1994921, "lon": 18.4019344, "tags": {"description": "300/? mm Newton reflektor; 200/? mm MEADE Smidt-Cassegrain", "ele": "130", "man_made": "telescope", "surveillance": "astronomy", "surveillance:type": "viewpoint", "telescope:diameter": "0.3", "telescope:type": "optical", "tourism": "viewpoint"}}, {"type": "node", "id": 6568750072, "lat": 47.2261146, "lon": 18.0917197, "tags": {"is_in": "Fajdas-hegys\u00e9g; Bakony", "name": "Kil\u00e1t\u00e1s 3", "ref": "GCHARD+Kil\u00e1t\u00e1s3", "tourism": "viewpoint", "url": "http://geocaching.hu/caches.geo?id=4940"}}, {"type": "node", "id": 7142789193, "lat": 47.2223317, "lon": 18.1996662, "tags": {"tourism": "viewpoint"}}, {"type": "node", "id": 7414837565, "lat": 47.130479, "lon": 17.9915645, "tags": {"direction": "225-90", "name": "S\u00e9d", "tourism": "viewpoint"}}, {"type": "node", "id": 7655176465, "lat": 47.0400566, "lon": 18.0896054, "tags": {"name": "Kil\u00e1t\u00f3", "tourism": "viewpoint"}}, {"type": "node", "id": 7874425815, "lat": 46.9970369, "lon": 17.9687139}, {"type": "node", "id": 7874425816, "lat": 46.9970837, "lon": 17.9687533}, {"type": "node", "id": 7874425817, "lat": 46.9970682, "lon": 17.9687928}, {"type": "node", "id": 7874425818, "lat": 46.9970371, "lon": 17.9687929}, {"type": "node", "id": 7874425819, "lat": 46.997068, "lon": 17.9687138}, {"type": "node", "id": 8245207654, "lat": 47.1275639, "lon": 18.0639428, "tags": {"ele": "230", "name": "Sz\u00e9p kil\u00e1t\u00e1s!", "tourism": "viewpoint"}}, {"type": "node", "id": 8245207655, "lat": 47.1233126, "lon": 18.0613974, "tags": {"ele": "253", "name": "Sz\u00e9p kil\u00e1t\u00e1s!", "tourism": "viewpoint"}}, {"type": "node", "id": 8245207665, "lat": 47.1223116, "lon": 18.0605122, "tags": {"name": "Sz\u00e9p kil\u00e1t\u00e1s!", "tourism": "viewpoint"}}, {"type": "node", "id": 8245207666, "lat": 47.1217969, "lon": 18.0599812, "tags": {"name": "Sz\u00e9p kil\u00e1t\u00e1s!", "tourism": "viewpoint"}}, {"type": "node", "id": 8245209235, "lat": 47.1364297, "lon": 18.0735395, "tags": {"name": "Sz\u00e9p kil\u00e1t\u00e1s!", "tourism": "viewpoint"}}, {"type": "node", "id": 8794888743, "lat": 46.9900971, "lon": 18.1693283, "tags": {"tourism": "viewpoint"}}, {"type": "node", "id": 8817820595, "lat": 47.2020748, "lon": 18.4826866, "tags": {"direction": "45-270", "name": "Aranybulla", "tourism": "viewpoint"}}, {"type": "node", "id": 8939299922, "lat": 47.1928828, "lon": 18.5404777, "tags": {"name": "Kil\u00e1t\u00f3", "tourism": "viewpoint"}}, {"type": "node", "id": 9214646234, "lat": 47.1670847, "lon": 18.1106457, "tags": {"tourism": "viewpoint"}}, {"type": "node", "id": 9214646312, "lat": 47.1665352, "lon": 18.1153111, "tags": {"tourism": "viewpoint"}}, {"type": "node", "id": 9214747881, "lat": 47.165973, "lon": 18.1107453, "tags": {"tourism": "viewpoint"}}, {"type": "node", "id": 9654290175, "lat": 47.1584754, "lon": 18.072544, "tags": {"ele": "185", "natural": "peak", "tourism": "viewpoint"}}, {"type": "node", "id": 9866100358, "lat": 47.2262994, "lon": 18.5183456, "tags": {"tourism": "viewpoint"}}, {"type": "node", "id": 9907671964, "lat": 47.050815, "lon": 18.0176537, "tags": {"tourism": "viewpoint"}}, {"type": "node", "id": 9970447162, "lat": 47.0693143, "lon": 18.0178893, "tags": {"ele": "205", "name": "Tobruki kil\u00e1t\u00e1s", "tourism": "viewpoint", "website": "https://geocaching.hu/caches.geo?id=3609"}}, {"type": "node", "id": 10034267024, "lat": 47.2686538, "lon": 18.1679562, "tags": {"survey:date": "2022-09-17", "tourism": "viewpoint"}}, {"type": "node", "id": 10083611717, "lat": 47.2252178, "lon": 18.5183523, "tags": {"name": "kil\u00e1t\u00f3hely", "tourism": "viewpoint"}}, {"type": "way", "id": 230933781, "nodes": [2393605005, 6356080249, 6356080246, 2393605007, 2393605003, 6356080247, 6356080248, 2393605001, 6356080253, 2393604999, 2393604997, 2393604998, 6356080251, 2393605000, 6356080252, 2393605002, 2393605004, 2393605006, 6356080250, 2393605005], "tags": {"building": "yes", "height": "15", "man_made": "tower", "name": "Csere-hegy", "opening_hours": "Mo-Su 11:00-19:00", "tourism": "viewpoint", "tower:type": "observation", "website": "http://www.turistamagazin.hu/a-balaton-felvidek-egyik-legszebb-kilatojanal-jartunk.html"}}, {"type": "way", "id": 341124137, "nodes": [3483454227, 3483454230, 3483454217, 3483454225, 3483454227], "tags": {"building": "yes", "name": "Csillaghegyi-kil\u00e1t\u00f3", "tourism": "viewpoint"}}, {"type": "way", "id": 414962910, "nodes": [4160870182, 4160870184, 4160870186, 4160870188, 4160870187, 4160870185, 4160870183, 4160870181, 4160870179, 4160870177, 4160870175, 4160870173, 4160870174, 4160870176, 4160870178, 4160870180, 4160870182], "tags": {"building": "yes", "description": "54-3011 sz\u00e1m\u00fa alapponton \u00e9p\u00fclt vasbeton geod\u00e9ziai m\u00e9r\u0151torony.", "ele": "210", "height": "8", "man_made": "tower", "material": "concrete", "name": "P\u00e9tihegy (m\u00e9r\u0151torony)", "operator": "F\u00f6mi", "start_date": "1986", "structure": "tube", "tourism": "viewpoint", "tower:type": "observation"}}, {"type": "way", "id": 461922062, "nodes": [4573558735, 4573558734, 3754108717, 4573558733, 4573558732, 4573558735], "tags": {"height": "3", "man_made": "tower", "name": "\u00d3v\u00e1ri messzel\u00e1t\u00f3", "old_name": "Wessel\u00e9nyi kil\u00e1t\u00f3", "tourism": "viewpoint", "tower:type": "observation"}}, {"type": "way", "id": 844146342, "nodes": [7874425818, 7874425817, 7874425816, 7874425819, 7874425815, 2342169287, 7874425818], "tags": {"description": "\u00dajra\u00e9p\u00edtve 2015-ben", "direction": "0-360", "man_made": "tower", "material": "wood", "name": "Somly\u00f3-hegyi kil\u00e1t\u00f3", "source": "survey", "start_date": "2015", "tourism": "viewpoint", "tower:type": "observation"}}]}