{"version": 0.6, "generator": "Overpass API 0.7.59 e21c39fe", "osm3s": {"timestamp_osm_base": "2023-02-28T18:14:22Z", "copyright": "The data included in this document is from www.openstreetmap.org. The data is made available under ODbL."}, "elements": [{"type": "node", "id": 305016597, "lat": 39.5756018, "lon": 2.6536235, "tags": {"artist_name": "Enric Claras\u00f3", "artwork_type": "statue", "description": "Monument to James I of Aragon 1208 - 1276", "historic": "monument", "importance": "regional", "level": "0", "name": "Rei en Jaume I", "name:ca": "Rei en Jaume I", "name:en": "James I of Aragon", "name:es": "Monumento al Rey Jaime I", "tourism": "artwork", "wheelchair": "yes", "wikidata": "Q212052", "wikipedia": "es:Jaime I de Arag\u00f3n"}}, {"type": "node", "id": 850914771, "lat": 39.5712295, "lon": 2.6575433, "tags": {"artist_name": "Aligi Sassu", "artwork_type": "sculpture", "name": "Cavall encabritat", "name:ca": "Cavall encabritat", "tourism": "artwork"}}, {"type": "node", "id": 1256743542, "lat": 39.5723865, "lon": 2.6507369, "tags": {"artwork_subject": "abstract", "artwork_type": "sculpture", "material": "stone", "source": "survey", "tourism": "artwork"}}, {"type": "node", "id": 1420346834, "lat": 39.5452956, "lon": 2.6322468, "tags": {"tourism": "artwork"}}, {"type": "node", "id": 2766710945, "lat": 39.5464351, "lon": 2.3900576, "tags": {"artwork_subject": "abstract", "artwork_type": "sculpture", "material": "metal", "tourism": "artwork"}}, {"type": "node", "id": 2766710946, "lat": 39.5473584, "lon": 2.3889134}, {"type": "node", "id": 2766710948, "lat": 39.5473799, "lon": 2.3888906}, {"type": "node", "id": 2766710952, "lat": 39.547386, "lon": 2.3889572}, {"type": "node", "id": 2766710953, "lat": 39.5474075, "lon": 2.3889344}, {"type": "node", "id": 2767011103, "lat": 39.5465286, "lon": 2.6223297, "tags": {"artist_name": "D. Jaime Mir", "artwork_type": "statue", "name": "ICARO", "tourism": "artwork"}}, {"type": "node", "id": 3869868752, "lat": 39.5729138, "lon": 2.6524383, "tags": {"artwork_subject": "figurative", "artwork_type": "sculpture", "historic": "memorial", "material": "bronze", "name": "Dona cosint", "tourism": "artwork"}}, {"type": "node", "id": 3869887222, "lat": 39.5677246, "lon": 2.6286786, "tags": {"artwork_subject": "figurative", "artwork_type": "bust", "historic": "memorial", "material": "bronze", "name": "Santiago Rusi\u00f1ol", "tourism": "artwork"}}, {"type": "node", "id": 3869963569, "lat": 39.5674437, "lon": 2.6461827, "tags": {"artist_name": "Lorenzo Rosello", "artwork_subject": "figurative", "artwork_type": "statue", "historic": "memorial", "material": "bronze", "name": "es Foner", "tourism": "artwork"}}, {"type": "node", "id": 3950078854, "lat": 39.5710867, "lon": 2.651482, "tags": {"source": "survey", "tourism": "artwork"}}, {"type": "node", "id": 4222651126, "lat": 39.5684461, "lon": 2.6467082, "tags": {"artist_name": "Alexander Calder", "artwork_subject": "abstract", "artwork_type": "sculpture", "material": "metal", "name": "Nancy", "tourism": "artwork", "wikidata": "Q21971425"}}, {"type": "node", "id": 4503836039, "lat": 39.5692335, "lon": 2.6436851, "tags": {"artwork_type": "sculpture", "name": "Jaume Ferrer", "tourism": "artwork", "wheelchair": "yes"}}, {"type": "node", "id": 5801447231, "lat": 39.5087181, "lon": 2.5355086, "tags": {"tourism": "artwork"}}, {"type": "node", "id": 6370179884, "lat": 39.5626141, "lon": 2.662945, "tags": {"artist_name": "Remigia Caubet", "artwork_type": "statue", "material": "bronze", "name": "Nuredduna", "tourism": "artwork"}}, {"type": "node", "id": 6372021509, "lat": 39.5646817, "lon": 2.6523831, "tags": {"artwork_type": "sculpture", "tourism": "artwork"}}, {"type": "node", "id": 6383103046, "lat": 39.5678742, "lon": 2.6541673, "tags": {"artwork_type": "statue", "name": "Jafud\u00e0 Cresques", "tourism": "artwork"}}, {"type": "node", "id": 6585091107, "lat": 39.5072927, "lon": 2.5193341, "tags": {"name": "8", "name:ca": "8", "tourism": "artwork"}}, {"type": "node", "id": 7285629461, "lat": 39.5590058, "lon": 2.6733706, "tags": {"artwork_type": "bust", "name": "Aurora Picornell", "tourism": "artwork"}}, {"type": "node", "id": 7292150409, "lat": 39.5356846, "lon": 2.4550553, "tags": {"artwork_subject": "figurative", "artwork_type": "sculpture", "material": "metal", "tourism": "artwork"}}, {"type": "node", "id": 7292422337, "lat": 39.569274, "lon": 2.6422267, "tags": {"artwork_subject": "abstract", "artwork_type": "sculpture", "material": "metal", "tourism": "artwork"}}, {"type": "node", "id": 7292422338, "lat": 39.5695862, "lon": 2.6414864, "tags": {"artwork_subject": "abstract", "artwork_type": "sculpture", "material": "metal", "tourism": "artwork"}}, {"type": "node", "id": 7292449177, "lat": 39.568852, "lon": 2.6432487, "tags": {"artwork_subject": "figurative", "artwork_type": "statue", "material": "stone", "name": "Rub\u00e9n Dar\u00edo", "tourism": "artwork"}}, {"type": "node", "id": 7294155382, "lat": 39.5669728, "lon": 2.6461682, "tags": {"artwork_subject": "abstract", "artwork_type": "sculpture", "material": "metal", "tourism": "artwork"}}, {"type": "node", "id": 7294157351, "lat": 39.5729361, "lon": 2.6522635, "tags": {"artwork_subject": "figurative", "artwork_type": "bust", "material": "stone", "tourism": "artwork"}}, {"type": "node", "id": 7294159618, "lat": 39.5711752, "lon": 2.6521756, "tags": {"artwork_subject": "figurative", "artwork_type": "bust", "material": "bronze", "name": "Gabriel Fuster Mayans", "tourism": "artwork"}}, {"type": "node", "id": 7294240935, "lat": 39.5739217, "lon": 2.6524543, "tags": {"artist_name": "Rosa Serra", "artwork_subject": "figurative", "artwork_type": "sculpture", "material": "stone", "name": "Dona de Palma", "tourism": "artwork"}}, {"type": "node", "id": 7294273128, "lat": 39.5686628, "lon": 2.6468771, "tags": {"artwork_subject": "abstract", "artwork_type": "sculpture", "material": "metal", "tourism": "artwork"}}, {"type": "node", "id": 7294282405, "lat": 39.5677732, "lon": 2.6462539, "tags": {"artwork_subject": "abstract", "artwork_type": "sculpture", "material": "granite", "name": "J\u00f2nica", "tourism": "artwork"}}, {"type": "node", "id": 7294282890, "lat": 39.5724629, "lon": 2.650621, "tags": {"artwork_subject": "figurative", "artwork_type": "sculpture", "material": "stone", "note": "Roman warrior", "tourism": "artwork"}}, {"type": "node", "id": 7294282891, "lat": 39.5725027, "lon": 2.650691, "tags": {"artwork_subject": "figurative", "artwork_type": "sculpture", "material": "stone", "note": "Roman warrior", "tourism": "artwork"}}, {"type": "node", "id": 7294313568, "lat": 39.5688362, "lon": 2.6428717, "tags": {"artist_name": "Pep Llamb\u00edas", "artwork_subject": "abstract", "artwork_type": "sculpture", "material": "metal", "name": "PALMA", "tourism": "artwork"}}, {"type": "node", "id": 7379842094, "lat": 39.5769765, "lon": 2.6464544, "tags": {"name": "el Tub", "tourism": "artwork"}}, {"type": "node", "id": 7411615176, "lat": 39.5663534, "lon": 2.6307037, "tags": {"artwork_type": "statue", "name": "Vaixell", "tourism": "artwork"}}, {"type": "node", "id": 7476059150, "lat": 39.6113467, "lon": 2.6768565, "tags": {"artwork_type": "sculpture", "name": "Indiot", "tourism": "artwork"}}, {"type": "node", "id": 7485391414, "lat": 39.6079571, "lon": 2.6735567, "tags": {"artwork_type": "sculpture", "name": "Indiot", "tourism": "artwork"}}, {"type": "node", "id": 7517560713, "lat": 39.6022863, "lon": 2.6618284, "tags": {"tourism": "artwork"}}, {"type": "node", "id": 7570206746, "lat": 39.5820965, "lon": 2.6754558, "tags": {"tourism": "artwork"}}, {"type": "node", "id": 7629138551, "lat": 39.5705708, "lon": 2.7201606, "tags": {"artwork_type": "column", "tourism": "artwork"}}, {"type": "node", "id": 7684420408, "lat": 39.5947481, "lon": 2.692382, "tags": {"artwork_type": "statue", "name": "La Vocaci\u00f3n", "tourism": "artwork"}}, {"type": "node", "id": 8233640537, "lat": 39.5280034, "lon": 2.540865, "tags": {"name": "6", "name:ca": "6", "tourism": "artwork"}}, {"type": "node", "id": 8274997757, "lat": 39.571491, "lon": 2.6413164, "tags": {"artist_name": "Aligi Sassu", "artwork_type": "sculpture", "name": "El Ciclista", "tourism": "artwork"}}, {"type": "node", "id": 8295130270, "lat": 39.5252017, "lon": 2.755074, "tags": {"artwork_type": "sculpture", "tourism": "artwork"}}, {"type": "node", "id": 8367060429, "lat": 39.5781719, "lon": 2.6736568, "tags": {"artist_name": "Jaume Mir", "artwork_subject": "figurative", "artwork_type": "statue", "name": "Joanot Colom", "name:ca": "Joanot Colom", "subject:wikidata": "Q9012118", "tourism": "artwork"}}, {"type": "node", "id": 9082361705, "lat": 39.5686839, "lon": 2.6468913, "tags": {"name": "Monument Joan Miro", "tourism": "artwork"}}, {"type": "node", "id": 9212625918, "lat": 39.5740503, "lon": 2.6480455, "tags": {"artist_name": "Dami\u00e0 Ramis Caubet", "artwork_type": "bust", "name": "Cardenal Despuig", "tourism": "artwork"}}, {"type": "node", "id": 9412206982, "lat": 39.4881691, "lon": 2.8893865, "tags": {"artist_name": "Tom\u00e0s Vila", "artwork_type": "sculpture", "material": "stone", "name": "Sabaters", "name:ca": "Sabaters", "tourism": "artwork"}}, {"type": "node", "id": 9510307429, "lat": 39.4922522, "lon": 2.4812177, "tags": {"name": "A", "name:ca": "A", "tourism": "artwork"}}, {"type": "node", "id": 9520316178, "lat": 39.6099, "lon": 2.7103825, "tags": {"artwork_type": "sculpture", "tourism": "artwork"}}, {"type": "node", "id": 9909952527, "lat": 39.5725818, "lon": 2.6430234, "tags": {"tourism": "artwork"}}, {"type": "node", "id": 9975609814, "lat": 39.5669069, "lon": 2.6445125, "tags": {"artwork_type": "bust", "name": "Antoni Barcel\u00f3", "name:ca": "Antoni Barcel\u00f3", "tourism": "artwork"}}, {"type": "node", "id": 10208288825, "lat": 39.5779303, "lon": 2.6445287, "tags": {"artist_name": "Albert Pinya", "artwork_type": "sculpture", "name": "N\u00favol", "tourism": "artwork"}}, {"type": "node", "id": 10594630660, "lat": 39.5640236, "lon": 2.6276594, "tags": {"artwork_type": "sculpture", "name": "Font de l'Amor", "tourism": "artwork"}}, {"type": "way", "id": 271725706, "nodes": [2766710948, 2766710953, 2766710952, 2766710946, 2766710948], "tags": {"artist_name": "Enrique Salamanca", "artwork_subject": "abstract", "artwork_type": "sculpture", "building": "yes", "name": "Ventana buscando el mar", "start_date": "2007", "tourism": "artwork"}}]}