{"version": 0.6, "generator": "Overpass API 0.7.59 e21c39fe", "osm3s": {"timestamp_osm_base": "2023-03-01T09:27:36Z", "copyright": "The data included in this document is from www.openstreetmap.org. The data is made available under ODbL."}, "elements": [{"type": "node", "id": 410630356, "lat": 47.2256835, "lon": 18.5830659, "tags": {"height": "14", "man_made": "tower", "name": "Kil\u00e1t\u00f3", "operator": "VADEX Kft.", "tourism": "viewpoint", "tower:type": "observation"}}, {"type": "node", "id": 738654263, "lat": 47.2490018, "lon": 18.9028217, "tags": {"name": "T\u0171zolt\u00f3-torony", "tourism": "viewpoint"}}, {"type": "node", "id": 2185202576, "lat": 47.2174662, "lon": 18.5797654, "tags": {"tourism": "viewpoint"}}, {"type": "node", "id": 2216137783, "lat": 47.0286214, "lon": 18.6594683, "tags": {"tourism": "viewpoint"}}, {"type": "node", "id": 2509395563, "lat": 47.0596088, "lon": 18.9091556, "tags": {"name": "Kil\u00e1t\u00f3", "tourism": "viewpoint"}}, {"type": "node", "id": 2880437983, "lat": 47.2460129, "lon": 18.5882372, "tags": {"tourism": "viewpoint"}}, {"type": "node", "id": 3075011785, "lat": 47.1611415, "lon": 18.9453304, "tags": {"addr:city": "R\u00e1ckeve", "addr:country": "HU", "addr:housenumber": "25", "addr:postcode": "2300", "addr:street": "Kossuth Lajos utca", "charge": "500 Ft", "contact:facebook": "https://www.facebook.com/tuztorony.rackeve/", "fee": "yes", "man_made": "tower", "name": "T\u0171ztorony-kil\u00e1t\u00f3", "opening_hours": "We 08:00-14:00; Fr 08:00-14:00", "tourism": "viewpoint", "tower:type": "observation"}}, {"type": "node", "id": 3130858662, "lat": 47.2634778, "lon": 18.9151824, "tags": {"man_made": "obelisk", "name": "Obeliszk", "obelisk:size": "medium", "tourism": "viewpoint"}}, {"type": "node", "id": 3257048766, "lat": 47.1817075, "lon": 18.560837, "tags": {"access": "yes", "fee": "no", "height": "5", "leisure": "bird_hide", "man_made": "tower", "material": "wood", "opening_hours": "24/7", "source": "survey", "tourism": "viewpoint", "tower:construction": "freestanding", "tower:type": "observation"}}, {"type": "node", "id": 3454478439, "lat": 47.029855, "lon": 18.959652, "tags": {"man_made": "tower", "name": "Mad\u00e1rles", "source": "turistautak.hu", "source:date": "2015-01-12", "tourism": "viewpoint", "tower:type": "observation", "url": "http://turistautak.hu/poi.php?id=86426"}}, {"type": "node", "id": 3454478440, "lat": 47.036335, "lon": 18.95302, "tags": {"man_made": "tower", "name": "Mad\u00e1rles", "source": "turistautak.hu", "source:date": "2015-01-12", "tourism": "viewpoint", "tower:type": "observation", "url": "http://turistautak.hu/poi.php?id=104303"}}, {"type": "node", "id": 3454479004, "lat": 46.964196, "lon": 18.94576, "tags": {"source": "turistautak.hu", "source:date": "2015-01-12", "tourism": "viewpoint", "url": "http://turistautak.hu/poi.php?id=98070"}}, {"type": "node", "id": 3471929569, "lat": 47.142966, "lon": 19.152393, "tags": {"man_made": "tower", "source": "turistautak.hu", "source:date": "2014-09-15", "tourism": "viewpoint", "tower:type": "observation", "url": "http://turistautak.hu/poi.php?id=153213"}}, {"type": "node", "id": 3485134538, "lat": 47.227775, "lon": 18.586385, "tags": {"man_made": "tower", "name": "Kil\u00e1t\u00f3 (kicsi)", "source": "turistautak.hu", "source:date": "2013-10-26", "tourism": "viewpoint", "tower:type": "observation", "url": "http://turistautak.hu/poi.php?id=161042"}}, {"type": "node", "id": 3488385364, "lat": 47.089467, "lon": 19.15605, "tags": {"man_made": "tower", "name": "Kil\u00e1t\u00f3", "source": "turistautak.hu", "source:date": "2013-03-17", "tourism": "viewpoint", "tower:type": "observation", "url": "http://turistautak.hu/poi.php?id=121177"}}, {"type": "node", "id": 3559353327, "lat": 47.2934102, "lon": 18.5682595, "tags": {"tourism": "viewpoint"}}, {"type": "node", "id": 3559353499, "lat": 47.3002319, "lon": 18.5743623, "tags": {"tourism": "viewpoint"}}, {"type": "node", "id": 4318517789, "lat": 47.2590506, "lon": 18.5903187, "tags": {"name": "Kil\u00e1t\u00f3pont", "tourism": "viewpoint"}}, {"type": "node", "id": 4382623092, "lat": 47.3388798, "lon": 18.9476431, "tags": {"tourism": "viewpoint"}}, {"type": "node", "id": 4450804894, "lat": 47.3568263, "lon": 18.9334675, "tags": {"name": "Panor\u00e1ma", "tourism": "viewpoint"}}, {"type": "node", "id": 4747523129, "lat": 47.2744788, "lon": 18.6619661, "tags": {"name": "Zsid\u00f3k\u0151-hegyi kil\u00e1t\u00e1s", "tourism": "viewpoint"}}, {"type": "node", "id": 4760713305, "lat": 47.1726233, "lon": 18.8933926, "tags": {"height": "25", "man_made": "tower", "material": "steel", "name": "Toronykakas p\u00e1lya", "operator": "Duna L\u00f6v\u00e9sz Sportegyes\u00fclet", "tourism": "viewpoint", "tower:type": "observation"}}, {"type": "node", "id": 4881643505, "lat": 47.2479913, "lon": 18.6261915, "tags": {"name": "Bence-hegyi panor\u00e1ma-parkol\u00f3", "tourism": "viewpoint"}}, {"type": "node", "id": 4918442535, "lat": 47.1180818, "lon": 19.1116043, "tags": {"addr:city": "Apaj", "addr:place": "R\u00e9ce tan\u00f6sv\u00e9ny", "description": "6,68 magnit\u00fad\u00f3", "name": "amat\u0151rcsillag\u00e1sz \u00e9szlel\u0151hely (6,68mn s\u00f6t\u00e9t \u00e9gbolt), Apaj", "tourism": "viewpoint", "website": "http://egkep.com/?pvdr"}}, {"type": "node", "id": 5029347678, "lat": 47.3455588, "lon": 18.9450521, "tags": {"name": "Attila v\u00e1ra", "tourism": "viewpoint"}}, {"type": "node", "id": 5029347687, "lat": 47.3522383, "lon": 18.9355075, "tags": {"tourism": "viewpoint"}}, {"type": "node", "id": 5274935705, "lat": 46.9634576, "lon": 18.9462402, "tags": {"name": "Kil\u00e1t\u00f3", "tourism": "viewpoint"}}, {"type": "node", "id": 5955639364, "lat": 47.2021206, "lon": 18.6086397, "tags": {"description": "A Velencei t\u00f3 partja gy\u00f6ny\u00f6r\u0171 term\u00e9szetes panor\u00e1m\u00e1t k\u00edn\u00e1l P\u00e1kozd - Sukor\u00f3 ir\u00e1ny\u00e1ban.", "tourism": "viewpoint"}}, {"type": "node", "id": 6365383795, "lat": 47.3582042, "lon": 18.9301006, "tags": {"name": "K\u00e1lv\u00e1ria kil\u00e1t\u00e1s", "tourism": "viewpoint"}}, {"type": "node", "id": 6508868100, "lat": 47.2744735, "lon": 18.661193, "tags": {"is_in": "Zsid\u00f3-hegy", "name": "H\u00e1rmaskereszt", "tourism": "viewpoint"}}, {"type": "node", "id": 6815391792, "lat": 47.1052274, "lon": 18.8330359, "tags": {"man_made": "tower", "name": "mad\u00e1rles", "tourism": "viewpoint", "tower:type": "observation"}}, {"type": "node", "id": 6935990300, "lat": 47.2991129, "lon": 18.5781715, "tags": {"addr:city": "Lovasber\u00e9ny", "addr:country": "HU", "addr:district": "Sz\u00e9kesfeh\u00e9rv\u00e1ri j\u00e1r\u00e1s", "addr:province": "Kom\u00e1rom-Esztergom megye", "addr:street": "J\u00e1noshegy d\u0171l\u0151", "alt_name": "Lovasber\u00e9ny, MCSE Csillagtanya \u00e9szlel\u0151hely", "description": "6,5 magnit\u00fad\u00f3 az \u00e9gbolt szabad szemes hat\u00e1rf\u00e9nyess\u00e9ge", "direction": "0-360", "ele": "230", "is_in": "J\u00e1noshegy d\u0171l\u0151; J\u00e1nos-hegy", "name": "amat\u0151rcsillag\u00e1sz \u00e9szlel\u0151hely (6,5mn darksky), Lovasber\u00e9ny", "start_date": "2019", "surface": "grass", "surveillance": "astronomy", "surveillance:type": "viewpoint", "tourism": "viewpoint", "url": "http://egkep.com", "url:darksky": "fenyszennyezes.hu", "website": "https://www.mcse.hu/eszlelohelyek/"}}, {"type": "node", "id": 6976108918, "lat": 47.3461417, "lon": 18.9446644, "tags": {"tourism": "viewpoint"}}, {"type": "node", "id": 8829329187, "lat": 47.2673415, "lon": 18.7873963, "tags": {"access": "public", "dark_sky": "medium", "fee": "yes", "leisure": "star_gazing", "surface": "grass", "surveillance": "astronomy", "surveillance:type": "viewpoint", "tourism": "viewpoint", "type": "astronomy"}}, {"type": "node", "id": 9579423433, "lat": 47.2432836, "lon": 18.5668476, "tags": {"direction": "SW", "tourism": "viewpoint"}}, {"type": "node", "id": 9644306865, "lat": 47.2672133, "lon": 18.6550005, "tags": {"tourism": "viewpoint"}}]}