{"version": 0.6, "generator": "Overpass API 0.7.59 e21c39fe", "osm3s": {"timestamp_osm_base": "2023-03-01T09:20:23Z", "copyright": "The data included in this document is from www.openstreetmap.org. The data is made available under ODbL."}, "elements": [{"type": "node", "id": 1269787132, "lat": 48.1289691, "lon": 21.7648756, "tags": {"name": "Csuha-K\u00e1llay-k\u00faria", "tourism": "museum"}}, {"type": "node", "id": 1946134641, "lat": 47.9523571, "lon": 21.7135106}, {"type": "node", "id": 1946134642, "lat": 47.9523209, "lon": 21.7136971}, {"type": "node", "id": 1946134643, "lat": 47.9517494, "lon": 21.7138131}, {"type": "node", "id": 1946134644, "lat": 47.9526142, "lon": 21.7141453}, {"type": "node", "id": 1946134645, "lat": 47.9525146, "lon": 21.7141827}, {"type": "node", "id": 1946134646, "lat": 47.9525158, "lon": 21.7136562}, {"type": "node", "id": 1946134647, "lat": 47.9523915, "lon": 21.7137859}, {"type": "node", "id": 1946134648, "lat": 47.9517311, "lon": 21.7136403}, {"type": "node", "id": 2777281884, "lat": 48.0068723, "lon": 21.7210992}, {"type": "node", "id": 2832129829, "lat": 47.8373588, "lon": 22.1279069, "tags": {"name": "B\u00e1thori Istv\u00e1n M\u00fazeum", "tourism": "museum"}}, {"type": "node", "id": 3015928321, "lat": 48.0077897, "lon": 21.7210487}, {"type": "node", "id": 3032687778, "lat": 48.0065734, "lon": 21.7203286}, {"type": "node", "id": 3032687781, "lat": 48.0066922, "lon": 21.720481}, {"type": "node", "id": 3045624146, "lat": 47.9535677, "lon": 21.7119337}, {"type": "node", "id": 3045624147, "lat": 47.9535971, "lon": 21.7120864}, {"type": "node", "id": 3045624148, "lat": 47.9538079, "lon": 21.7119961}, {"type": "node", "id": 3058998637, "lat": 48.0067736, "lon": 21.7205871}, {"type": "node", "id": 3058998638, "lat": 48.0074594, "lon": 21.7187424}, {"type": "node", "id": 3097611750, "lat": 47.9524528, "lon": 21.7140614}, {"type": "node", "id": 3097611751, "lat": 47.9524859, "lon": 21.7140473}, {"type": "node", "id": 3097611753, "lat": 47.9523159, "lon": 21.7137494}, {"type": "node", "id": 3097611754, "lat": 47.9523648, "lon": 21.7137995}, {"type": "node", "id": 3097611755, "lat": 47.9520674, "lon": 21.713741}, {"type": "node", "id": 3097611756, "lat": 47.952063, "lon": 21.7136946}, {"type": "node", "id": 3097611757, "lat": 47.9520899, "lon": 21.7136887}, {"type": "node", "id": 3097611758, "lat": 47.9520942, "lon": 21.7137378}, {"type": "node", "id": 3112956964, "lat": 47.9537796, "lon": 21.7118487}, {"type": "node", "id": 3471735422, "lat": 47.878718, "lon": 22.0207, "tags": {"source": "turistautak.hu", "source:date": "2013-03-26", "tourism": "museum", "url": "http://turistautak.hu/poi.php?id=151888"}}, {"type": "node", "id": 3471770301, "lat": 48.135217, "lon": 22.113717, "tags": {"description": "Ebben a h\u00e1zban sz\u00fcletett az els\u0151 magyar \u0171rhaj\u00f3s. A sz\u00fcl\u0151h\u00e1z mellett egy MIG-21-es is l\u00e1that\u00f3. Valamint az \u0171rrep\u00fcl\u00e9s 25. \u00e9vfordul\u00f3ja alkalm\u00e1b\u00f3l egy \u00fajrendezett ki\u00e1ll\u00edt\u00e1s is l\u00e1that\u00f3.", "name": "Farkas Bertalan sz\u00fcl\u0151h\u00e1za", "source": "turistautak.hu", "source:date": "2008-06-06", "tourism": "museum", "url": "http://turistautak.hu/poi.php?id=3233"}}, {"type": "node", "id": 3484823560, "lat": 47.915115, "lon": 22.21015, "tags": {"name": "Roma t\u00e1jh\u00e1z", "source": "turistautak.hu", "source:date": "2013-03-26", "tourism": "museum", "url": "http://turistautak.hu/poi.php?id=151907"}}, {"type": "node", "id": 3488372773, "lat": 47.956883, "lon": 21.715467, "tags": {"name": "Villamoskocsi (ki\u00e1ll\u00edt\u00e1s)", "source": "turistautak.hu", "source:date": "2011-09-23", "tourism": "museum", "url": "http://turistautak.hu/poi.php?id=23148"}}, {"type": "node", "id": 3489595479, "lat": 47.8732569, "lon": 21.8469052, "tags": {"name": "Kor\u00e1nyi Eml\u00e9kh\u00e1z", "source": "turistautak.hu", "source:date": "2008-06-06", "tourism": "museum", "url": "http://turistautak.hu/poi.php?id=30915"}}, {"type": "node", "id": 3489614009, "lat": 47.8727199, "lon": 21.8483391, "tags": {"name": "Szil\u00e1gyi Istv\u00e1n Eml\u00e9kh\u00e1z", "source": "turistautak.hu", "source:date": "2008-06-06", "tourism": "museum", "url": "http://turistautak.hu/poi.php?id=30914"}}, {"type": "node", "id": 3525643421, "lat": 47.9537598, "lon": 21.7118566}, {"type": "node", "id": 3525643426, "lat": 47.9536996, "lon": 21.7118808}, {"type": "node", "id": 3759011874, "lat": 47.9369673, "lon": 21.7571801, "tags": {"addr:city": "Ny\u00edregyh\u00e1za", "addr:housenumber": "15", "addr:postcode": "4405", "addr:street": "L\u00e1szl\u00f3csere d\u0171l\u0151", "description": "Nyitva tart\u00e1s: el\u0151re egyeztet\u00e9s szerint", "name": "R\u00e1di\u00f3 - Tv m\u00fazeum", "phone": "+36 30 239 4899", "tourism": "museum"}}, {"type": "node", "id": 3994889693, "lat": 47.7992957, "lon": 21.6814518}, {"type": "node", "id": 3994889694, "lat": 47.7993021, "lon": 21.6812982}, {"type": "node", "id": 3994889695, "lat": 47.7995247, "lon": 21.6813318}, {"type": "node", "id": 3994889696, "lat": 47.7995148, "lon": 21.6814872}, {"type": "node", "id": 4005215587, "lat": 48.0091822, "lon": 21.7209297}, {"type": "node", "id": 4009740039, "lat": 48.0093028, "lon": 21.7155596}, {"type": "node", "id": 4020556157, "lat": 48.0087451, "lon": 21.7165226}, {"type": "node", "id": 4020556164, "lat": 48.0068674, "lon": 21.7198023}, {"type": "node", "id": 4078171658, "lat": 47.9514124, "lon": 21.7188985, "tags": {"addr:city": "Ny\u00edregyh\u00e1za", "addr:housenumber": "2", "addr:postcode": "4400", "addr:street": "Vir\u00e1g utca", "name": "G\u00e1zm\u00fazeum", "note": "El\u0151zetes telefonos egyeztet\u00e9st k\u00f6vet\u0151en a l\u00e1togat\u00e1s d\u00edjtalan!", "phone": "+36 42 315 807;+36 42 599 431", "tourism": "museum", "website": "http://www.gazmuzeum.hu/"}}, {"type": "node", "id": 4143126893, "lat": 47.9358041, "lon": 21.8687948, "tags": {"name": "Napkori m\u00fazeum", "tourism": "museum"}}, {"type": "node", "id": 5499296989, "lat": 47.9408184, "lon": 21.7121453, "tags": {"addr:city": "Ny\u00edregyh\u00e1za", "addr:housenumber": "48", "addr:postcode": "4400", "addr:street": "M\u00f3ricz Zsigmond utca", "name": "Fels\u0151-Tiszavid\u00e9ki V\u00edz\u00fcgyi T\u00f6rt\u00e9neti Gy\u0171jtem\u00e9ny", "phone": "+36 42 502 200", "tourism": "museum"}}, {"type": "node", "id": 5908381932, "lat": 48.1645757, "lon": 21.6644109, "tags": {"building": "industrial", "man_made": "water_works", "name": "G\u0151z\u00fczem\u0171 szivatty\u00fatelep", "tourism": "museum"}}, {"type": "node", "id": 10136639006, "lat": 47.9401983, "lon": 21.9812648}, {"type": "node", "id": 10136639007, "lat": 47.940117, "lon": 21.9812852}, {"type": "node", "id": 10136639008, "lat": 47.9401083, "lon": 21.9812082}, {"type": "node", "id": 10136639009, "lat": 47.9401896, "lon": 21.9811878}, {"type": "way", "id": 184169038, "nodes": [1946134648, 1946134643, 3097611755, 3097611756, 3097611757, 3097611758, 1946134642, 3097611753, 3097611754, 1946134647, 3097611750, 3097611751, 1946134645, 1946134644, 1946134646, 1946134641, 1946134648], "tags": {"building": "yes", "name": "J\u00f3sa Andr\u00e1s m\u00fazeum", "tourism": "museum", "wheelchair": "no"}}, {"type": "way", "id": 300485081, "nodes": [3045624146, 3045624147, 3045624148, 3112956964, 3525643421, 3525643426, 3045624146], "tags": {"addr:city": "Ny\u00edregyh\u00e1za", "addr:housenumber": "15", "addr:postcode": "4400", "addr:street": "Bessenyei t\u00e9r", "building": "yes", "building:levels": "1", "castle_type": "manor", "historic": "castle", "name": "K\u00e1llay-k\u00faria", "tourism": "museum"}}, {"type": "way", "id": 301772322, "nodes": [4009740039, 4005215587, 3015928321, 2777281884, 3058998637, 3032687781, 3032687778, 4020556164, 3058998638, 4020556157, 4009740039], "tags": {"leisure": "park", "name": "S\u00f3st\u00f3i M\u00fazeumfalu", "tourism": "museum"}}, {"type": "way", "id": 396664421, "nodes": [3994889693, 3994889694, 3994889695, 3994889696, 3994889693], "tags": {"building": "yes", "fee": "no", "name": "\u00dajfeh\u00e9rt\u00f3i M\u00fazeum", "tourism": "museum"}}, {"type": "way", "id": 1107883756, "nodes": [10136639006, 10136639007, 10136639008, 10136639009, 10136639006], "tags": {"addr:city": "Magy", "addr:postcode": "4556", "building": "yes", "museum": "local", "name": "T\u00e1jh\u00e1z", "tourism": "museum"}}]}