{"version": 0.6, "generator": "Overpass API 0.7.59 e21c39fe", "osm3s": {"timestamp_osm_base": "2023-03-01T09:10:23Z", "copyright": "The data included in this document is from www.openstreetmap.org. The data is made available under ODbL."}, "elements": [{"type": "node", "id": 666907381, "lat": 47.8734277, "lon": 18.1897027}, {"type": "node", "id": 666907382, "lat": 47.8733854, "lon": 18.1897505}, {"type": "node", "id": 666907383, "lat": 47.8734364, "lon": 18.1898508}, {"type": "node", "id": 666907384, "lat": 47.8734818, "lon": 18.1897974}, {"type": "node", "id": 666907385, "lat": 47.8735085, "lon": 18.189849}, {"type": "node", "id": 666907386, "lat": 47.8734652, "lon": 18.1898994}, {"type": "node", "id": 666907387, "lat": 47.8734766, "lon": 18.1899006}, {"type": "node", "id": 666907388, "lat": 47.8734883, "lon": 18.1899082}, {"type": "node", "id": 666907389, "lat": 47.8734969, "lon": 18.1899213}, {"type": "node", "id": 666907390, "lat": 47.8733178, "lon": 18.1897714}, {"type": "node", "id": 666907391, "lat": 47.8734111, "lon": 18.1896686}, {"type": "node", "id": 666907392, "lat": 47.8735013, "lon": 18.189938}, {"type": "node", "id": 666907393, "lat": 47.8735022, "lon": 18.1899521}, {"type": "node", "id": 666907394, "lat": 47.8735006, "lon": 18.1899653}, {"type": "node", "id": 666907395, "lat": 47.8734896, "lon": 18.1899881}, {"type": "node", "id": 666907396, "lat": 47.873481, "lon": 18.1899947}, {"type": "node", "id": 666907397, "lat": 47.8734721, "lon": 18.1899983}, {"type": "node", "id": 666907398, "lat": 47.8734619, "lon": 18.1899975}, {"type": "node", "id": 666907399, "lat": 47.8734527, "lon": 18.1899929}, {"type": "node", "id": 666907400, "lat": 47.873444, "lon": 18.189981}, {"type": "node", "id": 666907401, "lat": 47.8734375, "lon": 18.1899655}, {"type": "node", "id": 666907402, "lat": 47.8734353, "lon": 18.1899474}, {"type": "node", "id": 666907403, "lat": 47.8734376, "lon": 18.1899295}, {"type": "node", "id": 666907404, "lat": 47.8734123, "lon": 18.1899583}, {"type": "node", "id": 697809882, "lat": 47.9938745, "lon": 18.2662255, "tags": {"name": "Obecn\u00e9 m\u00fazeum", "tourism": "museum"}}, {"type": "node", "id": 721571348, "lat": 47.7575915, "lon": 18.1268756}, {"type": "node", "id": 721572757, "lat": 47.7577766, "lon": 18.1270293}, {"type": "node", "id": 721574384, "lat": 47.7576249, "lon": 18.1268683}, {"type": "node", "id": 721575930, "lat": 47.7577539, "lon": 18.1271599}, {"type": "node", "id": 721577970, "lat": 47.7575965, "lon": 18.1268281}, {"type": "node", "id": 721581105, "lat": 47.7579208, "lon": 18.1269112}, {"type": "node", "id": 721581701, "lat": 47.7577001, "lon": 18.1267468}, {"type": "node", "id": 721583863, "lat": 47.7576269, "lon": 18.1266926}, {"type": "node", "id": 721585134, "lat": 47.757626, "lon": 18.1268493}, {"type": "node", "id": 721588378, "lat": 47.7575873, "lon": 18.1268435, "tags": {"historic": "memorial", "memorial": "plaque", "name": "Karol Halmos", "source": "survey"}}, {"type": "node", "id": 721589233, "lat": 47.7579408, "lon": 18.1270016}, {"type": "node", "id": 721590896, "lat": 47.757778, "lon": 18.1268048}, {"type": "node", "id": 721592199, "lat": 47.7576079, "lon": 18.1268855}, {"type": "node", "id": 721593557, "lat": 47.7576831, "lon": 18.127298}, {"type": "node", "id": 721595078, "lat": 47.7575918, "lon": 18.1268249}, {"type": "node", "id": 721596271, "lat": 47.7577847, "lon": 18.1270328}, {"type": "node", "id": 721597996, "lat": 47.7579494, "lon": 18.1270499}, {"type": "node", "id": 721599242, "lat": 47.7577212, "lon": 18.1271419}, {"type": "node", "id": 721600378, "lat": 47.7579552, "lon": 18.126939}, {"type": "node", "id": 721602675, "lat": 47.757792, "lon": 18.1269654}, {"type": "node", "id": 721603867, "lat": 47.7578643, "lon": 18.1274236}, {"type": "node", "id": 721605927, "lat": 47.7579539, "lon": 18.1270128}, {"type": "node", "id": 851429903, "lat": 47.8095398, "lon": 18.4421767}, {"type": "node", "id": 851429904, "lat": 47.8094965, "lon": 18.4421089}, {"type": "node", "id": 851429908, "lat": 47.8098123, "lon": 18.4417468}, {"type": "node", "id": 851429909, "lat": 47.8098529, "lon": 18.441826}, {"type": "node", "id": 852595509, "lat": 47.7495544, "lon": 18.2233246}, {"type": "node", "id": 852595510, "lat": 47.7496199, "lon": 18.2233618}, {"type": "node", "id": 852595513, "lat": 47.7496041, "lon": 18.223422}, {"type": "node", "id": 852595515, "lat": 47.7495353, "lon": 18.2233838}, {"type": "node", "id": 852595516, "lat": 47.7494941, "lon": 18.223546}, {"type": "node", "id": 852595518, "lat": 47.7494754, "lon": 18.223536}, {"type": "node", "id": 852595520, "lat": 47.7494551, "lon": 18.2236138}, {"type": "node", "id": 852595521, "lat": 47.7493711, "lon": 18.2235657}, {"type": "node", "id": 852595523, "lat": 47.7494483, "lon": 18.2232649}, {"type": "node", "id": 871666209, "lat": 47.7508953, "lon": 18.0944718, "tags": {"addr:city": "Kom\u00e1rom", "addr:housenumber": "1", "addr:postcode": "2900", "addr:street": "Duna-part", "castle_type": "fortress", "contact:email": "info@fort-monostor.hu", "contact:phone": "+36 34 540 582", "contact:website": "http://www.erod.hu/", "description:hu": "Ny\u00e1ri nyitvatart\u00e1s: m\u00e1rcius 1-t\u0151l november 1-ig", "fixme": "merge", "historic": "castle", "name": "Monostori Er\u0151d", "name:en": "Fort Monostor Kom\u00e1rom", "name:sk": "Pevnos\u0165 Mono\u0161tor", "opening_hours": "Mo-Su 09:00-18:00", "operator": "Monostori Er\u0151d Nonprofit Kft.", "tourism": "museum", "wikipedia": "hu:Kom\u00e1romi er\u0151drendszer"}}, {"type": "node", "id": 871669036, "lat": 47.7452949, "lon": 18.1384013, "tags": {"tourism": "museum"}}, {"type": "node", "id": 3130359868, "lat": 47.9205921, "lon": 18.0017152}, {"type": "node", "id": 3130359869, "lat": 47.9205411, "lon": 18.0018072}, {"type": "node", "id": 3130359870, "lat": 47.9204533, "lon": 18.0016851}, {"type": "node", "id": 3130359871, "lat": 47.9205031, "lon": 18.0015949}, {"type": "node", "id": 3298279087, "lat": 47.7772671, "lon": 18.1290884, "tags": {"fee": "yes", "name": "R\u00edmske Lapid\u00e1rium", "name:hu": "R\u00f3mai k\u0151t\u00e1r", "tourism": "museum", "website": "http://www.muzeumkn.sk/index.php?cat=18&page=article"}}, {"type": "node", "id": 3349300932, "lat": 47.9267115, "lon": 17.980101}, {"type": "node", "id": 3349300933, "lat": 47.9267599, "lon": 17.9801639}, {"type": "node", "id": 3349300934, "lat": 47.9268065, "lon": 17.9802268}, {"type": "node", "id": 3349300936, "lat": 47.9269571, "lon": 17.9799604}, {"type": "node", "id": 3471787657, "lat": 47.7498925, "lon": 18.0947595, "tags": {"name": "Haditechnikai ki\u00e1ll\u00edt\u00e1s", "source": "turistautak.hu", "source:date": "2015-01-30", "tourism": "museum", "url": "http://turistautak.hu/poi.php?id=117916"}}, {"type": "node", "id": 3471787665, "lat": 47.745217, "lon": 18.116467, "tags": {"addr:city": "Kom\u00e1rom", "addr:housenumber": "22", "addr:postcode": "2900", "addr:street": "Kelemen L\u00e1szl\u00f3 utca", "description": "1996-ban ny\u00edlt \u00e1lland\u00f3 ki\u00e1ll\u00edt\u00e1son, a brigetioi \u00e1sat\u00e1sok fresk\u00f3 \u00e9s egy\u00e9b leletei l\u00e1that\u00f3k.", "name": "Klapka Gy\u00f6rgy M\u00fazeum", "source": "turistautak.hu", "source:date": "2010-08-23", "tourism": "museum", "url": "http://turistautak.hu/poi.php?id=275"}}, {"type": "node", "id": 3471787683, "lat": 47.749738, "lon": 18.095965, "tags": {"museum": "history", "name": "Keny\u00e9rm\u00fazeum", "source": "turistautak.hu", "source:date": "2015-01-30", "tourism": "museum", "url": "http://turistautak.hu/poi.php?id=100546"}}, {"type": "node", "id": 3681365362, "lat": 47.7578265, "lon": 18.1273974, "tags": {"historic": "memorial", "memorial": "plaque", "name": "Alapy Gyula", "name:hu": "Alapy Gyula", "source": "survey", "start_date": "2006"}}, {"type": "node", "id": 3681365364, "lat": 47.757719, "lon": 18.1273229, "tags": {"historic": "memorial", "memorial": "plaque", "name": "B\u00e9la Bart\u00f3k", "name:hu": "Bart\u00f3k B\u00e9la", "source": "survey"}}, {"type": "node", "id": 3681365369, "lat": 47.7579563, "lon": 18.1270339}, {"type": "node", "id": 3681365579, "lat": 47.7577691, "lon": 18.1270971, "tags": {"entrance": "main"}}, {"type": "node", "id": 4884435721, "lat": 47.9897652, "lon": 18.1725867, "tags": {"addr:city": "Nov\u00e9 Z\u00e1mky", "addr:housenumber": "58", "addr:street": "M. R. \u0160tef\u00e1nika", "contact:phone": "+421 356 400 626", "name": "M\u00fazeum J\u00e1na Thaina - v\u00fdstavn\u00e1 miestnos\u0165", "opening_hours": "Tu-Fr 08:00-17:00, Sa 09:00-13:00", "tourism": "museum"}}, {"type": "node", "id": 4895746441, "lat": 47.984369, "lon": 18.1636687, "tags": {"museum": "gallery", "name": "Gal\u00e9ria umenia Ernesta Zmet\u00e1ka v Nov\u00fdch Z\u00e1mkoch", "opening_hours": "Mo-Fr 08:00-17:00; Sa 09:00-13:00", "start_date": "1979", "tourism": "museum", "website": "http://www.galerianz.eu", "wikidata": "Q30676307", "wikipedia": "en:Ernest Zmet\u00e1k Art Gallery"}}, {"type": "node", "id": 5481338484, "lat": 47.7505358, "lon": 18.0963853, "tags": {"name": "Hadt\u00f6rt\u00e9neti ki\u00e1ll\u00edt\u00e1s", "tourism": "museum"}}, {"type": "node", "id": 5481338491, "lat": 47.7525211, "lon": 18.0953508, "tags": {"name": "Duna, Haj\u0151k, mesters\u00e9gek ki\u00e1ll\u00edt\u00e1s", "tourism": "museum"}}, {"type": "node", "id": 5617711349, "lat": 47.9891177, "lon": 18.1633933, "tags": {"addr:city": "Nov\u00e9 Z\u00e1mky", "addr:housenumber": "6", "addr:postcode": "940 62", "addr:street": "Pribinova", "addr:streetnumber": "6", "contact:website": "http://www.muzeumnz.sk/", "name": "M\u00fazeum J\u00e1na Thaina", "opening_hours": "Tu-Fr 09:00-12:00,13:00-16:00", "tourism": "museum"}}, {"type": "node", "id": 7245397321, "lat": 48.0836048, "lon": 18.1857651, "tags": {"addr:city": "\u0160urany", "contact:facebook": "https://www.facebook.com/M%C3%BAzeum-%C5%A0urany-Veter%C3%A1n-MT-https://www.facebook.com/M%C3%BAzeum-%C5%A0urany-Veter%C3%A1n-MT-1740098996207849//", "name": "M\u00fazeum \u0160urany Veter\u00e1n M+T", "tourism": "museum"}}, {"type": "node", "id": 7924283746, "lat": 47.9268833, "lon": 17.9795551}, {"type": "node", "id": 7924283747, "lat": 47.9266928, "lon": 17.979877}, {"type": "node", "id": 7924283753, "lat": 47.9269462, "lon": 17.9796812}, {"type": "node", "id": 7924283754, "lat": 47.9270433, "lon": 17.9798046}, {"type": "node", "id": 7924283755, "lat": 47.9265977, "lon": 17.9797384}, {"type": "node", "id": 7924283756, "lat": 47.9267924, "lon": 17.9794211}, {"type": "node", "id": 7924283757, "lat": 47.926709, "lon": 17.9793071}, {"type": "node", "id": 7924283758, "lat": 47.9265143, "lon": 17.9796245}, {"type": "node", "id": 8109078990, "lat": 47.8556122, "lon": 18.1327951, "tags": {"name": "Ro\u013en\u00edcky dom v Martovciach", "phone": "+421 35 768 4110", "tourism": "museum", "website": "http://www.muzeumkn.sk/index.php?cat"}}, {"type": "node", "id": 8585664591, "lat": 47.9855486, "lon": 17.9955577, "tags": {"addr:city": "Zemn\u00e9", "addr:housenumber": "261", "addr:postcode": "94122", "addr:street": "G. Czuczora", "museum": "retro_elektronika", "name": "Mal\u00e9 Technick\u00e9 M\u00fazeum", "opening_hours": "Su 14:00-17:00", "opening_hours:covid19": "closed", "tourism": "museum"}}, {"type": "node", "id": 10141140674, "lat": 47.8766579, "lon": 18.1949044, "tags": {"contact:facebook": "https://www.facebook.com/apartmanyhana", "contact:instagram": "https://www.instagram.com/dom_hany_hegerovej/", "email": "info@apartmanyhana.sk", "museum": "person", "name": "Dom Hany Hegerovej", "phone": "+421 905 310 037", "tourism": "museum", "website": "https://www.apartmanyhana.sk/"}}, {"type": "way", "id": 52453994, "nodes": [666907381, 666907382, 666907383, 666907384, 666907385, 666907386, 666907387, 666907388, 666907389, 666907392, 666907393, 666907394, 666907395, 666907396, 666907397, 666907398, 666907399, 666907400, 666907401, 666907402, 666907403, 666907404, 666907390, 666907391, 666907381], "tags": {"access": "customers", "addr:city": "Hurbanovo", "addr:housenumber": "4077", "addr:place": "Hurbanovo", "addr:postcode": "94701", "building": "yes", "city": "Hurbanovo", "city:hu": "\u00d3gyalla", "contact:facebook": "https://www.facebook.com/profile.php?id=100066700281983", "man_made": "observatory", "name": "M\u00fazeum Mikul\u00e1\u0161a Thegeho Konkolyho", "name:hu": "Konkoly Thege Mikl\u00f3s M\u00fazeum", "name:sk": "M\u00fazeum Mikul\u00e1\u0161a Thegeho Konkolyho", "phone": "+421 352 45 11 02", "source": "kapor2", "tourism": "museum", "website": "https://www.suh.sk/"}}, {"type": "way", "id": 58173197, "nodes": [3681365369, 721597996, 721603867, 3681365362, 3681365364, 721593557, 721599242, 721575930, 3681365579, 721596271, 721572757, 721602675, 721585134, 721574384, 721592199, 721571348, 721588378, 721577970, 721595078, 721583863, 721581701, 721590896, 721581105, 721600378, 721589233, 721605927, 3681365369], "tags": {"building": "yes", "email": "muzeumkomarno@gmail.com", "import": "budovy201004", "name": "Podunajsk\u00e9 m\u00fazeum v Kom\u00e1rne", "name:hu": "Duna Menti M\u00fazeum Kom\u00e1rom", "name:sk": "Podunajsk\u00e9 m\u00fazeum v Kom\u00e1rne", "source": "kapor2;https://www.pamiatky.sk/nkp-a-po/register-po/objekt-detail/?idObjekt=5648", "tourism": "museum", "website": "https://www.muzeumkn.sk", "wikidata": "Q663372", "wikipedia": "sk:Podunajsk\u00e9 m\u00fazeum v Kom\u00e1rne"}}, {"type": "way", "id": 71580540, "nodes": [851429903, 851429904, 851429908, 851429909, 851429903], "tags": {"addr:city": "B\u00fa\u010d", "addr:conscriptionnumber": "11", "addr:country": "SK", "addr:housenumber": "11", "addr:place": "B\u00fa\u010d", "building": "yes", "import": "budovy201004", "name": "M\u00fazeum b\u00e1bik", "name:hu": "Babam\u00fazeum", "source": "kapor2", "source:conscriptionnumber": "kapor2", "tourism": "museum"}}, {"type": "way", "id": 71719891, "nodes": [852595509, 852595510, 852595513, 852595515, 852595516, 852595518, 852595520, 852595521, 852595523, 852595509], "tags": {"addr:city": "I\u017ea", "addr:conscriptionnumber": "11", "addr:country": "SK", "addr:housenumber": "11", "addr:place": "I\u017ea", "building": "yes", "import": "budovy201004", "source": "kapor2", "source:conscriptionnumber": "kapor2", "tourism": "museum"}}, {"type": "way", "id": 307807260, "nodes": [3130359868, 3130359869, 3130359870, 3130359871, 3130359868], "tags": {"addr:city": "Kol\u00e1rovo", "addr:housenumber": "3932", "addr:postcode": "94603", "addr:street": "Are\u00e1l vodn\u00e9ho mlynu", "building": "yes", "email": "sali@vodnymlyn.sk", "man_made": "watermill", "name": "Vodn\u00fd mlyn Kol\u00e1rovo", "name:hu": "G\u00fatai Haj\u00f3malom", "tourism": "museum", "website": "http://www.vodnymlyn.sk/"}}, {"type": "way", "id": 849350234, "nodes": [7924283747, 7924283755, 7924283758, 7924283757, 7924283756, 7924283746, 7924283747]}, {"type": "way", "id": 849350236, "nodes": [7924283754, 7924283753, 3349300932, 3349300933, 3349300934, 3349300936, 7924283754]}, {"type": "relation", "id": 11646007, "members": [{"type": "way", "ref": 849350236, "role": "outer"}, {"type": "way", "ref": 849350234, "role": "outer"}], "tags": {"name": "Military Museum Kol\u00e1rovo", "tourism": "museum", "type": "multipolygon", "website": "http://www.militarymuseum.sk/"}}]}