{"version": 0.6, "generator": "Overpass API 0.7.59 e21c39fe", "osm3s": {"timestamp_osm_base": "2023-03-01T08:34:51Z", "copyright": "The data included in this document is from www.openstreetmap.org. The data is made available under ODbL."}, "elements": [{"type": "node", "id": 437524549, "lat": 47.6868199, "lon": 16.5914071, "tags": {"entrance": "yes"}}, {"type": "node", "id": 437524550, "lat": 47.6867515, "lon": 16.5913449, "tags": {"entrance": "yes"}}, {"type": "node", "id": 441708209, "lat": 47.6867736, "lon": 16.5913025}, {"type": "node", "id": 897840976, "lat": 47.326886, "lon": 16.3746396}, {"type": "node", "id": 897840999, "lat": 47.3274283, "lon": 16.3747921}, {"type": "node", "id": 897841009, "lat": 47.3270782, "lon": 16.3750825}, {"type": "node", "id": 897841025, "lat": 47.3272582, "lon": 16.3750521}, {"type": "node", "id": 897841046, "lat": 47.327821, "lon": 16.374773}, {"type": "node", "id": 897841057, "lat": 47.327564, "lon": 16.3748728}, {"type": "node", "id": 897841067, "lat": 47.327641, "lon": 16.3747234}, {"type": "node", "id": 897841085, "lat": 47.3272736, "lon": 16.3748467}, {"type": "node", "id": 897841093, "lat": 47.326427, "lon": 16.3740948, "tags": {"name": "Baumwipfelweg Althodis", "tourism": "viewpoint"}}, {"type": "node", "id": 897841123, "lat": 47.3277649, "lon": 16.3747384}, {"type": "node", "id": 897841149, "lat": 47.3269281, "lon": 16.3749279}, {"type": "node", "id": 897841160, "lat": 47.3266182, "lon": 16.3742286}, {"type": "node", "id": 897841165, "lat": 47.3267823, "lon": 16.3744261}, {"type": "node", "id": 1099796643, "lat": 47.6773957, "lon": 16.5518039}, {"type": "node", "id": 1099796649, "lat": 47.677535, "lon": 16.5523336}, {"type": "node", "id": 1099796653, "lat": 47.6775038, "lon": 16.5524716}, {"type": "node", "id": 1099796659, "lat": 47.6775777, "lon": 16.5521916}, {"type": "node", "id": 1099796664, "lat": 47.6774222, "lon": 16.5521125}, {"type": "node", "id": 1099796670, "lat": 47.6776149, "lon": 16.5525234}, {"type": "node", "id": 1099796709, "lat": 47.6774661, "lon": 16.5519227}, {"type": "node", "id": 1099796714, "lat": 47.6776215, "lon": 16.5520018}, {"type": "node", "id": 1099796724, "lat": 47.6772969, "lon": 16.5522141}, {"type": "node", "id": 1244923780, "lat": 47.6867228, "lon": 16.5913832}, {"type": "node", "id": 1244923783, "lat": 47.6867748, "lon": 16.5914648}, {"type": "node", "id": 1245177944, "lat": 47.6867798, "lon": 16.5912901}, {"type": "node", "id": 1245178024, "lat": 47.6868476, "lon": 16.5913494}, {"type": "node", "id": 1278547657, "lat": 47.3200194, "lon": 16.437169, "tags": {"name": "Wasserrad", "tourism": "attraction"}}, {"type": "node", "id": 1376736195, "lat": 47.4157586, "lon": 16.4785282, "tags": {"name": "Kastanienhain", "natural": "tree", "tourism": "attraction"}}, {"type": "node", "id": 1644669521, "lat": 47.5233292, "lon": 16.4780893, "tags": {"name": "Stoober Plutzer", "tourism": "attraction"}}, {"type": "node", "id": 1718491417, "lat": 47.3264374, "lon": 16.442465}, {"type": "node", "id": 1718491419, "lat": 47.3264111, "lon": 16.4423599}, {"type": "node", "id": 1718491423, "lat": 47.3263227, "lon": 16.442251}, {"type": "node", "id": 1718491426, "lat": 47.3262027, "lon": 16.442214}, {"type": "node", "id": 1718491431, "lat": 47.3260959, "lon": 16.4422841}, {"type": "node", "id": 1718491434, "lat": 47.3260129, "lon": 16.4425195}, {"type": "node", "id": 1718491438, "lat": 47.3260353, "lon": 16.4426556}, {"type": "node", "id": 1718491440, "lat": 47.3261289, "lon": 16.4427412}, {"type": "node", "id": 1718491446, "lat": 47.326299, "lon": 16.4426945}, {"type": "node", "id": 1718491476, "lat": 47.3263886, "lon": 16.4426342}, {"type": "node", "id": 1718491480, "lat": 47.3264256, "lon": 16.4425428}, {"type": "node", "id": 1839606791, "lat": 47.6948132, "lon": 16.5855987, "tags": {"addr:city": "Sopron", "addr:postcode": "9400", "addr:street": "B\u00e9csi-domb", "attraction": "summer_toboggan", "check_date:opening_hours": "2018-10-22", "contact:email": "sopron@bobozas.hu", "contact:facebook": "https://www.facebook.com/sopronibobpalya/", "contact:phone": "+36 99 334 266", "contact:phone_1": "+36 20 4333 505", "contact:website": "http://sopron.bobozas.hu", "name": "Soproni Bobp\u00e1lya", "name:en": "Sopron Toboggan Park", "opening_hours": "Nov-Mar: Sa-Su,PH 11:00-16:00; Apr,Sep: Mo-Fr 10:00-17:00; Apr,Sep: Sa-Su,PH 10:00-18:00; May: Mo-Fr 10:00-18:00; May: Sa-Su,PH 10:00-19:00; Jun-Aug: Mo-Su,PH 10:00-19:00; Oct: Mo-Su,PH 10:00-17:00", "opening_hours:url": "http://sopron.bobozas.hu/hu/nyitvatartas", "payment:maestro": "yes", "payment:mastercard": "yes", "payment:visa": "yes", "tourism": "attraction"}}, {"type": "node", "id": 2589375576, "lat": 47.3740221, "lon": 16.4912137, "tags": {"historic": "wayside_cross", "name": "V\u00f6r\u00f6s-kereszt", "tourism": "attraction"}}, {"type": "node", "id": 2921099177, "lat": 47.3303363, "lon": 16.568859}, {"type": "node", "id": 2921099179, "lat": 47.330399, "lon": 16.5691903}, {"type": "node", "id": 2921099181, "lat": 47.3305586, "lon": 16.5687675}, {"type": "node", "id": 2921099183, "lat": 47.3306212, "lon": 16.5690988}, {"type": "node", "id": 2948541109, "lat": 47.6622944, "lon": 16.5895304, "tags": {"addr:city": "Sopron", "addr:postcode": "9400", "amenity": "festival_grounds", "name": "VOLT Fesztiv\u00e1l", "name:en": "VOLT Festival", "tourism": "attraction", "website": "https://volt.hu/", "wikidata": "Q1400655", "wikipedia": "hu:VOLT Fesztiv\u00e1l"}}, {"type": "node", "id": 3054670806, "lat": 47.6868386, "lon": 16.5913744}, {"type": "node", "id": 3086979997, "lat": 47.6773924, "lon": 16.5600311, "tags": {"addr:city": "Sopron", "addr:housenumber": "36", "addr:postcode": "9400", "addr:street": "Csalog\u00e1ny k\u00f6z", "historic": "castle", "name": "Tar\u00f3di-v\u00e1r", "opening_hours": "Mo-Su 10:00-18:00", "tourism": "attraction", "website": "https://www.origo.hu/utazas/magyarorszag/20160511-latogatas-a-soproni-tarodi-varban-amelyet-tarodi-istvan-epitett-fel-otven-ev-alatt.html", "wikidata": "Q659827", "wikipedia": "hu:Tar\u00f3di-v\u00e1r"}}, {"type": "node", "id": 3246561297, "lat": 47.65187, "lon": 16.4888381, "tags": {"building": "bunker", "bunker_type": "command", "historic": "yes", "military": "bunker", "name": "Sz\u00e1lasi-bunker", "tourism": "attraction"}}, {"type": "node", "id": 3267766438, "lat": 47.3965163, "lon": 16.5359781, "tags": {"name": "Koronabunker", "tourism": "attraction"}}, {"type": "node", "id": 3359375825, "lat": 47.3304343, "lon": 16.56895}, {"type": "node", "id": 3359375826, "lat": 47.3304565, "lon": 16.5690741}, {"type": "node", "id": 3359375827, "lat": 47.3305096, "lon": 16.5689206}, {"type": "node", "id": 3359375829, "lat": 47.3305318, "lon": 16.5690447}, {"type": "node", "id": 3430556516, "lat": 47.346617, "lon": 16.490467, "tags": {"building": "bunker", "historic": "yes", "name": "Korona\u0151rz\u0151-bunker", "source": "turistautak.hu", "tourism": "attraction", "url": "http://turistautak.hu/poi.php?id=27496"}}, {"type": "node", "id": 3481107171, "lat": 47.3629041, "lon": 16.4762308, "tags": {"name": "Kendig-eresz", "natural": "rock", "tourism": "attraction"}}, {"type": "node", "id": 3486764956, "lat": 47.3705226, "lon": 16.4680177, "tags": {"historic": "yes", "man_made": "campanile", "tourism": "attraction"}}, {"type": "node", "id": 3510041645, "lat": 47.3933898, "lon": 16.5097801, "tags": {"name": "\u00d6rd\u00f6gt\u00e1ny\u00e9r-szikla", "natural": "rock", "tourism": "attraction"}}, {"type": "node", "id": 3511808132, "lat": 47.3289154, "lon": 16.5844016, "tags": {"historic": "yes", "man_made": "campanile", "tourism": "attraction"}}, {"type": "node", "id": 3551899375, "lat": 47.2975378, "lon": 16.3955476, "tags": {"name": "Wallner M\u00fchle", "opening_hours": "Tu-Su 10:00-12:00, 14:00-17:00", "tourism": "attraction"}}, {"type": "node", "id": 3601175828, "lat": 47.336068, "lon": 16.578266, "tags": {"description": "Leiras=Harangtorony, klassziciz\u00e1l\u00f3, 1867.\\r\\nid=9196", "historic": "yes", "man_made": "campanile", "source": "turistautak.hu", "tourism": "attraction", "url": "http://turistautak.hu/poi.php?id=76987"}}, {"type": "node", "id": 3701635247, "lat": 47.4031229, "lon": 16.4244625}, {"type": "node", "id": 3701635248, "lat": 47.4031304, "lon": 16.4242289}, {"type": "node", "id": 3701635249, "lat": 47.4031982, "lon": 16.4240481}, {"type": "node", "id": 3701635250, "lat": 47.4032001, "lon": 16.4246961}, {"type": "node", "id": 3701635251, "lat": 47.4033356, "lon": 16.4239007}, {"type": "node", "id": 3701635252, "lat": 47.4033412, "lon": 16.4249297}, {"type": "node", "id": 3701635253, "lat": 47.4035257, "lon": 16.4238062}, {"type": "node", "id": 3701635254, "lat": 47.4035652, "lon": 16.4251606}, {"type": "node", "id": 3701635255, "lat": 47.4039643, "lon": 16.4250855}, {"type": "node", "id": 3701635256, "lat": 47.4039888, "lon": 16.4251939}, {"type": "node", "id": 3701635257, "lat": 47.4042146, "lon": 16.4251689}, {"type": "node", "id": 3701635260, "lat": 47.404465, "lon": 16.423884}, {"type": "node", "id": 3701635262, "lat": 47.4047586, "lon": 16.4238534}, {"type": "node", "id": 3701635263, "lat": 47.4048396, "lon": 16.4248991}, {"type": "node", "id": 3701635264, "lat": 47.4048708, "lon": 16.4243766}, {"type": "node", "id": 3701635265, "lat": 47.4048735, "lon": 16.4245654}, {"type": "node", "id": 3701635266, "lat": 47.4050222, "lon": 16.424482}, {"type": "node", "id": 3701635267, "lat": 47.4050332, "lon": 16.42418}, {"type": "node", "id": 3701635268, "lat": 47.4050391, "lon": 16.4247184}, {"type": "node", "id": 3701635269, "lat": 47.4050767, "lon": 16.4245932}, {"type": "node", "id": 3701635270, "lat": 47.405149, "lon": 16.4242586}, {"type": "node", "id": 3701635272, "lat": 47.4051822, "lon": 16.4240231}, {"type": "node", "id": 4536598093, "lat": 47.6868917, "lon": 16.5915175, "tags": {"name": "Z\u00f6ld k\u0151", "tourism": "attraction"}}, {"type": "node", "id": 5371206407, "lat": 47.3691729, "lon": 16.3376777, "tags": {"man_made": "kiln", "name": "Kohlenmeiler", "product": "charcoal", "tourism": "attraction"}}, {"type": "node", "id": 9311485992, "lat": 47.6853722, "lon": 16.5716429, "tags": {"name": "Vas\u00fati eml\u00e9khely", "railway": "buffer_stop", "tourism": "attraction"}}, {"type": "node", "id": 9680475599, "lat": 47.6776648, "lon": 16.5523041}, {"type": "node", "id": 9837064823, "lat": 47.6880882, "lon": 16.5947634, "tags": {"name": "Kora g\u00f3tikus h\u00e1z", "tourism": "attraction"}}, {"type": "node", "id": 9867909219, "lat": 47.390441, "lon": 16.5239977, "tags": {"name": "Szel\u00edd Gesztenyefa Maradv\u00e1nyai", "tourism": "attraction"}}, {"type": "node", "id": 10051099763, "lat": 47.6774029, "lon": 16.5522723}, {"type": "node", "id": 10051099764, "lat": 47.6773908, "lon": 16.5523244}, {"type": "node", "id": 10051099765, "lat": 47.677322, "lon": 16.5522879}, {"type": "node", "id": 10051099766, "lat": 47.6773363, "lon": 16.5522312}, {"type": "node", "id": 10051099770, "lat": 47.6777201, "lon": 16.5519525}, {"type": "node", "id": 10051099780, "lat": 47.6776444, "lon": 16.5523939}, {"type": "node", "id": 10051099795, "lat": 47.6775271, "lon": 16.5523299}, {"type": "node", "id": 10051430187, "lat": 47.6777162, "lon": 16.5519685}, {"type": "node", "id": 10051430188, "lat": 47.6777212, "lon": 16.5520524}, {"type": "node", "id": 10051430189, "lat": 47.6777314, "lon": 16.5520105}, {"type": "node", "id": 10051430190, "lat": 47.6777563, "lon": 16.5520225}, {"type": "node", "id": 10051430191, "lat": 47.6777667, "lon": 16.5519745}, {"type": "way", "id": 76102830, "nodes": [897841046, 897841123, 897841067, 897841057, 897840999, 897841085, 897841025, 897841009, 897841149, 897840976, 897841165, 897841160, 897841093], "tags": {"fee": "yes", "highway": "footway", "layer": "2", "name": "Baumwipfelweg Althodis", "opening_hours": "We-Su 10:00-17:00, Apr-Oct", "short_name": "Baumwipfelweg", "surface": "wood", "tourism": "attraction"}}, {"type": "way", "id": 94719796, "nodes": [1099796643, 1099796724, 10051099766, 10051099765, 10051099764, 10051099763, 10051099795, 1099796649, 1099796653, 1099796670, 10051099780, 9680475599, 10051430188, 10051430189, 10051430190, 10051430191, 10051099770, 10051430187, 1099796643]}, {"type": "way", "id": 94719797, "nodes": [1099796714, 1099796659, 1099796664, 1099796709, 1099796714]}, {"type": "way", "id": 108549065, "nodes": [1245177944, 441708209, 437524550, 1244923780, 1244923783, 437524549, 3054670806, 1245178024, 1245177944], "tags": {"addr:city": "Sopron", "addr:postcode": "9400", "addr:street": "F\u0151 t\u00e9r", "building": "yes", "height": "58", "historic": "city_gate", "image": "https://image.ibb.co/mv0BvS/IMG_1307.jpg", "man_made": "tower", "name": "T\u0171ztorony", "name:en": "Firewatch Tower", "name:zh": "\u9632\u706b\u5854", "opening_hours": "Jan-Mar,Nov: Mo-Su 09:00-17:00; Apr: Mo-Su 10:00-18:00; May-Aug: Mo-Su 10:00-20:00; Sep-Oct: Mo-Su 10:00-18:00; Dec: Tu-Su 09:00-17:00", "phone": "+36 99 311 327", "tourism": "attraction", "tower:type": "observation", "website": "http://tuztorony.sopron.hu/", "wheelchair": "no", "wikidata": "Q613995", "wikipedia": "hu:T\u0171ztorony (Sopron)"}}, {"type": "way", "id": 159744498, "nodes": [1718491417, 1718491419, 1718491423, 1718491426, 1718491431, 1718491434, 1718491438, 1718491440, 1718491446, 1718491476, 1718491480, 1718491417], "tags": {"castle_type": "defensive", "heritage": "2", "heritage:operator": "bda", "historic": "castle", "name": "\u00d6des Schloss", "name:hu": "Rohonc v\u00e1r\u00e1nak romjai", "ref:at:bda": "8445", "ruins": "yes", "tourism": "attraction", "wikidata": "Q16321229", "wikimedia_commons": "Category:\u00d6des Schloss, Rechnitz", "wikipedia": "de:\u00d6des Schloss (Rechnitz)"}}, {"type": "way", "id": 288556097, "nodes": [2921099181, 2921099183, 2921099179, 2921099177, 2921099181]}, {"type": "way", "id": 329113939, "nodes": [3359375827, 3359375825, 3359375826, 3359375829, 3359375827]}, {"type": "way", "id": 366174726, "nodes": [3701635272, 3701635262, 3701635260, 3701635253, 3701635251, 3701635249, 3701635248, 3701635247, 3701635250, 3701635252, 3701635254, 3701635255, 3701635256, 3701635257, 3701635263, 3701635268, 3701635269, 3701635266, 3701635265, 3701635264, 3701635267, 3701635270, 3701635272], "tags": {"castle_type": "defensive", "castle_type:de": "burg", "charge": "EUR 9", "condition": "preserved;renovation", "fee": "yes", "heritage": "2", "heritage:operator": "bda", "historic": "castle", "name": "Burg Lockenhaus", "ref:at:bda": "30431", "start_date": "1200", "tourism": "attraction", "website": "https://www.ritterburg.at", "wikidata": "Q681677", "wikimedia_commons": "Category:Burg Lockenhaus", "wikipedia": "de:Burg Lockenhaus"}}, {"type": "relation", "id": 1372367, "members": [{"type": "way", "ref": 94719796, "role": "outer"}, {"type": "way", "ref": 94719797, "role": "inner"}], "tags": {"addr:city": "Sopron", "addr:housenumber": "11", "addr:postcode": "9400", "addr:street": "Kolostorhegy utca", "building": "yes", "email": "info@banfalvakolostor.hu", "historic": "monastery", "name": "Sopronb\u00e1nfalvi P\u00e1los-Karmelita Kolostor", "opening_hours": "Mo-Su 10:00-18:00", "phone": "+36 99 505 895", "tourism": "attraction", "type": "multipolygon", "website": "https://www.banfalvakolostor.hu/", "wikidata": "Q852953", "wikipedia": "hu:B\u00e1nfalvi karmelita kolostor"}}, {"type": "relation", "id": 4604799, "members": [{"type": "way", "ref": 288556097, "role": "outer"}, {"type": "way", "ref": 329113939, "role": "inner"}], "tags": {"building": "farm", "name": "Biot\u00e1jh\u00e1z", "tourism": "attraction", "type": "multipolygon"}}]}