{"version": 0.6, "generator": "Overpass API 0.7.59 e21c39fe", "osm3s": {"timestamp_osm_base": "2023-03-01T09:27:36Z", "copyright": "The data included in this document is from www.openstreetmap.org. The data is made available under ODbL."}, "elements": [{"type": "node", "id": 155476567, "lat": 47.4250275, "lon": 18.9249143, "tags": {"MCC": "216", "MNC": "01", "communication:microwave": "yes", "communication:mobile_phone": "gsm", "ele": "270", "gsm:LAC": "3511", "gsm:cellid": "21021;21022;21026;21027;21029", "height": "20", "man_made": "tower", "note": "Yettel mikrohull\u00e1m\u00fa hub is, ebben a vide\u00f3ban 6 mikr\u00f3s linket is ki lehet venni: https://www.youtube.com/watch?v=LJObo04gv3E&t=306s", "operator": "Yettel", "ref": "Anna-hegyi kil\u00e1t\u00f3 lez\u00e1rva", "ref:yettel": "PE-0002", "source": "OpenCellID", "tourism": "viewpoint", "tower:type": "communication"}}, {"type": "node", "id": 262621594, "lat": 47.4866332, "lon": 19.0484341, "tags": {"image": "https://image.ibb.co/e4rGh7/Budapest_Szabadsagszobor.jpg", "name": "Szabads\u00e1g-szobor", "name:de": "Freiheitsstatue", "name:en": "Liberty Statue", "name:es": "Estatua de la Libertad", "name:ro": "Statuia Libert\u0103\u021bii", "name:ru": "\u0421\u0442\u0430\u0442\u0443\u044f \u0421\u0432\u043e\u0431\u043e\u0434\u044b \u043d\u0430 \u0433\u043e\u0440\u0435 \u0413\u0435\u043b\u043b\u0435\u0440\u0442", "tourism": "viewpoint", "wheelchair": "limited"}}, {"type": "node", "id": 315077667, "lat": 47.5014593, "lon": 18.8458697, "tags": {"ele": "250", "tourism": "viewpoint"}}, {"type": "node", "id": 315247881, "lat": 47.5152752, "lon": 18.8516512, "tags": {"created_by": "Potlatch 0.10f", "tourism": "viewpoint"}}, {"type": "node", "id": 383921080, "lat": 47.7174593, "lon": 18.7246367, "tags": {"direction": "320-140", "is_in": "K\u00e1lv\u00e1ria-hegy", "tourism": "viewpoint"}}, {"type": "node", "id": 411420219, "lat": 47.486327, "lon": 19.0500437, "tags": {"tourism": "viewpoint", "wheelchair": "no"}}, {"type": "node", "id": 417728137, "lat": 47.7052304, "lon": 18.8382494, "tags": {"ele": "430", "name": "K\u00e9m\u00e9ny-szikla", "tourism": "viewpoint"}}, {"type": "node", "id": 432490935, "lat": 47.5018083, "lon": 19.0353245, "tags": {"direction": "340-220", "fee": "yes", "tourism": "viewpoint", "wheelchair": "no"}}, {"type": "node", "id": 456373254, "lat": 47.5299772, "lon": 18.9661658, "tags": {"man_made": "tower", "material": "wood", "name": "Makovecz Imre-kil\u00e1t\u00f3", "tourism": "viewpoint", "tower:type": "observation", "wikidata": "Q28722735", "wikipedia": "hu:Makovecz Imre-kil\u00e1t\u00f3"}}, {"type": "node", "id": 456394409, "lat": 47.5336206, "lon": 18.9551877, "tags": {"ele": "454", "man_made": "tower", "name": "Ka\u00e1n K\u00e1roly-kil\u00e1t\u00f3", "name:de": "Aussichtsturm Ka\u00e1n K\u00e1roly", "tourism": "viewpoint", "tower:type": "observation", "wikidata": "Q28722740", "wikipedia": "hu:Ka\u00e1n K\u00e1roly-kil\u00e1t\u00f3"}}, {"type": "node", "id": 457134699, "lat": 47.5181667, "lon": 18.9592157}, {"type": "node", "id": 492053014, "lat": 47.5542782, "lon": 18.9989463, "tags": {"is_in": "H\u00e1rmashat\u00e1r-hegy", "tourism": "viewpoint"}}, {"type": "node", "id": 706175333, "lat": 47.7231966, "lon": 18.8910871, "tags": {"alt_name": "Rezs\u0151 kil\u00e1t\u00f3", "ele": "690", "facebook": "https://www.facebook.com/Tirts-Rezs%C5%91-Kil%C3%A1t%C3%B3-1011201718978935/", "is_in": "Pilis - Visegr\u00e1di-hegys\u00e9g", "name": "Tirts Rezs\u0151 kil\u00e1t\u00f3", "tourism": "viewpoint", "url": "https://geocaching.hu/caches.geo?id=620", "website": "https://www.termeszetjaro.hu/hu/point/kilatohely/rezso-kilato/26110499/", "wikipedia": "hu:Dobog\u00f3-k\u0151"}}, {"type": "node", "id": 735434068, "lat": 47.4943394, "lon": 19.0405072, "tags": {"direction": "50-310", "tourism": "viewpoint", "wheelchair": "no"}}, {"type": "node", "id": 735451875, "lat": 47.4943961, "lon": 19.0416238, "tags": {"direction": "10-190", "tourism": "viewpoint"}}, {"type": "node", "id": 735462396, "lat": 47.4981575, "lon": 19.0394846, "tags": {"direction": "45-120", "name": "Alag\u00fat, keleti bej\u00e1rat", "tourism": "viewpoint", "wheelchair": "no"}}, {"type": "node", "id": 735600809, "lat": 47.4898357, "lon": 19.0388944, "tags": {"is_in": "Tab\u00e1n; Gell\u00e9rthegy", "name": "Gell\u00e9rthegyi v\u00edzt\u00e1roz\u00f3", "name:zh": "\u81ea\u7531\u5c71", "tourism": "viewpoint"}}, {"type": "node", "id": 737987856, "lat": 47.4895365, "lon": 19.0455252, "tags": {"direction": "0-170", "is_in": "Tab\u00e1n; Gell\u00e9rthegy", "name": "Szent Gell\u00e9rt p\u00fcsp\u00f6k szobra", "name:ru": "\u0421\u0442\u0430\u0442\u0443\u044f \u0421\u0432\u044f\u0442\u043e\u0433\u043e \u0413\u0435\u043b\u043b\u0435\u0440\u0442\u0430", "tourism": "viewpoint", "wheelchair": "no"}}, {"type": "node", "id": 738509747, "lat": 47.4701372, "lon": 19.0703849, "tags": {"name": "Ziggurat", "name:en": "Zikkurat", "tourism": "viewpoint", "wheelchair": "limited"}}, {"type": "node", "id": 741433285, "lat": 47.5605592, "lon": 19.0605479, "tags": {"name": "\u00d3budai-sziget szigetcs\u00facs", "tourism": "viewpoint", "wheelchair": "limited"}}, {"type": "node", "id": 745475065, "lat": 47.5254805, "lon": 18.9225984, "tags": {"access": "no", "description": "Rossz \u00e1llapot miatt ideiglenesen lez\u00e1rva", "disused:man_made": "tower", "disused:tower:type": "observation", "ele": "320", "level": "2", "man_made": "tower", "material": "wood", "name": "Budakeszi Vadaspark kil\u00e1t\u00f3", "operator": "Vadaspark", "tourism": "viewpoint", "tower:construction": "lattice", "tower:type": "observation", "wheelchair": "no"}}, {"type": "node", "id": 766008899, "lat": 47.7514838, "lon": 18.8442737, "tags": {"tourism": "viewpoint"}}, {"type": "node", "id": 949914953, "lat": 47.5924681, "lon": 18.89865, "tags": {"tourism": "viewpoint"}}, {"type": "node", "id": 982612342, "lat": 47.7501167, "lon": 18.74285, "tags": {"name": "Str\u00e1zsa", "sport": "geocaching", "tourism": "viewpoint", "wheelchair": "no"}}, {"type": "node", "id": 982612382, "lat": 47.7197333, "lon": 18.85185, "tags": {"name": "Fekete-k\u0151", "natural": "cliff", "tourism": "viewpoint"}}, {"type": "node", "id": 1104439374, "lat": 47.4500315, "lon": 18.8297237, "tags": {"ele": "206", "name": "Nyakask\u0151i kil\u00e1t\u00e1s", "tourism": "viewpoint"}}, {"type": "node", "id": 1121787120, "lat": 47.5292852, "lon": 18.9677125, "tags": {"direction": "125", "note": "Egykori Gyermekvas\u00fat meg\u00e1ll\u00f3hely - val\u00f3j\u00e1ban a 77-es szelv\u00e9nyk\u0151n\u00e9l, \u00edvben volt, k\u00f6r\u00fclbel\u00fcl 100 m\u00e9terrel arr\u00e9bb", "tourism": "viewpoint"}}, {"type": "node", "id": 1228282420, "lat": 47.7200476, "lon": 18.8990163, "tags": {"ele": "690", "is_in": "Pilis - Visegr\u00e1di-hegys\u00e9g", "man_made": "yes", "name": "Dobog\u00f3k\u0151i Nagykil\u00e1t\u00f3", "tourism": "viewpoint", "url": "http://mtsz.org/cikk/felujitottak_dobogokon_a_rezso-kilato_kornyeket", "wheelchair": "no", "wikidata": "Q110252997", "wikipedia": "hu:Dobog\u00f3-k\u0151"}}, {"type": "node", "id": 1229557009, "lat": 47.596281, "lon": 18.9909652, "tags": {"name": "Kil\u00e1t\u00e1s", "tourism": "viewpoint"}}, {"type": "node", "id": 1232195623, "lat": 47.6236061, "lon": 18.8379533}, {"type": "node", "id": 1232195825, "lat": 47.6236127, "lon": 18.8379063}, {"type": "node", "id": 1232195883, "lat": 47.6235912, "lon": 18.8378997}, {"type": "node", "id": 1232195948, "lat": 47.6235846, "lon": 18.8379467}, {"type": "node", "id": 1234029053, "lat": 47.6139667, "lon": 18.9989687, "tags": {"tourism": "viewpoint"}}, {"type": "node", "id": 1235921385, "lat": 47.722414, "lon": 18.6143338, "tags": {"direction": "45", "tourism": "viewpoint"}}, {"type": "node", "id": 1239964631, "lat": 47.5903618, "lon": 18.8800031, "tags": {"direction": "N-S", "tourism": "viewpoint"}}, {"type": "node", "id": 1276211546, "lat": 47.7487636, "lon": 18.9691988, "tags": {"ele": "320", "tourism": "viewpoint"}}, {"type": "node", "id": 1299585285, "lat": 47.4847439, "lon": 19.0523118, "tags": {"tourism": "viewpoint", "wheelchair": "limited"}}, {"type": "node", "id": 1402467671, "lat": 47.5414292, "lon": 18.8688619, "tags": {"ele": "415", "name": "Tarnai pihen\u0151", "tourism": "viewpoint"}}, {"type": "node", "id": 1476736152, "lat": 47.552993, "lon": 19.025365, "tags": {"access": "permissive", "addr:city": "Budapest", "addr:housenumber": "2/c", "addr:postcode": "1037", "addr:street": "Laborc utca", "alt_name": "Polaris Csillagvizsg\u00e1l\u00f3 csillagn\u00e9z\u0151 tet\u0151terasz", "closest_town": "Bp", "dark_sky": "no", "description": "3,42 magnit\u00fad\u00f3 az \u00e9gbolt szabad szemes hat\u00e1rf\u00e9nyess\u00e9ge", "ele": "150", "fee": "no", "leisure": "star_gazing", "name": "Amat\u0151rcsillag\u00e1sz \u00e9szlel\u0151hely (3,4mn darksky), Bp. Polaris", "name:en": "Polaris Public Observatory", "operator": "MCSE, Magyar Csillag\u00e1szati Egyes\u00fclet", "surface": "paving_stones", "surveillance": "astronomy", "surveillance:type": "viewpoint", "tourism": "viewpoint", "type": "astronomy", "url": "http://egkep.com/?emyn", "url:darksky": "fenyszennyezes.hu", "website": "https://www.mcse.hu/eszlelohelyek/"}}, {"type": "node", "id": 1488778720, "lat": 47.6306482, "lon": 18.6272503, "tags": {"ele": "235", "is_in": "Szilva-k\u00fati hegy;Bajna d\u00e9li k\u00fclter\u00fclet", "name": "Szilva-k\u00fati kil\u00e1t\u00e1s", "tourism": "viewpoint"}}, {"type": "node", "id": 1540783462, "lat": 47.4636622, "lon": 18.9072027, "tags": {"direction": "180-60", "tourism": "viewpoint"}}, {"type": "node", "id": 1540783467, "lat": 47.4623647, "lon": 18.9090827, "tags": {"direction": "120-300", "tourism": "viewpoint"}}, {"type": "node", "id": 1559359568, "lat": 47.5237757, "lon": 19.0273806, "tags": {"ele": "230", "name": "J\u00f3zsef-hegyi kil\u00e1t\u00f3", "name:de": "Aussichtsturm auf Josephsberg", "toilets:wheelchair": "no", "tourism": "viewpoint", "wheelchair": "no"}}, {"type": "node", "id": 1657913998, "lat": 47.4617371, "lon": 18.911087, "tags": {"direction": "90-270", "tourism": "viewpoint"}}, {"type": "node", "id": 1663214847, "lat": 47.5881095, "lon": 18.6747473, "tags": {"tourism": "viewpoint"}}, {"type": "node", "id": 1663214997, "lat": 47.5862279, "lon": 18.6731671, "tags": {"tourism": "viewpoint"}}, {"type": "node", "id": 1670658543, "lat": 47.7069187, "lon": 18.837928, "tags": {"ele": "450", "tourism": "viewpoint"}}, {"type": "node", "id": 1703284966, "lat": 47.7429197, "lon": 18.8804739, "tags": {"is_in": "Luk\u00e1cs-\u00e1rok; Pilis - Visegr\u00e1di-hegys\u00e9g", "tourism": "viewpoint"}}, {"type": "node", "id": 1729338379, "lat": 47.410709, "lon": 18.9908397, "tags": {"name": "Szent Don\u00e1t-hegyi eml\u00e9khely", "tourism": "viewpoint"}}, {"type": "node", "id": 1736094497, "lat": 47.4837291, "lon": 19.0106178, "tags": {"direction": "0-360", "tourism": "viewpoint"}}, {"type": "node", "id": 1736288117, "lat": 47.680655, "lon": 18.8783696, "tags": {"ele": "525", "is_in": "Pilis-hegy; Pilis-hegys\u00e9g", "name": "Szt.L\u00e1szl\u00f3-k\u00fapja kil\u00e1t\u00e1s", "tourism": "viewpoint"}}, {"type": "node", "id": 1755394770, "lat": 47.4473108, "lon": 19.0202059, "tags": {"direction": "290-110", "tourism": "viewpoint"}}, {"type": "node", "id": 1760010327, "lat": 47.6692415, "lon": 18.9896329, "tags": {"tourism": "viewpoint"}}, {"type": "node", "id": 1768470223, "lat": 47.4850291, "lon": 19.0522185, "tags": {"tourism": "viewpoint", "wheelchair": "no"}}, {"type": "node", "id": 1768470249, "lat": 47.4856492, "lon": 19.0510798, "tags": {"tourism": "viewpoint", "wheelchair": "no"}}, {"type": "node", "id": 1801354579, "lat": 47.5567095, "lon": 18.9351284, "tags": {"ele": "355", "is_in": "Hossz\u00fa-Erd\u0151-hegy;Remetesz\u0151l\u0151s", "tourism": "viewpoint"}}, {"type": "node", "id": 1801354580, "lat": 47.5576321, "lon": 18.9336061, "tags": {"ele": "340", "is_in": "Hossz\u00fa-Erd\u0151-hegy;Remetesz\u0151l\u0151s", "tourism": "viewpoint"}}, {"type": "node", "id": 1829940763, "lat": 47.6465143, "lon": 19.0061145, "tags": {"name": "\u00c1rp\u00e1d-kil\u00e1t\u00f3", "tourism": "viewpoint"}}, {"type": "node", "id": 1839713012, "lat": 47.6054744, "lon": 19.0535411, "tags": {"tourism": "viewpoint"}}, {"type": "node", "id": 1843176570, "lat": 47.4877216, "lon": 19.0437463, "tags": {"name": "Dunai panor\u00e1ma", "tourism": "viewpoint"}}, {"type": "node", "id": 1890685006, "lat": 47.7502835, "lon": 18.7400427, "tags": {"tourism": "viewpoint", "wheelchair": "no"}}, {"type": "node", "id": 1926358259, "lat": 47.656875, "lon": 19.0078862, "tags": {"tourism": "viewpoint"}}, {"type": "node", "id": 1951262542, "lat": 47.4976371, "lon": 18.5686569, "tags": {"ele": "200", "name": "Feh\u00e9r szikl\u00e1k", "tourism": "viewpoint"}}, {"type": "node", "id": 1964853354, "lat": 47.7366129, "lon": 18.9276629, "tags": {"direction": "315-60", "ele": "580", "name": "Hubertus kil\u00e1t\u00e1s", "tourism": "viewpoint"}}, {"type": "node", "id": 1995466711, "lat": 47.538059, "lon": 18.888094, "tags": {"ele": "445", "tourism": "viewpoint"}}, {"type": "node", "id": 2005300430, "lat": 47.5445466, "lon": 18.9567227, "tags": {"direction": "0-360", "is_in": "H\u0171v\u00f6sv\u00f6lgy; Erzs\u00e9bettelek", "tourism": "viewpoint"}}, {"type": "node", "id": 2033074422, "lat": 47.6629332, "lon": 18.9200707, "tags": {"tourism": "viewpoint"}}, {"type": "node", "id": 2045256248, "lat": 47.550172, "lon": 19.0083294, "tags": {"source": "survey", "tourism": "viewpoint"}}, {"type": "node", "id": 2052800257, "lat": 47.4720608, "lon": 18.9735425, "tags": {"tourism": "viewpoint"}}, {"type": "node", "id": 2052880365, "lat": 47.4738396, "lon": 18.9457231, "tags": {"tourism": "viewpoint"}}, {"type": "node", "id": 2052989865, "lat": 47.4676955, "lon": 18.9463721, "tags": {"tourism": "viewpoint"}}, {"type": "node", "id": 2052993866, "lat": 47.4694469, "lon": 18.9518737, "tags": {"tourism": "viewpoint"}}, {"type": "node", "id": 2054672877, "lat": 47.4580697, "lon": 18.9248919, "tags": {"ele": "249", "tourism": "viewpoint"}}, {"type": "node", "id": 2054818330, "lat": 47.4683758, "lon": 18.9498474, "tags": {"tourism": "viewpoint"}}, {"type": "node", "id": 2054888077, "lat": 47.4755585, "lon": 18.9348283, "tags": {"direction": "60-285", "tourism": "viewpoint"}}, {"type": "node", "id": 2070338371, "lat": 47.4822173, "lon": 19.0196136, "tags": {"direction": "300-SW", "name": "panor\u00e1ma", "tourism": "viewpoint"}}, {"type": "node", "id": 2080917962, "lat": 47.4723362, "lon": 18.9329103, "tags": {"tourism": "viewpoint"}}, {"type": "node", "id": 2091172570, "lat": 47.4975643, "lon": 19.0387458, "tags": {"name:it": "Panorama castello Buda", "name:zh": "\u62cd\u9396\u93c8\u6a4b\u7684\u5730\u9ede", "tourism": "viewpoint", "wheelchair": "yes"}}, {"type": "node", "id": 2091172643, "lat": 47.4964532, "lon": 19.0404883, "tags": {"direction": "320-140", "tourism": "viewpoint"}}, {"type": "node", "id": 2093965522, "lat": 47.4734606, "lon": 18.9382274, "tags": {"natural": "rock", "tourism": "viewpoint"}}, {"type": "node", "id": 2094659225, "lat": 47.476699, "lon": 18.9347283, "tags": {"tourism": "viewpoint"}}, {"type": "node", "id": 2276183203, "lat": 47.6037492, "lon": 18.877538, "tags": {"ele": "285", "name": "\u00d6rd\u00f6gtorony", "natural": "cliff", "tourism": "viewpoint"}}, {"type": "node", "id": 2282428498, "lat": 47.561759, "lon": 18.9339733, "tags": {"direction": "NE-S", "ele": "365", "tourism": "viewpoint"}}, {"type": "node", "id": 2288433031, "lat": 47.4020222, "lon": 18.634206, "tags": {"tourism": "viewpoint"}}, {"type": "node", "id": 2295463786, "lat": 47.5428834, "lon": 18.9890493, "tags": {"addr:city": "Budapest", "addr:postcode": "1025", "description": "A szikla egy oroszl\u00e1nra hasonl\u00edt\u00f3 dolomitt\u00f6mb, amit ut\u00e1na faragtak, hogy m\u00e9g jobban hasonl\u00edtson az \u00e1llatra. A szikla a m\u00e1sodik vil\u00e1gh\u00e1bor\u00faban megs\u00e9r\u00fclt. Egyes elm\u00e9letek szerint 1946-ban egyszer\u0171en lerobbantott\u00e1k a fej\u00e9t.", "ele": "305", "name": "Oroszl\u00e1n-szikla", "natural": "rock", "ref": "3758. GCOrsz", "tourism": "viewpoint", "website": "https://geocaching.hu/caches.geo?id=4491", "wikidata": "Q110194219", "wikipedia": "hu:Kecske-hegy"}}, {"type": "node", "id": 2315294656, "lat": 47.4958696, "lon": 19.0409899, "tags": {"direction": "330-150", "tourism": "viewpoint"}}, {"type": "node", "id": 2320553595, "lat": 47.7385839, "lon": 18.9135373, "tags": {"is_in": "Vad\u00e1ll\u00f3-k\u00f6vek; Pilis-hegys\u00e9g", "name": "Vad\u00e1ll\u00f3-k\u00f6vek", "rock": "andezit", "tourism": "viewpoint"}}, {"type": "node", "id": 2342560117, "lat": 47.6445399, "lon": 19.0028711, "tags": {"tourism": "viewpoint"}}, {"type": "node", "id": 2355731475, "lat": 47.686565, "lon": 18.842414, "tags": {"source": "turistautak.hu", "source:date": "2014-02-06", "tourism": "viewpoint", "url": "http://turistautak.hu/poi.php?id=1029"}}, {"type": "node", "id": 2420811482, "lat": 47.7239922, "lon": 18.8038558, "tags": {"name": "K\u00e9t\u00e1g\u00fa-hegy kil\u00e1t\u00e1s", "tourism": "viewpoint"}}, {"type": "node", "id": 2424684023, "lat": 47.671445, "lon": 19.0771429, "tags": {"tourism": "viewpoint"}}, {"type": "node", "id": 2440627004, "lat": 47.5904102, "lon": 18.8737857, "tags": {"direction": "0-360", "natural": "peak", "tourism": "viewpoint"}}, {"type": "node", "id": 2494088316, "lat": 47.6111426, "lon": 18.8664298, "tags": {"man_made": "tower", "tourism": "viewpoint", "tower:type": "observation"}}, {"type": "node", "id": 2497087386, "lat": 47.4597266, "lon": 18.8532896, "tags": {"name": "K\u0151-hegyi kil\u00e1t\u00e1s", "tourism": "viewpoint"}}, {"type": "node", "id": 2497087478, "lat": 47.4620978, "lon": 18.8548434, "tags": {"tourism": "viewpoint"}}, {"type": "node", "id": 2517103813, "lat": 47.591394, "lon": 18.6549133, "tags": {"tourism": "viewpoint"}}, {"type": "node", "id": 2526523862, "lat": 47.5931073, "lon": 18.8449642, "tags": {"tourism": "viewpoint"}}, {"type": "node", "id": 2594204982, "lat": 47.6888133, "lon": 18.8728888}, {"type": "node", "id": 2594204984, "lat": 47.6888127, "lon": 18.872897}, {"type": "node", "id": 2594204986, "lat": 47.6888154, "lon": 18.8728812}, {"type": "node", "id": 2594204988, "lat": 47.6888137, "lon": 18.872905}, {"type": "node", "id": 2594204989, "lat": 47.6888189, "lon": 18.8728748}, {"type": "node", "id": 2594204990, "lat": 47.6888162, "lon": 18.8729124}, {"type": "node", "id": 2594204992, "lat": 47.6888234, "lon": 18.8728701}, {"type": "node", "id": 2594204994, "lat": 47.6888287, "lon": 18.8728675}, {"type": "node", "id": 2594204995, "lat": 47.68882, "lon": 18.8729184}, {"type": "node", "id": 2594204999, "lat": 47.6888248, "lon": 18.8729226}, {"type": "node", "id": 2594205001, "lat": 47.6888342, "lon": 18.8728672}, {"type": "node", "id": 2594205003, "lat": 47.6888301, "lon": 18.8729246}, {"type": "node", "id": 2594205004, "lat": 47.6888396, "lon": 18.8728692}, {"type": "node", "id": 2594205006, "lat": 47.6888356, "lon": 18.8729243}, {"type": "node", "id": 2594205007, "lat": 47.6888409, "lon": 18.8729217}, {"type": "node", "id": 2594205009, "lat": 47.6888443, "lon": 18.8728734}, {"type": "node", "id": 2594205010, "lat": 47.6888454, "lon": 18.872917}, {"type": "node", "id": 2594205012, "lat": 47.6888481, "lon": 18.8728794}, {"type": "node", "id": 2594205014, "lat": 47.6888489, "lon": 18.8729106}, {"type": "node", "id": 2594205015, "lat": 47.6888506, "lon": 18.8728867}, {"type": "node", "id": 2594205017, "lat": 47.688851, "lon": 18.872903}, {"type": "node", "id": 2594205018, "lat": 47.6888516, "lon": 18.8728948}, {"type": "node", "id": 2670102211, "lat": 47.7095127, "lon": 19.0503618, "tags": {"is_in": "Pilis-hegys\u00e9g", "tourism": "viewpoint"}}, {"type": "node", "id": 2670102254, "lat": 47.7109171, "lon": 19.0498166, "tags": {"direction": "220", "is_in": "Pilis-hegys\u00e9g", "tourism": "viewpoint"}}, {"type": "node", "id": 2673324462, "lat": 47.565366, "lon": 18.9187461, "tags": {"direction": "S-W", "ele": "420", "name": "Szikl\u00e1k", "tourism": "viewpoint"}}, {"type": "node", "id": 2681398745, "lat": 47.5913878, "lon": 18.8748657, "tags": {"tourism": "viewpoint"}}, {"type": "node", "id": 2691310824, "lat": 47.5722779, "lon": 18.9253366, "tags": {"direction": "E", "ele": "380", "name": "Kil\u00e1t\u00e1s a Kerekhegyre, M\u00e1riaremet\u00e9re", "tourism": "viewpoint"}}, {"type": "node", "id": 2696703106, "lat": 47.5141467, "lon": 18.9758611, "tags": {"tourism": "viewpoint"}}, {"type": "node", "id": 2696708430, "lat": 47.5351459, "lon": 18.9996728}, {"type": "node", "id": 2696708431, "lat": 47.5352098, "lon": 18.9998736}, {"type": "node", "id": 2696708432, "lat": 47.5351685, "lon": 18.9999097}, {"type": "node", "id": 2696708433, "lat": 47.5351017, "lon": 18.9996958}, {"type": "node", "id": 2715672746, "lat": 47.7168125, "lon": 19.0616628, "tags": {"tourism": "viewpoint"}}, {"type": "node", "id": 2719517405, "lat": 47.732245, "lon": 19.0577125, "tags": {"direction": "40", "is_in": "Pilis - Visegr\u00e1di-hegys\u00e9g", "tourism": "viewpoint"}}, {"type": "node", "id": 2731053530, "lat": 47.7099385, "lon": 19.0684605, "tags": {"tourism": "viewpoint"}}, {"type": "node", "id": 2731054041, "lat": 47.7161729, "lon": 19.0509874, "tags": {"direction": "170", "tourism": "viewpoint", "wheelchair": "no"}}, {"type": "node", "id": 2733339436, "lat": 47.7085858, "lon": 18.887979, "tags": {"direction": "SE-NW", "is_in": "Pilis-hegys\u00e9g", "tourism": "viewpoint"}}, {"type": "node", "id": 2736903468, "lat": 47.5161468, "lon": 19.0347352, "tags": {"tourism": "viewpoint"}}, {"type": "node", "id": 2752483745, "lat": 47.6679827, "lon": 19.0759561, "tags": {"tourism": "viewpoint"}}, {"type": "node", "id": 2753430803, "lat": 47.5181427, "lon": 18.9592813}, {"type": "node", "id": 2753430804, "lat": 47.5181427, "lon": 18.9593191}, {"type": "node", "id": 2753430806, "lat": 47.518151, "lon": 18.9593549}, {"type": "node", "id": 2753430807, "lat": 47.518151, "lon": 18.9592455}, {"type": "node", "id": 2753430808, "lat": 47.5181667, "lon": 18.9593848}, {"type": "node", "id": 2753430810, "lat": 47.5181881, "lon": 18.9594055}, {"type": "node", "id": 2753430811, "lat": 47.5181881, "lon": 18.959195}, {"type": "node", "id": 2753430812, "lat": 47.5182128, "lon": 18.9594148}, {"type": "node", "id": 2753430813, "lat": 47.5182129, "lon": 18.9591857}, {"type": "node", "id": 2753430815, "lat": 47.5182383, "lon": 18.9594117}, {"type": "node", "id": 2753430816, "lat": 47.5182384, "lon": 18.9591889}, {"type": "node", "id": 2753430818, "lat": 47.5182617, "lon": 18.9593965}, {"type": "node", "id": 2753430819, "lat": 47.5182618, "lon": 18.9592041}, {"type": "node", "id": 2753430820, "lat": 47.5182805, "lon": 18.9593709}, {"type": "node", "id": 2753430821, "lat": 47.5182805, "lon": 18.9592297}, {"type": "node", "id": 2753430822, "lat": 47.5182927, "lon": 18.9593376}, {"type": "node", "id": 2754952898, "lat": 47.7236062, "lon": 18.5750393, "tags": {"tourism": "viewpoint"}}, {"type": "node", "id": 2754952972, "lat": 47.7263067, "lon": 18.5742276, "tags": {"tourism": "viewpoint"}}, {"type": "node", "id": 2767103649, "lat": 47.4818943, "lon": 18.9832698, "tags": {"direction": "95-240", "tourism": "viewpoint"}}, {"type": "node", "id": 2767103660, "lat": 47.4819368, "lon": 18.9873978, "tags": {"direction": "280-50", "name": "\u00d6rd\u00f6g-sz\u00f3sz\u00e9k kil\u00e1t\u00e1s", "tourism": "viewpoint"}}, {"type": "node", "id": 2883217643, "lat": 47.5769549, "lon": 18.9591392, "tags": {"direction": "SW-NW", "source": "survey", "survey:date": "2020-05-16", "tourism": "viewpoint"}}, {"type": "node", "id": 2919085186, "lat": 47.648699, "lon": 18.8352142, "tags": {"ele": "447", "height": "10", "man_made": "tower", "name": "D\u00e9v\u00e9nyi Antal kil\u00e1t\u00f3", "operator": "Pilisi Parkerd\u0151 ZRt", "tourism": "viewpoint", "tower:type": "observation"}}, {"type": "node", "id": 2923462716, "lat": 47.5759734, "lon": 18.9674893, "tags": {"direction": "NW-N", "tourism": "viewpoint"}}, {"type": "node", "id": 2924516539, "lat": 47.5897796, "lon": 18.9096095, "tags": {"tourism": "viewpoint"}}, {"type": "node", "id": 2925947601, "lat": 47.6515016, "lon": 18.9730507, "tags": {"name": "Stiasny-pihen\u0151", "tourism": "viewpoint"}}, {"type": "node", "id": 2954966213, "lat": 47.5503532, "lon": 18.5464689, "tags": {"name": "Kil\u00e1t\u00e1s", "tourism": "viewpoint"}}, {"type": "node", "id": 2954984568, "lat": 47.5467881, "lon": 18.5466392, "tags": {"name": "Kil\u00e1t\u00e1s", "tourism": "viewpoint"}}, {"type": "node", "id": 2954984569, "lat": 47.5469319, "lon": 18.5436777, "tags": {"name": "Kil\u00e1t\u00e1s", "tourism": "viewpoint"}}, {"type": "node", "id": 2977083770, "lat": 47.5450533, "lon": 19.0153245, "tags": {"name": "K\u0151taraj", "tourism": "viewpoint"}}, {"type": "node", "id": 2992998808, "lat": 47.7192988, "lon": 18.8157091, "tags": {"direction": "100-260", "ele": "435", "mapillary": "835694843715258", "tourism": "viewpoint"}}, {"type": "node", "id": 2993896771, "lat": 47.5241864, "lon": 18.6136835, "tags": {"tourism": "viewpoint"}}, {"type": "node", "id": 2994009321, "lat": 47.5185312, "lon": 18.5573311, "tags": {"tourism": "viewpoint"}}, {"type": "node", "id": 3011246165, "lat": 47.5764186, "lon": 18.965216, "tags": {"name": "kil\u00e1t\u00f3szikla", "tourism": "viewpoint"}}, {"type": "node", "id": 3013917718, "lat": 47.531564, "lon": 18.9860881, "tags": {"name": "Ap\u00e1thy-szikla", "natural": "rock", "tourism": "viewpoint"}}, {"type": "node", "id": 3014440682, "lat": 47.4351422, "lon": 18.629461, "tags": {"tourism": "viewpoint"}}, {"type": "node", "id": 3022909985, "lat": 47.5732611, "lon": 18.9758459, "tags": {"tourism": "viewpoint"}}, {"type": "node", "id": 3035706355, "lat": 47.5904291, "lon": 19.0342808, "tags": {"tourism": "viewpoint"}}, {"type": "node", "id": 3035706356, "lat": 47.5909496, "lon": 19.0353915, "tags": {"tourism": "viewpoint"}}, {"type": "node", "id": 3076654546, "lat": 47.6911214, "lon": 18.982748, "tags": {"tourism": "viewpoint"}}, {"type": "node", "id": 3076760930, "lat": 47.561152, "lon": 18.9275433, "tags": {"ele": "355", "tourism": "viewpoint"}}, {"type": "node", "id": 3153555287, "lat": 47.7314704, "lon": 19.0582773, "tags": {"direction": "70", "is_in": "Pilis - Visegr\u00e1di-hegys\u00e9g", "tourism": "viewpoint"}}, {"type": "node", "id": 3158264020, "lat": 47.5518457, "lon": 18.865001}, {"type": "node", "id": 3158264021, "lat": 47.5518461, "lon": 18.8651175}, {"type": "node", "id": 3158264022, "lat": 47.551786, "lon": 18.865118}, {"type": "node", "id": 3158264023, "lat": 47.5517856, "lon": 18.8650015}, {"type": "node", "id": 3163450508, "lat": 47.5433027, "lon": 18.9903041, "tags": {"addr:city": "Budapest", "addr:conscriptionnumber": "15980/21", "addr:postcode": "1025", "addr:street": "Kecskehegyi \u00fat", "is_in": "Kecske-hegy;Sz\u00e9pv\u00f6lgy;Budai hegys\u00e9g", "tourism": "viewpoint"}}, {"type": "node", "id": 3164423483, "lat": 47.4759794, "lon": 18.9560942, "tags": {"survey:date": "2020-08-15", "tourism": "viewpoint"}}, {"type": "node", "id": 3177962663, "lat": 47.7395346, "lon": 18.9206945, "tags": {"direction": "0", "ele": "639", "tourism": "viewpoint"}}, {"type": "node", "id": 3206235083, "lat": 47.5034926, "lon": 19.010679, "tags": {"is_in": "Kissv\u00e1bhegy", "name": "Kissv\u00e1bhegyi kil\u00e1t\u00f3hely", "tourism": "viewpoint"}}, {"type": "node", "id": 3213130437, "lat": 47.4854875, "lon": 19.0309756, "tags": {"direction": "130-220", "ele": "150", "loc_name": "Vas\u00fati alag\u00fat felett", "name": "Vonatn\u00e9z\u0151 alag\u00fatn\u00e1l", "source": "survey", "survey:date": "2022-04-26", "tourism": "viewpoint", "website": "https://geocaching.hu/caches.geo?id=5452"}}, {"type": "node", "id": 3215109665, "lat": 47.4946138, "lon": 18.987341}, {"type": "node", "id": 3215109666, "lat": 47.494616, "lon": 18.9873614}, {"type": "node", "id": 3215109667, "lat": 47.4946187, "lon": 18.9873217}, {"type": "node", "id": 3215109670, "lat": 47.4946249, "lon": 18.9873773}, {"type": "node", "id": 3215109671, "lat": 47.4946295, "lon": 18.9873086}, {"type": "node", "id": 3215109672, "lat": 47.494638, "lon": 18.9873846}, {"type": "node", "id": 3215109673, "lat": 47.4946433, "lon": 18.9873052}, {"type": "node", "id": 3215109676, "lat": 47.4946518, "lon": 18.9873812}, {"type": "node", "id": 3215109678, "lat": 47.4946564, "lon": 18.9873125}, {"type": "node", "id": 3215109679, "lat": 47.4946626, "lon": 18.9873681}, {"type": "node", "id": 3215109680, "lat": 47.4946653, "lon": 18.9873284}, {"type": "node", "id": 3215109681, "lat": 47.4946676, "lon": 18.9873488}, {"type": "node", "id": 3266194042, "lat": 47.6119941, "lon": 19.005643, "tags": {"direction": "S", "tourism": "viewpoint"}}, {"type": "node", "id": 3266194396, "lat": 47.6216572, "lon": 18.9857947, "tags": {"is_in": "Nagykev\u00e9ly", "name": "Kil\u00e1t\u00e1s", "tourism": "viewpoint"}}, {"type": "node", "id": 3266194398, "lat": 47.6227154, "lon": 18.9846024, "tags": {"is_in": "Nagykev\u00e9ly", "name": "Nagy-Kev\u00e9ly", "tourism": "viewpoint", "wikidata": "Q110254041", "wikipedia": "hu:Nagy-Kev\u00e9ly"}}, {"type": "node", "id": 3266194674, "lat": 47.6110513, "lon": 19.0071683, "tags": {"tourism": "viewpoint"}}, {"type": "node", "id": 3307986437, "lat": 47.4689566, "lon": 19.070634, "tags": {"tourism": "viewpoint"}}, {"type": "node", "id": 3364697711, "lat": 47.424988, "lon": 18.9249386}, {"type": "node", "id": 3364697712, "lat": 47.4249934, "lon": 18.9249537}, {"type": "node", "id": 3364697716, "lat": 47.4250105, "lon": 18.924879}, {"type": "node", "id": 3364697721, "lat": 47.4250415, "lon": 18.9248763}, {"type": "node", "id": 3364697723, "lat": 47.4250593, "lon": 18.9249492}, {"type": "node", "id": 3364697725, "lat": 47.4250647, "lon": 18.9249328}, {"type": "node", "id": 3367455690, "lat": 47.7247944, "lon": 18.941462, "tags": {"is_in": "Pilis-hegys\u00e9g", "tourism": "viewpoint"}}, {"type": "node", "id": 3367455796, "lat": 47.7256768, "lon": 18.962963, "tags": {"tourism": "viewpoint"}}, {"type": "node", "id": 3393313338, "lat": 47.4804908, "lon": 18.9398462, "tags": {"source": "turistautak.hu", "tourism": "viewpoint"}}, {"type": "node", "id": 3400431707, "lat": 47.6946114, "lon": 18.995808, "tags": {"name": "kil\u00e1t\u00e1s", "tourism": "viewpoint"}}, {"type": "node", "id": 3412495400, "lat": 47.7420796, "lon": 18.9094929, "tags": {"is_in": "Vad\u00e1ll\u00f3-k\u00f6vek; Pilis-hegys\u00e9g", "tourism": "viewpoint"}}, {"type": "node", "id": 3425160707, "lat": 47.5912876, "lon": 19.0348314, "tags": {"noexit": "yes", "tourism": "viewpoint"}}, {"type": "node", "id": 3441705131, "lat": 47.6894135, "lon": 18.8743413, "tags": {"direction": "45-135", "free_flying:site": "takeoff", "is_in": "Pilis-hegy; Pilis-hegys\u00e9g", "name": "Sikl\u00f3erny\u0151s starthely", "source": "turistautak.hu", "source:date": "2014-02-06", "sport": "free_flying", "tourism": "viewpoint", "url": "http://turistautak.hu/poi.php?id=79188"}}, {"type": "node", "id": 3441705183, "lat": 47.6301942, "lon": 18.9708576, "tags": {"source": "survey", "survey:date": "2018-03-11", "tourism": "viewpoint", "url": "http://turistautak.hu/poi.php?id=99330"}}, {"type": "node", "id": 3441705185, "lat": 47.6319469, "lon": 18.9699436, "tags": {"source": "turistautak.hu", "source:date": "2014-02-06", "tourism": "viewpoint", "url": "http://turistautak.hu/poi.php?id=99329"}}, {"type": "node", "id": 3441705188, "lat": 47.641438, "lon": 18.975173, "tags": {"source": "turistautak.hu", "source:date": "2014-02-06", "tourism": "viewpoint", "url": "http://turistautak.hu/poi.php?id=146022"}}, {"type": "node", "id": 3441705191, "lat": 47.6424621, "lon": 18.9744465, "tags": {"source": "turistautak.hu", "source:date": "2014-02-06", "tourism": "viewpoint", "url": "http://turistautak.hu/poi.php?id=22551"}}, {"type": "node", "id": 3441705212, "lat": 47.6486756, "lon": 18.9297235, "tags": {"ele": "410", "man_made": "survey_point", "name": "Zirib\u00e1r", "ref": "75-3419", "source": "turistautak.hu", "source:date": "2014-02-06", "tourism": "viewpoint", "url": "http://turistautak.hu/poi.php?id=16892"}}, {"type": "node", "id": 3441705253, "lat": 47.687957, "lon": 18.866297, "tags": {"direction": "150-300", "is_in": "Pilis-hegy; Pilis-hegys\u00e9g", "source": "turistautak.hu", "source:date": "2014-02-06", "tourism": "viewpoint", "url": "http://turistautak.hu/poi.php?id=86340"}}, {"type": "node", "id": 3441705435, "lat": 47.717217, "lon": 19.062967, "tags": {"source": "turistautak.hu", "source:date": "2014-02-06", "tourism": "viewpoint", "url": "http://turistautak.hu/poi.php?id=5981"}}, {"type": "node", "id": 3441705640, "lat": 47.746599, "lon": 18.967286, "tags": {"source": "turistautak.hu", "source:date": "2014-02-06", "tourism": "viewpoint", "url": "http://turistautak.hu/poi.php?id=117042"}}, {"type": "node", "id": 3441705642, "lat": 47.748168, "lon": 18.923798, "tags": {"is_in": "Pilis-hegys\u00e9g", "source": "turistautak.hu", "source:date": "2014-02-06", "tourism": "viewpoint", "url": "http://turistautak.hu/poi.php?id=4448"}}, {"type": "node", "id": 3441705689, "lat": 47.761033, "lon": 18.983817, "tags": {"is_in": "Pilis-hegys\u00e9g", "source": "turistautak.hu", "source:date": "2014-02-06", "tourism": "viewpoint", "url": "http://turistautak.hu/poi.php?id=160525"}}, {"type": "node", "id": 3447119030, "lat": 47.516178, "lon": 18.560533, "tags": {"source": "turistautak.hu", "tourism": "viewpoint", "url": "http://turistautak.hu/poi.php?id=33599"}}, {"type": "node", "id": 3454424677, "lat": 47.706211, "lon": 18.714371, "tags": {"source": "turistautak.hu", "source:date": "2013-10-29", "tourism": "viewpoint", "url": "http://turistautak.hu/poi.php?id=161266"}}, {"type": "node", "id": 3454425195, "lat": 47.712167, "lon": 18.675462, "tags": {"source": "turistautak.hu", "source:date": "2013-03-30", "tourism": "viewpoint", "url": "http://turistautak.hu/poi.php?id=61068"}}, {"type": "node", "id": 3454425201, "lat": 47.712453, "lon": 18.647605, "tags": {"source": "turistautak.hu", "source:date": "2013-01-02", "tourism": "viewpoint", "url": "http://turistautak.hu/poi.php?id=149175"}}, {"type": "node", "id": 3454425211, "lat": 47.718748, "lon": 18.683023, "tags": {"source": "turistautak.hu", "source:date": "2013-03-30", "tourism": "viewpoint", "url": "http://turistautak.hu/poi.php?id=63793"}}, {"type": "node", "id": 3454425585, "lat": 47.738188, "lon": 18.914328, "tags": {"is_in": "Vad\u00e1ll\u00f3-k\u00f6vek; Pilis-hegys\u00e9g", "source": "turistautak.hu", "source:date": "2014-02-06", "tourism": "viewpoint", "url": "http://turistautak.hu/poi.php?id=5748"}}, {"type": "node", "id": 3454425591, "lat": 47.74086, "lon": 18.911445, "tags": {"is_in": "Vad\u00e1ll\u00f3-k\u00f6vek; Pilis-hegys\u00e9g", "source": "turistautak.hu", "source:date": "2014-02-06", "tourism": "viewpoint", "url": "http://turistautak.hu/poi.php?id=5755", "website": "https://parkerdo.hu/turizmus/latnivalok/vadallo-kovek/", "wheelchair": "no"}}, {"type": "node", "id": 3454425893, "lat": 47.74162, "lon": 18.91024, "tags": {"is_in": "Vad\u00e1ll\u00f3-k\u00f6vek; Pilis-hegys\u00e9g", "source": "turistautak.hu", "source:date": "2014-02-06", "tourism": "viewpoint", "url": "http://turistautak.hu/poi.php?id=5756"}}, {"type": "node", "id": 3454425897, "lat": 47.7438044, "lon": 18.8257395, "tags": {"is_in": "Pilis-hegys\u00e9g", "source": "turistautak.hu", "source:date": "2014-02-06", "tourism": "viewpoint", "url": "http://turistautak.hu/poi.php?id=92542"}}, {"type": "node", "id": 3454532160, "lat": 47.5295913, "lon": 18.917402}, {"type": "node", "id": 3454542448, "lat": 47.4804, "lon": 18.93508, "tags": {"ele": "312", "source": "turistautak.hu", "source:date": "2014-02-04", "tourism": "viewpoint", "url": "http://turistautak.hu/poi.php?id=2567"}}, {"type": "node", "id": 3454542458, "lat": 47.484097, "lon": 18.818754, "tags": {"source": "turistautak.hu", "source:date": "2014-02-04", "tourism": "viewpoint", "url": "http://turistautak.hu/poi.php?id=124686"}}, {"type": "node", "id": 3454542639, "lat": 47.462671, "lon": 18.847874, "tags": {"ele": "227", "name": "K\u00f6z\u00e9p-hegyi kil\u00e1t\u00e1s", "source": "turistautak.hu", "source:date": "2014-02-04", "tourism": "viewpoint", "url": "http://turistautak.hu/poi.php?id=145850"}}, {"type": "node", "id": 3454542641, "lat": 47.4634273, "lon": 18.9332017, "tags": {"source": "turistautak.hu", "source:date": "2014-02-04", "tourism": "viewpoint", "url": "http://turistautak.hu/poi.php?id=150001"}}, {"type": "node", "id": 3454542736, "lat": 47.533325, "lon": 18.928747, "tags": {"ele": "381", "source": "turistautak.hu", "source:date": "2014-02-04", "tourism": "viewpoint", "url": "http://turistautak.hu/poi.php?id=20175"}}, {"type": "node", "id": 3454542753, "lat": 47.549585, "lon": 18.715687, "tags": {"mapillary": "380685963360846", "source": "turistautak.hu", "source:date": "2012-12-05", "tourism": "viewpoint", "url": "http://turistautak.hu/poi.php?id=148141"}}, {"type": "node", "id": 3454542766, "lat": 47.557787, "lon": 18.717289, "tags": {"source": "turistautak.hu", "source:date": "2014-02-04", "tourism": "viewpoint", "url": "http://turistautak.hu/poi.php?id=148139"}}, {"type": "node", "id": 3454542773, "lat": 47.5605274, "lon": 18.9293483, "tags": {"ele": "300", "is_in": "Remete-szurdok;Remetesz\u0151l\u0151s", "source": "turistautak.hu", "source:date": "2014-02-04", "tourism": "viewpoint", "url": "http://turistautak.hu/poi.php?id=134009"}}, {"type": "node", "id": 3454542775, "lat": 47.56136, "lon": 18.83148, "tags": {"source": "turistautak.hu", "source:date": "2014-02-04", "tourism": "viewpoint", "url": "http://turistautak.hu/poi.php?id=133039"}}, {"type": "node", "id": 3454543098, "lat": 47.583507, "lon": 18.823483, "tags": {"direction": "200-300", "ele": "375", "name": "Ilona-lak kil\u00e1t\u00e1s", "source": "turistautak.hu", "source:date": "2014-02-04", "tourism": "viewpoint", "url": "http://turistautak.hu/poi.php?id=22527"}}, {"type": "node", "id": 3454543103, "lat": 47.58645, "lon": 18.870133, "tags": {"source": "turistautak.hu", "source:date": "2014-02-04", "survey:date": "2021-04-10", "tourism": "viewpoint", "url": "http://turistautak.hu/poi.php?id=131953"}}, {"type": "node", "id": 3454543104, "lat": 47.586583, "lon": 18.873333, "tags": {"source": "turistautak.hu", "source:date": "2014-02-04", "tourism": "viewpoint", "url": "http://turistautak.hu/poi.php?id=131954"}}, {"type": "node", "id": 3454543111, "lat": 47.596153, "lon": 18.822287, "tags": {"source": "turistautak.hu", "source:date": "2014-02-04", "tourism": "viewpoint", "url": "http://turistautak.hu/poi.php?id=10351"}}, {"type": "node", "id": 3454543113, "lat": 47.596621, "lon": 18.8195423, "tags": {"source": "turistautak.hu", "source:date": "2014-02-04", "tourism": "viewpoint", "url": "http://turistautak.hu/poi.php?id=67653"}}, {"type": "node", "id": 3461930485, "lat": 47.576483, "lon": 18.968283, "tags": {"amenity": "bench", "fixme": "position", "material": "stone", "name": "K\u00f6t\u0151k padja", "source": "turistautak.hu", "source:date": "2014-02-04", "tourism": "viewpoint", "url": "http://turistautak.hu/poi.php?id=16385"}}, {"type": "node", "id": 3461930536, "lat": 47.6225043, "lon": 18.9848193, "tags": {"direction": "180-250", "free_flying:site": "takeoff", "is_in": "Nagykev\u00e9ly", "name": "Sikl\u00f3erny\u0151s starthely", "source": "turistautak.hu", "source:date": "2014-02-06", "sport": "free_flying", "tourism": "viewpoint", "url": "http://turistautak.hu/poi.php?id=79182"}}, {"type": "node", "id": 3461930538, "lat": 47.682909, "lon": 18.874196, "tags": {"aeroway": "yes", "direction": "135-225", "ele": "630", "free_flying:site": "takeoff", "is_in": "Pilis-hegy; Pilis-hegys\u00e9g", "name": "Sikl\u00f3erny\u0151s starthely, Pilis-D", "source": "turistautak.hu", "source:date": "2014-02-06", "sport": "free_flying", "tourism": "viewpoint", "url": "http://turistautak.hu/poi.php?id=79189"}}, {"type": "node", "id": 3461930539, "lat": 47.6857827, "lon": 18.8674756, "tags": {"aeroway": "yes", "direction": "115-315", "ele": "701", "free_flying:site": "takeoff", "is_in": "Pilis-hegy; Pilis-hegys\u00e9g", "name": "Sikl\u00f3erny\u0151s starthely, Pilis-DNY", "source": "turistautak.hu", "source:date": "2014-02-06", "sport": "free_flying", "surface": "grass", "tourism": "viewpoint", "url": "http://turistautak.hu/poi.php?id=79187"}}, {"type": "node", "id": 3461930704, "lat": 47.602596, "lon": 18.874057, "tags": {"ele": "342", "source": "turistautak.hu", "source:date": "2014-03-11", "tourism": "viewpoint", "url": "http://turistautak.hu/poi.php?id=166688"}}, {"type": "node", "id": 3461930705, "lat": 47.60275, "lon": 18.8772, "tags": {"ele": "322", "source": "turistautak.hu", "source:date": "2014-02-04", "tourism": "viewpoint", "url": "http://turistautak.hu/poi.php?id=127746"}}, {"type": "node", "id": 3461930709, "lat": 47.604846, "lon": 18.861686, "tags": {"ele": "405", "source": "turistautak.hu", "source:date": "2014-03-11", "tourism": "viewpoint", "url": "http://turistautak.hu/poi.php?id=166686"}}, {"type": "node", "id": 3461930712, "lat": 47.605564, "lon": 18.867807, "tags": {"source": "turistautak.hu", "source:date": "2014-03-11", "tourism": "viewpoint", "url": "http://turistautak.hu/poi.php?id=166687"}}, {"type": "node", "id": 3461930754, "lat": 47.6258935, "lon": 18.8354529, "tags": {"is_in": "K\u00e1lv\u00e1ria-hegy", "source": "turistautak.hu", "source:date": "2014-02-06", "tourism": "viewpoint", "url": "http://turistautak.hu/poi.php?id=160535"}}, {"type": "node", "id": 3461930771, "lat": 47.633133, "lon": 18.870417, "tags": {"description": "Sz\u00e9p panor\u00e1ma kil\u00e1t\u00e1s az \u00faj Boldog \u00d6zs\u00e9b-kil\u00e1t\u00f3ra \u00e9s a k\u00f6rny\u00e9k\u00e9re.", "ele": "335", "source": "turistautak.hu", "source:date": "2014-12-29", "tourism": "viewpoint", "url": "http://turistautak.hu/poi.php?id=175560"}}, {"type": "node", "id": 3461931212, "lat": 47.682577, "lon": 18.874033, "tags": {"ele": "615", "is_in": "Pilis-hegy; Pilis-hegys\u00e9g", "name": "Pilis D\u00e9li kil\u00e1t\u00f3", "source": "turistautak.hu", "source:date": "2014-02-06", "tourism": "viewpoint", "url": "http://turistautak.hu/poi.php?id=9322"}}, {"type": "node", "id": 3461931213, "lat": 47.683283, "lon": 18.87215, "tags": {"ele": "630", "is_in": "Pilis-hegy; Pilis-hegys\u00e9g", "source": "turistautak.hu", "source:date": "2014-11-15", "tourism": "viewpoint", "url": "http://turistautak.hu/poi.php?id=174056"}}, {"type": "node", "id": 3465236410, "lat": 47.590702, "lon": 19.036972, "tags": {"source": "turistautak.hu", "source:date": "2014-02-06", "tourism": "viewpoint", "url": "http://turistautak.hu/poi.php?id=52172"}}, {"type": "node", "id": 3465236411, "lat": 47.590932, "lon": 19.033458, "tags": {"source": "turistautak.hu", "source:date": "2014-02-06", "tourism": "viewpoint", "url": "http://turistautak.hu/poi.php?id=61839"}}, {"type": "node", "id": 3465755595, "lat": 47.5898591, "lon": 18.9073584, "tags": {"ele": "350", "tourism": "viewpoint"}}, {"type": "node", "id": 3473874031, "lat": 47.623938, "lon": 18.992877, "tags": {"source": "turistautak.hu", "source:date": "2014-02-06", "tourism": "viewpoint", "url": "http://turistautak.hu/poi.php?id=13491"}}, {"type": "node", "id": 3473874034, "lat": 47.624283, "lon": 18.982667, "tags": {"source": "turistautak.hu", "source:date": "2014-02-06", "tourism": "viewpoint", "url": "http://turistautak.hu/poi.php?id=151807"}}, {"type": "node", "id": 3473874818, "lat": 47.667496, "lon": 18.9884744, "tags": {"source": "turistautak.hu", "source:date": "2014-02-06", "tourism": "viewpoint", "url": "http://turistautak.hu/poi.php?id=71489"}}, {"type": "node", "id": 3473874854, "lat": 47.686695, "lon": 19.003124, "tags": {"source": "turistautak.hu", "source:date": "2014-02-06", "tourism": "viewpoint", "url": "http://turistautak.hu/poi.php?id=135491"}}, {"type": "node", "id": 3473874873, "lat": 47.694029, "lon": 18.978436, "tags": {"source": "turistautak.hu", "source:date": "2014-02-06", "tourism": "viewpoint", "url": "http://turistautak.hu/poi.php?id=135493"}}, {"type": "node", "id": 3473874874, "lat": 47.694672, "lon": 18.99678, "tags": {"source": "turistautak.hu", "source:date": "2014-02-06", "tourism": "viewpoint", "url": "http://turistautak.hu/poi.php?id=110211"}}, {"type": "node", "id": 3473874879, "lat": 47.6957481, "lon": 18.9903203, "tags": {"source": "turistautak.hu", "source:date": "2014-02-06", "tourism": "viewpoint", "url": "http://turistautak.hu/poi.php?id=4038"}}, {"type": "node", "id": 3479987774, "lat": 47.4867387, "lon": 19.0488468, "tags": {"source": "survey", "tourism": "viewpoint"}}, {"type": "node", "id": 3479987788, "lat": 47.4895388, "lon": 19.0389885, "tags": {"source": "survey", "tourism": "viewpoint"}}, {"type": "node", "id": 3488447764, "lat": 47.4054969, "lon": 18.9315527, "tags": {"source": "turistautak.hu", "source:date": "2011-06-29", "tourism": "viewpoint", "url": "http://turistautak.hu/poi.php?id=20031"}}, {"type": "node", "id": 3488447768, "lat": 47.4083549, "lon": 18.8345304, "tags": {"source": "turistautak.hu", "source:date": "2014-02-04", "tourism": "viewpoint", "url": "http://turistautak.hu/poi.php?id=74316"}}, {"type": "node", "id": 3488447777, "lat": 47.429478, "lon": 18.846933, "tags": {"source": "turistautak.hu", "source:date": "2014-02-04", "tourism": "viewpoint", "url": "http://turistautak.hu/poi.php?id=47171"}}, {"type": "node", "id": 3488447787, "lat": 47.445009, "lon": 18.916529, "tags": {"source": "turistautak.hu", "source:date": "2011-06-29", "tourism": "viewpoint", "url": "http://turistautak.hu/poi.php?id=113199"}}, {"type": "node", "id": 3558108810, "lat": 47.5772375, "lon": 18.9570551, "tags": {"direction": "SW-NW", "natural": "rock", "tourism": "viewpoint"}}, {"type": "node", "id": 3561913580, "lat": 47.5431512, "lon": 18.9909537, "tags": {"addr:city": "Budapest", "addr:conscriptionnumber": "15980/21", "addr:postcode": "1025", "addr:street": "Kecskehegyi \u00fat", "ele": "383", "is_in": "Kecske-hegy;Sz\u00e9pv\u00f6lgy;Budai hegys\u00e9g", "name": "Szikla kil\u00e1t\u00f3hely", "tourism": "viewpoint"}}, {"type": "node", "id": 3588629191, "lat": 47.6593555, "lon": 18.8043415, "tags": {"ele": "337", "tourism": "viewpoint"}}, {"type": "node", "id": 3588629242, "lat": 47.6595579, "lon": 18.8050898, "tags": {"ele": "347", "tourism": "viewpoint"}}, {"type": "node", "id": 3608761419, "lat": 47.6734672, "lon": 19.017871, "tags": {"is_in": "K\u0151-hegy; Pilis - Visegr\u00e1di-hegys\u00e9g; Duna-Ipoly Nemzeti Park", "tourism": "viewpoint"}}, {"type": "node", "id": 3609833715, "lat": 47.7427469, "lon": 18.838498, "tags": {"name": "Fels\u0151-Ecset-hegyi kil\u00e1t\u00e1s", "tourism": "viewpoint"}}, {"type": "node", "id": 3611620514, "lat": 47.5153654, "lon": 18.9557128, "tags": {"tourism": "viewpoint"}}, {"type": "node", "id": 3622017593, "lat": 47.4648933, "lon": 18.9554716, "tags": {"tourism": "viewpoint"}}, {"type": "node", "id": 3634957840, "lat": 47.6688132, "lon": 18.8403032, "tags": {"tourism": "viewpoint"}}, {"type": "node", "id": 3647833632, "lat": 47.5028671, "lon": 19.0341678, "tags": {"tourism": "viewpoint", "wheelchair": "no"}}, {"type": "node", "id": 3710814624, "lat": 47.5421915, "lon": 18.8209018, "tags": {"name": "Telki Panor\u00e1ma Pont", "tourism": "viewpoint"}}, {"type": "node", "id": 3733355143, "lat": 47.5469325, "lon": 18.9831787, "tags": {"tourism": "viewpoint"}}, {"type": "node", "id": 3736066707, "lat": 47.4808122, "lon": 18.9102109, "tags": {"access": "public", "addr:city": "Budakeszi", "addr:country": "HU", "addr:district": "Budakeszi J\u00e1r\u00e1s", "addr:province": "Pest Megye", "alt_name": "Farkashegyi \u00e9szlel\u0151hely", "dark_sky": "medium", "description": "5,1 magnit\u00fad\u00f3 az \u00e9gbolt szabad szemes hat\u00e1rf\u00e9nyess\u00e9ge", "direction": "160-80", "ele": "200", "fee": "no", "is_in": "Farkashegy; Hossz\u00fa-d\u0171l\u0151", "leisure": "star_gazing", "name": "amat\u0151rcsillag\u00e1sz \u00e9szlel\u0151hely (5,1mn darksky), Budakeszi rept\u00e9r", "surface": "grass", "surveillance": "astronomy", "surveillance:type": "viewpoint", "tourism": "viewpoint", "type": "astronomy", "url": "http://egkep.com/?djvt", "url:darksky": "fenyszennyezes.hu", "website": "https://www.mcse.hu/eszlelohelyek/"}}, {"type": "node", "id": 3736445231, "lat": 47.7350205, "lon": 18.8439854, "tags": {"access": "public", "alt_name": "Plisszentl\u00e9leki \u00e9szlel\u0151hely", "closest_town": "Pilisszentl\u00e9lek", "dark_sky": "yes", "description": "kil\u00e1t\u00e1s a Dun\u00e1ra; 6,46 magnit\u00fad\u00f3 az \u00e9gbolt szabad szemes hat\u00e1rf\u00e9nyess\u00e9ge", "direction": "190-320", "ele": "380", "fee": "no", "is_in": "Husztina; Suller-hegy; Pilisszentl\u00e9lek k\u00fclter\u00fclet; Esztergom", "leisure": "star_gazing", "name": "amat\u0151rcsillag\u00e1sz \u00e9szlel\u0151hely Pilisszentl\u00e9lek (6,5mn)", "ref": "21.20 mag./arc sec2; 6,65 magnit\u00fad\u00f3; Bortle class 4", "surface": "grass", "surveillance": "astronomy", "surveillance:type": "viewpoint", "tourism": "viewpoint", "type": "astronomy", "url": "https://www.lightpollutionmap.info/#zoom=14.60&lat=47.7362&lon=18.8446&layers=0BFFFFFFTFFFFFFFFFF&state=eyJtYXJrZXJzIjp7Im1hcmtlcm15TG9jYXRpb24iOlsyMTM4MjE0LDU5NTkzODhdfX0=", "url:darksky": "fenyszennyezes.hu", "url:egkep": "http://egkep.com/?dhyv", "url:mcse": "https://www.mcse.hu/eszlelohelyek/", "website": "http://umap.openstreetmap.fr/hu/map/csillag-terkep_441074#8/47.324/19.660"}}, {"type": "node", "id": 3736865887, "lat": 47.4819273, "lon": 18.9865215, "tags": {"direction": "280-110", "name": "\u00d6rd\u00f6gorom panor\u00e1ma-gerinc", "tourism": "viewpoint"}}, {"type": "node", "id": 3736865889, "lat": 47.4819738, "lon": 18.9837511, "tags": {"direction": "120-220", "tourism": "viewpoint"}}, {"type": "node", "id": 3740444479, "lat": 47.7067357, "lon": 18.6939302, "tags": {"tourism": "viewpoint"}}, {"type": "node", "id": 3740444494, "lat": 47.7086867, "lon": 18.6829866, "tags": {"tourism": "viewpoint"}}, {"type": "node", "id": 3740444519, "lat": 47.7124136, "lon": 18.6711632, "tags": {"tourism": "viewpoint"}}, {"type": "node", "id": 3740444530, "lat": 47.714486, "lon": 18.6476083, "tags": {"tourism": "viewpoint"}}, {"type": "node", "id": 3761205593, "lat": 47.4936232, "lon": 19.0272302, "tags": {"direction": "320-135", "material": "wood", "official_name": "Vonatn\u00e9z\u0151 D\u00e9li-pu.", "tourism": "viewpoint"}}, {"type": "node", "id": 3761961059, "lat": 47.7246996, "lon": 18.8009695, "tags": {"tourism": "viewpoint"}}, {"type": "node", "id": 3761961065, "lat": 47.7249942, "lon": 18.800959, "tags": {"tourism": "viewpoint"}}, {"type": "node", "id": 3761961076, "lat": 47.726195, "lon": 18.7977255, "tags": {"tourism": "viewpoint"}}, {"type": "node", "id": 3812943038, "lat": 47.6312375, "lon": 18.8660915, "tags": {"ele": "360", "tourism": "viewpoint"}}, {"type": "node", "id": 3812943758, "lat": 47.6325533, "lon": 18.872669, "tags": {"ele": "305", "tourism": "viewpoint"}}, {"type": "node", "id": 3824763295, "lat": 47.5792426, "lon": 18.7176894, "tags": {"is_in": "Zs\u00e1mb\u00e9ki-medence", "mapillary": "213278000560726", "name": "T\u00f6ki kil\u00e1t\u00e1s", "tourism": "viewpoint"}}, {"type": "node", "id": 3824768378, "lat": 47.5523281, "lon": 18.7084755, "tags": {"mapillary": "355900002533058", "tourism": "viewpoint"}}, {"type": "node", "id": 3824768379, "lat": 47.5555127, "lon": 18.7120189, "tags": {"tourism": "viewpoint"}}, {"type": "node", "id": 3851936101, "lat": 47.5151005, "lon": 18.5613703, "tags": {"name": "Veronika-tiszt\u00e1s", "tourism": "viewpoint"}}, {"type": "node", "id": 3879053632, "lat": 47.4306646, "lon": 18.8702268, "tags": {"name": "panor\u00e1ma", "tourism": "viewpoint"}}, {"type": "node", "id": 3879062087, "lat": 47.4302139, "lon": 18.9119858, "tags": {"name": "K\u00e1lv\u00e1ria-panor\u00e1ma", "tourism": "viewpoint"}}, {"type": "node", "id": 3879070358, "lat": 47.465613, "lon": 18.9572572, "tags": {"name": "panor\u00e1ma", "tourism": "viewpoint"}}, {"type": "node", "id": 3906228045, "lat": 47.6322306, "lon": 18.8693476, "tags": {"ele": "300", "tourism": "viewpoint"}}, {"type": "node", "id": 3925525522, "lat": 47.6887918, "lon": 18.7039747, "tags": {"direction": "95-275", "tourism": "viewpoint"}}, {"type": "node", "id": 3962093057, "lat": 47.4943633, "lon": 18.9989953, "tags": {"direction": "60-105", "loc_name": "fordul\u00f3", "tourism": "viewpoint"}}, {"type": "node", "id": 4000356654, "lat": 47.7253254, "lon": 18.7998763, "tags": {"tourism": "viewpoint"}}, {"type": "node", "id": 4018254306, "lat": 47.7353236, "lon": 19.0511403, "tags": {"direction": "40", "tourism": "viewpoint"}}, {"type": "node", "id": 4060519865, "lat": 47.5901425, "lon": 18.8336821, "tags": {"tourism": "viewpoint"}}, {"type": "node", "id": 4067015972, "lat": 47.6023628, "lon": 18.8086841, "tags": {"ele": "364", "tourism": "viewpoint"}}, {"type": "node", "id": 4067016101, "lat": 47.6029318, "lon": 18.8094316, "tags": {"tourism": "viewpoint"}}, {"type": "node", "id": 4082703794, "lat": 47.5823871, "lon": 18.9323257, "tags": {"name": "Kakukk-hegy", "tourism": "viewpoint"}}, {"type": "node", "id": 4083604283, "lat": 47.4373358, "lon": 18.9620452, "tags": {"tourism": "viewpoint"}}, {"type": "node", "id": 4083675516, "lat": 47.4495408, "lon": 18.8297805, "tags": {"direction": "210-10", "is_in": "Nyakask\u0151-\u00dcrgehegy", "tourism": "viewpoint"}}, {"type": "node", "id": 4093701879, "lat": 47.4515392, "lon": 18.830437, "tags": {"direction": "180-30", "name": "Mad\u00e1r-szirti kil\u00e1t\u00e1s", "tourism": "viewpoint"}}, {"type": "node", "id": 4093709300, "lat": 47.4532441, "lon": 18.8319659, "tags": {"direction": "210-30", "name": "Sz\u00e1zl\u00e9pcs\u0151 kil\u00e1t\u00e1s", "tourism": "viewpoint"}}, {"type": "node", "id": 4096728548, "lat": 47.5459151, "lon": 18.9551399, "tags": {"name": "Kil\u00e1t\u00f3hely", "tourism": "viewpoint"}}, {"type": "node", "id": 4107894049, "lat": 47.5554651, "lon": 18.9988193}, {"type": "node", "id": 4107894052, "lat": 47.555477, "lon": 18.9988822}, {"type": "node", "id": 4107894053, "lat": 47.5554787, "lon": 18.9988907}, {"type": "node", "id": 4107894054, "lat": 47.5554895, "lon": 18.9987545}, {"type": "node", "id": 4107894055, "lat": 47.5555224, "lon": 18.998927}, {"type": "node", "id": 4107894056, "lat": 47.5555377, "lon": 18.9987343}, {"type": "node", "id": 4107894058, "lat": 47.5555707, "lon": 18.9989068}, {"type": "node", "id": 4107894059, "lat": 47.5555815, "lon": 18.9987705}, {"type": "node", "id": 4107894060, "lat": 47.5555951, "lon": 18.9988419}, {"type": "node", "id": 4166967989, "lat": 47.5626664, "lon": 18.802994, "tags": {"name": "Kil\u00e1t\u00e1s a sz\u0151l\u0151dombokra", "tourism": "viewpoint"}}, {"type": "node", "id": 4172906889, "lat": 47.7475026, "lon": 18.871041, "tags": {"is_in": "Pilis - Visegr\u00e1di-hegys\u00e9g", "name": "Sz\u00e9p kil\u00e1t\u00e1s", "tourism": "viewpoint"}}, {"type": "node", "id": 4173015391, "lat": 47.715276, "lon": 18.728054, "tags": {"direction": "320-140", "tourism": "viewpoint"}}, {"type": "node", "id": 4173049690, "lat": 47.669909, "lon": 18.6921, "tags": {"tourism": "viewpoint"}}, {"type": "node", "id": 4173960534, "lat": 47.7202395, "lon": 18.7514011, "tags": {"tourism": "viewpoint"}}, {"type": "node", "id": 4188197447, "lat": 47.7142922, "lon": 18.7912888, "tags": {"tourism": "viewpoint"}}, {"type": "node", "id": 4214449205, "lat": 47.7080646, "lon": 18.8038187, "tags": {"direction": "0-360", "tourism": "viewpoint"}}, {"type": "node", "id": 4214449206, "lat": 47.7099519, "lon": 18.7951059, "tags": {"description": "Village overview from close", "direction": "270-60", "tourism": "viewpoint"}}, {"type": "node", "id": 4243362056, "lat": 47.5185916, "lon": 18.9527042, "tags": {"direction": "250", "tourism": "viewpoint"}}, {"type": "node", "id": 4280390057, "lat": 47.5022928, "lon": 19.0290269, "tags": {"tourism": "viewpoint"}}, {"type": "node", "id": 4280957689, "lat": 47.6680266, "lon": 19.0752996, "tags": {"tourism": "viewpoint"}}, {"type": "node", "id": 4285006678, "lat": 47.6176388, "lon": 19.0476541, "tags": {"tourism": "viewpoint"}}, {"type": "node", "id": 4324238389, "lat": 47.4793921, "lon": 18.9317816, "tags": {"ele": "280", "tourism": "viewpoint"}}, {"type": "node", "id": 4338791773, "lat": 47.4582379, "lon": 18.9247199, "tags": {"ele": "249", "name": "T\u00f6r\u00f6kugrat\u00f3", "tourism": "viewpoint", "wheelchair": "no"}}, {"type": "node", "id": 4340332313, "lat": 47.4818173, "lon": 18.9842398, "tags": {"direction": "120-220", "source:direction": "guess", "tourism": "viewpoint"}}, {"type": "node", "id": 4349813791, "lat": 47.4774687, "lon": 18.967978, "tags": {"tourism": "viewpoint"}}, {"type": "node", "id": 4365649895, "lat": 47.4612682, "lon": 18.5571786, "tags": {"access": "yes", "addr:city": "Felcs\u00fat", "addr:country": "HU", "addr:district": "Bicskei J\u00e1r\u00e1s", "addr:province": "Fej\u00e9r Megye", "alt_name": "Endresz Gy\u00f6rgy - Magyar S\u00e1ndor \u00f3ce\u00e1nrep\u00fcl\u0151ki \u00e9szlel\u0151hely", "dark_sky": "yes", "description": "6,74 magnit\u00fad\u00f3 az \u00e9gbolt szabad szemes hat\u00e1rf\u00e9nyess\u00e9ge", "direction": "0-360", "ele": "140", "fee": "no", "leisure": "star_gazing", "name": "amat\u0151rcsillag\u00e1sz \u00e9szlel\u0151hely Justice for Hungary (6,7mn darksky)", "ref": "21.27 mag./arc sec2; 6,74 magnit\u00fad\u00f3; Bortle class 4", "surface": "grass", "surveillance": "astronomy", "surveillance:type": "viewpoint", "tourism": "viewpoint", "type": "astronomy", "url": "https://www.lightpollutionmap.info/#zoom=15.50&lat=47.4613&lon=18.5581&layers=0BFFFFFFTFFFFFFFFFF&state=eyJtYXJrZXJzIjp7Im1hcmtlcm15TG9jYXRpb24iOlsyMTM4MjE0LDU5NTkzODhdfX0=", "url:darksky": "fenyszennyezes.hu", "url:egkep": "http://egkep.com/?djvt", "url:mcse": "https://www.mcse.hu/eszlelohelyek/", "website": "http://umap.openstreetmap.fr/hu/map/csillag-terkep_441074#8/47.186/19.303"}}, {"type": "node", "id": 4370338396, "lat": 47.487073, "lon": 18.9896394, "tags": {"tourism": "viewpoint"}}, {"type": "node", "id": 4388778490, "lat": 47.5022376, "lon": 19.0347937, "tags": {"tourism": "viewpoint"}}, {"type": "node", "id": 4389143891, "lat": 47.4873697, "lon": 19.046949, "tags": {"tourism": "viewpoint"}}, {"type": "node", "id": 4393093945, "lat": 47.7176873, "lon": 18.9067592, "tags": {"is_in": "Pilis - Visegr\u00e1di-hegys\u00e9g", "tourism": "viewpoint"}}, {"type": "node", "id": 4393543933, "lat": 47.7307888, "lon": 18.883031, "tags": {"is_in": "Pilis - Visegr\u00e1di-hegys\u00e9g", "tourism": "viewpoint"}}, {"type": "node", "id": 4408475542, "lat": 47.4793365, "lon": 19.0163667, "tags": {"tourism": "viewpoint"}}, {"type": "node", "id": 4418179411, "lat": 47.7394193, "lon": 18.920624}, {"type": "node", "id": 4418179412, "lat": 47.7394351, "lon": 18.9206109}, {"type": "node", "id": 4418179413, "lat": 47.7394266, "lon": 18.9206361}, {"type": "node", "id": 4418179415, "lat": 47.7394515, "lon": 18.9205863}, {"type": "node", "id": 4418179416, "lat": 47.739449, "lon": 18.9206444}, {"type": "node", "id": 4418179417, "lat": 47.7394625, "lon": 18.9205638}, {"type": "node", "id": 4418179418, "lat": 47.7394688, "lon": 18.9206267}, {"type": "node", "id": 4418179419, "lat": 47.7394744, "lon": 18.9205933}, {"type": "node", "id": 4418781725, "lat": 47.730893, "lon": 18.8970766, "tags": {"is_in": "R\u00e1m-hegy; Pilis-hegys\u00e9g", "tourism": "viewpoint"}}, {"type": "node", "id": 4428208989, "lat": 47.4745479, "lon": 18.9782292, "tags": {"tourism": "viewpoint"}}, {"type": "node", "id": 4428208993, "lat": 47.4746358, "lon": 18.979847, "tags": {"tourism": "viewpoint"}}, {"type": "node", "id": 4437671965, "lat": 47.482772, "lon": 19.0182213, "tags": {"direction": "135-315", "tourism": "viewpoint"}}, {"type": "node", "id": 4437671966, "lat": 47.4840738, "lon": 19.0197468, "tags": {"designated": "no", "tourism": "viewpoint"}}, {"type": "node", "id": 4459183528, "lat": 47.5030288, "lon": 19.0340455, "tags": {"fixme": "you have to be at least 1.7 m high", "min_height": "1.7", "tourism": "viewpoint", "wheelchair": "no"}}, {"type": "node", "id": 4459789870, "lat": 47.4804122, "lon": 18.9908504, "tags": {"tourism": "viewpoint"}}, {"type": "node", "id": 4473396656, "lat": 47.5281899, "lon": 19.0247982, "tags": {"name": "Domborm\u0171-kil\u00e1t\u00f3hely", "tourism": "viewpoint"}}, {"type": "node", "id": 4473473995, "lat": 47.5554788, "lon": 18.998783}, {"type": "node", "id": 4480832017, "lat": 47.4753547, "lon": 18.9706947, "tags": {"tourism": "viewpoint"}}, {"type": "node", "id": 4481637489, "lat": 47.4750684, "lon": 18.9146309, "tags": {"name": "Kapt\u00e1rk\u00f6vek", "name:en": "Beehive rocks", "tourism": "viewpoint"}}, {"type": "node", "id": 4536550251, "lat": 47.5033814, "lon": 18.8473265, "tags": {"direction": "150-260", "ele": "270", "tourism": "viewpoint"}}, {"type": "node", "id": 4543535580, "lat": 47.4653137, "lon": 18.9594077, "tags": {"tourism": "viewpoint"}}, {"type": "node", "id": 4582893490, "lat": 47.4746338, "lon": 18.9147914, "tags": {"name": "Kapt\u00e1rk\u00f6vek", "tourism": "viewpoint"}}, {"type": "node", "id": 4586713168, "lat": 47.5925892, "lon": 18.9490642, "tags": {"tourism": "viewpoint"}}, {"type": "node", "id": 4645876751, "lat": 47.4385136, "lon": 19.0171867, "tags": {"tourism": "viewpoint"}}, {"type": "node", "id": 4703917743, "lat": 47.5234783, "lon": 19.0100773, "tags": {"tourism": "viewpoint"}}, {"type": "node", "id": 4730758836, "lat": 47.5895586, "lon": 18.9079909, "tags": {"ele": "350", "noexit": "yes", "tourism": "viewpoint"}}, {"type": "node", "id": 4736715747, "lat": 47.4630162, "lon": 18.9078924, "tags": {"tourism": "viewpoint"}}, {"type": "node", "id": 4795379801, "lat": 47.5006937, "lon": 19.0540387, "tags": {"addr:city": "Budapest", "addr:housenumber": "1", "addr:postcode": "1051", "addr:street": "Szent Istv\u00e1n t\u00e9r", "email": "plebania@basilica.hu", "fee": "yes", "name": "Szent Istv\u00e1n-bazilika Panor\u00e1ma kil\u00e1t\u00f3", "name:de": "Panoramablick von der St.-Sephans-Basilika", "opening_hours": "Nov-Mar 10:00-16:00; Apr-Oct 10:00-17:30; Jun-Sep 10:00-18:30", "phone": "+36 1 269 1849", "tourism": "viewpoint", "wheelchair": "no"}}, {"type": "node", "id": 4826591529, "lat": 47.4648997, "lon": 18.9433734, "tags": {"tourism": "viewpoint"}}, {"type": "node", "id": 4831053689, "lat": 47.5182927, "lon": 18.959263}, {"type": "node", "id": 4831053690, "lat": 47.5182969, "lon": 18.9593003}, {"type": "node", "id": 4838053472, "lat": 47.5351009, "lon": 18.9997681}, {"type": "node", "id": 4838053473, "lat": 47.5351797, "lon": 18.9997134}, {"type": "node", "id": 4838053474, "lat": 47.5351561, "lon": 18.9997124}, {"type": "node", "id": 4838053475, "lat": 47.5351792, "lon": 18.9997842}, {"type": "node", "id": 4838053476, "lat": 47.5351198, "lon": 18.9996168}, {"type": "node", "id": 4838053477, "lat": 47.5350945, "lon": 18.9996323}, {"type": "node", "id": 4838053478, "lat": 47.5351072, "lon": 18.9996782}, {"type": "node", "id": 4838053479, "lat": 47.5351326, "lon": 18.9996628}, {"type": "node", "id": 4838053480, "lat": 47.5351127, "lon": 18.9998097}, {"type": "node", "id": 4838053481, "lat": 47.535193, "lon": 18.9997574}, {"type": "node", "id": 4838053482, "lat": 47.5351294, "lon": 18.9998123}, {"type": "node", "id": 4838053483, "lat": 47.5351117, "lon": 18.9997406}, {"type": "node", "id": 4845212344, "lat": 47.6280384, "lon": 18.9734879, "tags": {"tourism": "viewpoint"}}, {"type": "node", "id": 4877936590, "lat": 47.5558661, "lon": 19.0027843, "tags": {"direction": "20-90", "ele": "440", "free_flying:site": "takeoff", "is_in": "H\u00e1rmashat\u00e1r-hegy", "leisure": "piste", "name": "PG starthely, HHH-\u00d3buda \u00c9K", "operator": "ASE - Amat\u0151r Sikl\u00f3rep\u00fcl\u0151 Egyes\u00fclet", "sport": "free_flying", "tourism": "viewpoint"}}, {"type": "node", "id": 4925030519, "lat": 47.6880745, "lon": 18.8665168, "tags": {"checkpoint": "hiking", "checkpoint:type": "stamp", "course": "Pilisi kil\u00e1t\u00e1sok", "name": "Pilis-tiszt\u00e1s (Pilisi kil\u00e1t\u00e1sok)", "operator": "Piliscsabai Term\u00e9szetj\u00e1r\u00f3 Egyes\u00fclet", "source": "survey", "survey:date": "2017-06-18", "tourism": "viewpoint"}}, {"type": "node", "id": 4925035463, "lat": 47.7197435, "lon": 18.8519429, "tags": {"tourism": "viewpoint"}}, {"type": "node", "id": 4947294126, "lat": 47.7232438, "lon": 18.7531977, "tags": {"tourism": "viewpoint"}}, {"type": "node", "id": 4947294127, "lat": 47.7237135, "lon": 18.7522024, "tags": {"tourism": "viewpoint"}}, {"type": "node", "id": 4994388905, "lat": 47.4973319, "lon": 19.0389047, "tags": {"tourism": "viewpoint"}}, {"type": "node", "id": 5047970222, "lat": 47.4868109, "lon": 19.0489514, "tags": {"tourism": "viewpoint"}}, {"type": "node", "id": 5089071235, "lat": 47.6341467, "lon": 18.8714604, "tags": {"ele": "300", "name": "Sas szikla", "name:hu": "Sas szikla", "tourism": "viewpoint"}}, {"type": "node", "id": 5089090921, "lat": 47.6320516, "lon": 18.8755504, "tags": {"name": "S\u00f3lyom szikla", "name:hu": "S\u00f3lyom szikla", "tourism": "viewpoint"}}, {"type": "node", "id": 5091300921, "lat": 47.4863473, "lon": 19.0326927, "tags": {"tourism": "viewpoint"}}, {"type": "node", "id": 5096283430, "lat": 47.7559716, "lon": 18.9906594, "tags": {"source": "survey", "survey:date": "2017-09-10", "tourism": "viewpoint"}}, {"type": "node", "id": 5106601925, "lat": 47.4857823, "lon": 19.0548248, "tags": {"alt_name:en": "Freedom Bridge", "direction": "240-60", "name": "Szabads\u00e1g h\u00edd", "name:en": "Liberty Bridge", "name:it": "Ponte della Libert\u00e0", "name:ru": "\u041c\u043e\u0441\u0442 \u0421\u0432\u043e\u0431\u043e\u0434\u044b", "tourism": "viewpoint", "wheelchair": "yes"}}, {"type": "node", "id": 5123847272, "lat": 47.5346374, "lon": 19.0223894, "tags": {"is_in": "M\u00e1ty\u00e1s-hegy", "name": "Sz\u00e9p kil\u00e1t\u00e1s", "tourism": "viewpoint"}}, {"type": "node", "id": 5153451922, "lat": 47.5422113, "lon": 19.0207618, "tags": {"direction": "80", "ele": "195", "name": "\u00d3budai panor\u00e1ma", "tourism": "viewpoint"}}, {"type": "node", "id": 5156759698, "lat": 47.4864225, "lon": 19.0496782, "tags": {"tourism": "viewpoint", "wheelchair": "no"}}, {"type": "node", "id": 5156759733, "lat": 47.487553, "lon": 19.0484055, "tags": {"tourism": "viewpoint", "wheelchair": "limited"}}, {"type": "node", "id": 5156762625, "lat": 47.4865161, "lon": 19.0495272, "tags": {"tourism": "viewpoint", "wheelchair": "no"}}, {"type": "node", "id": 5156772659, "lat": 47.4865415, "lon": 19.049072, "tags": {"tourism": "viewpoint", "wheelchair": "no"}}, {"type": "node", "id": 5180334313, "lat": 47.4801502, "lon": 19.0231747, "tags": {"direction": "90-180", "fixme": "direction", "tourism": "viewpoint"}}, {"type": "node", "id": 5180334314, "lat": 47.4815301, "lon": 19.0128796, "tags": {"direction": "135-270", "tourism": "viewpoint"}}, {"type": "node", "id": 5205091148, "lat": 47.4806318, "lon": 19.0093983, "tags": {"tourism": "viewpoint"}}, {"type": "node", "id": 5205091329, "lat": 47.4818823, "lon": 19.0081491, "tags": {"tourism": "viewpoint"}}, {"type": "node", "id": 5216412773, "lat": 47.6291089, "lon": 18.8678158, "tags": {"ele": "355", "tourism": "viewpoint"}}, {"type": "node", "id": 5232002730, "lat": 47.4942898, "lon": 19.0404637, "tags": {"name:ru": "\u0411\u0430\u0448\u043d\u044f \"\u0411\u0443\u043b\u0430\u0432\u0430\"", "tourism": "viewpoint"}}, {"type": "node", "id": 5268373431, "lat": 47.5063029, "lon": 19.0394992, "tags": {"name:zh": "\u56fd\u4f1a\u5927\u53a6\u62cd\u6444\u70b9", "tourism": "viewpoint"}}, {"type": "node", "id": 5300100102, "lat": 47.5104975, "lon": 19.0255353}, {"type": "node", "id": 5300100103, "lat": 47.5105302, "lon": 19.0256579}, {"type": "node", "id": 5300100104, "lat": 47.5104996, "lon": 19.0256512}, {"type": "node", "id": 5300100105, "lat": 47.5104791, "lon": 19.0256169}, {"type": "node", "id": 5300100106, "lat": 47.5104782, "lon": 19.0255711}, {"type": "node", "id": 5300100107, "lat": 47.5105278, "lon": 19.0255261}, {"type": "node", "id": 5300100108, "lat": 47.510555, "lon": 19.025548}, {"type": "node", "id": 5300100109, "lat": 47.5105663, "lon": 19.0255906}, {"type": "node", "id": 5300100110, "lat": 47.5105565, "lon": 19.025634}, {"type": "node", "id": 5325949422, "lat": 47.5906509, "lon": 18.8716712, "tags": {"tourism": "viewpoint"}}, {"type": "node", "id": 5351778547, "lat": 47.6027884, "lon": 18.8061073, "tags": {"ele": "364", "name": "Zajn\u00e1t-kil\u00e1t\u00f3pont", "tourism": "viewpoint"}}, {"type": "node", "id": 5441992751, "lat": 47.4789954, "lon": 19.0634499, "tags": {"direction": "240-60", "tourism": "viewpoint"}}, {"type": "node", "id": 5441992752, "lat": 47.5379267, "lon": 19.0542814, "tags": {"direction": "290-90", "tourism": "viewpoint"}}, {"type": "node", "id": 5441992753, "lat": 47.5145896, "lon": 19.0434141, "tags": {"direction": "110-270", "tourism": "viewpoint"}}, {"type": "node", "id": 5441992754, "lat": 47.4991208, "lon": 19.0449956, "tags": {"direction": "60-240", "tourism": "viewpoint", "wheelchair": "yes"}}, {"type": "node", "id": 5441992755, "lat": 47.4986196, "lon": 19.0423749, "tags": {"direction": "60-240", "tourism": "viewpoint", "wheelchair": "yes"}}, {"type": "node", "id": 5441992756, "lat": 47.4990527, "lon": 19.043694, "tags": {"direction": "240-60", "tourism": "viewpoint", "wheelchair": "yes"}}, {"type": "node", "id": 5441992757, "lat": 47.4989343, "lon": 19.0437196, "tags": {"direction": "60-240", "tourism": "viewpoint", "wheelchair": "yes"}}, {"type": "node", "id": 5441992758, "lat": 47.4907545, "lon": 19.0491277, "tags": {"direction": "60-240", "name": "Erzs\u00e9bet h\u00edd", "name:zh": "\u4f0a\u4e3d\u838e\u767d\u6865", "tourism": "viewpoint", "wheelchair": "yes"}}, {"type": "node", "id": 5441992759, "lat": 47.4909399, "lon": 19.0489854, "tags": {"direction": "240-60", "name:es": "Puente de Isabel", "tourism": "viewpoint", "wheelchair": "yes"}}, {"type": "node", "id": 5483687892, "lat": 47.6301479, "lon": 18.868525, "tags": {"direction": "90-270", "ele": "340", "tourism": "viewpoint"}}, {"type": "node", "id": 5483687903, "lat": 47.6298108, "lon": 18.8677941, "tags": {"direction": "90-270", "ele": "350", "tourism": "viewpoint"}}, {"type": "node", "id": 5522402042, "lat": 47.4981668, "lon": 18.992564, "tags": {"name": "Magyarorsz\u00e1g mad\u00e1rvil\u00e1ga", "tourism": "viewpoint"}}, {"type": "node", "id": 5578848562, "lat": 47.7238634, "lon": 18.8896488, "tags": {"is_in": "Pilis - Visegr\u00e1di-hegys\u00e9g", "tourism": "viewpoint"}}, {"type": "node", "id": 5578848568, "lat": 47.7221673, "lon": 18.8983056, "tags": {"is_in": "Pilis - Visegr\u00e1di-hegys\u00e9g", "name": "Magas-len", "tourism": "viewpoint"}}, {"type": "node", "id": 5628569722, "lat": 47.3958473, "lon": 18.8763249, "tags": {"direction": "0-337", "tourism": "viewpoint"}}, {"type": "node", "id": 5684578729, "lat": 47.555342, "lon": 18.9976385, "tags": {"direction": "135-315", "ele": "495", "is_in": "H\u00e1rmashat\u00e1r-hegy", "name": "HHH nyugati panor\u00e1ma-pont", "tourism": "viewpoint"}}, {"type": "node", "id": 5684578730, "lat": 47.5550724, "lon": 18.9986048, "tags": {"direction": "45-290", "ele": "495", "is_in": "H\u00e1rmashat\u00e1r-hegy", "name": "HHH d\u00e9li panor\u00e1ma-pont", "tourism": "viewpoint"}}, {"type": "node", "id": 5743976846, "lat": 47.6408395, "lon": 18.6563744, "tags": {"access": "public", "addr:city": "Ep\u00f6l", "addr:country": "HU", "addr:district": "Esztergomi J\u00e1r\u00e1s", "addr:province": "Kom\u00e1rom-Esztergom Megye", "alt_name": "Ep\u00f6l, Palk\u00f3-hegyi \u00e9szlel\u0151hely", "closest_town": "Ep\u00f6l", "dark_sky": "yes", "description": "6,68 magnit\u00fad\u00f3 az \u00e9gbolt szabad szemes hat\u00e1rf\u00e9nyess\u00e9ge", "direction": "0-360", "ele": "180", "fee": "no", "leisure": "star_gazing", "name": "amat\u0151rcsillag\u00e1sz \u00e9szlel\u0151hely Ep\u00f6l (6,7mn darksky)", "ref": "SQM 21.26 mag./arc sec2; 6,68 mn", "surface": "grass", "surveillance": "astronomy", "surveillance:type": "viewpoint", "tourism": "viewpoint", "type": "astronomy", "url": "https://www.lightpollutionmap.info/#zoom=14.99&lat=47.6426&lon=18.6579&layers=0BFFFFFFTFFFFFFFFFF", "url:darksky": "fenyszennyezes.hu", "url:egkep": "http://egkep.com/?tesd", "url:mcse": "https://www.mcse.hu/eszlelohelyek/", "website": "http://umap.openstreetmap.fr/hu/map/csillag-terkep_441074#8/47.186/19.303"}}, {"type": "node", "id": 5812734103, "lat": 47.5237699, "lon": 19.0274191, "tags": {"access": "public", "addr:city": "Budapest", "addr:place": "J\u00f3zsef-hegyi kil\u00e1t\u00f3", "addr:street": "J\u00f3zsefhegyi utca", "alt_name": "R\u00f3zsadombi bolygoz\u00f3 hely", "closest_town": "Bp", "dark_sky": "no", "description": "2,72 magnit\u00fad\u00f3 az \u00e9gbolt szabad szemes hat\u00e1rf\u00e9nyess\u00e9ge", "direction": "250-120", "ele": "230", "fee": "no", "leisure": "star_gazing", "name": "amat\u0151rcsillag\u00e1sz \u00e9szlel\u0151hely (2,7mn darksky), Bp. J\u00f3zsef-hegy", "surface": "grass", "surveillance": "astronomy", "surveillance:type": "viewpoint", "tourism": "viewpoint", "type": "astronomy", "url": "http://egkep.com/?pfqo", "url:darksky": "fenyszennyezes.hu", "website": "https://www.mcse.hu/eszlelohelyek/"}}, {"type": "node", "id": 5834431385, "lat": 47.502554, "lon": 18.9683211, "tags": {"tourism": "viewpoint"}}, {"type": "node", "id": 5834433085, "lat": 47.5029266, "lon": 18.9674444, "tags": {"tourism": "viewpoint"}}, {"type": "node", "id": 5859856910, "lat": 47.4279675, "lon": 19.0297741, "tags": {"direction": "315-90", "tourism": "viewpoint"}}, {"type": "node", "id": 5955624805, "lat": 47.5168025, "lon": 19.032586, "tags": {"description": "A Mansfeld parkb\u00f3l igazi sz\u00e9p dunai panor\u00e1m\u00e1ban gy\u00f6ny\u00f6rk\u00f6dhet\u00fcnk a parlament ir\u00e1ny\u00e1ban.", "tourism": "viewpoint"}}, {"type": "node", "id": 5960890375, "lat": 47.5556527, "lon": 19.0054074, "tags": {"is_in": "H\u00e1rmashat\u00e1r-hegy", "tourism": "viewpoint"}}, {"type": "node", "id": 5982591951, "lat": 47.5523082, "lon": 19.0086105, "tags": {"tourism": "viewpoint"}}, {"type": "node", "id": 6007380585, "lat": 47.5923449, "lon": 18.9002363, "tags": {"ele": "390", "tourism": "viewpoint"}}, {"type": "node", "id": 6036164016, "lat": 47.6037586, "lon": 18.8556485, "tags": {"tourism": "viewpoint"}}, {"type": "node", "id": 6036166123, "lat": 47.5584266, "lon": 18.9946677, "tags": {"is_in": "H\u00e1rmashat\u00e1r-hegy", "tourism": "viewpoint"}}, {"type": "node", "id": 6049764641, "lat": 47.6294911, "lon": 18.8382367, "tags": {"description": "Egy magaslat sz\u00e9p kil\u00e1t\u00e1ssal", "tourism": "viewpoint"}}, {"type": "node", "id": 6188718384, "lat": 47.7486842, "lon": 18.9763096, "tags": {"source": "survey", "survey:date": "2019-01-06", "tourism": "viewpoint"}}, {"type": "node", "id": 6305318693, "lat": 47.6770459, "lon": 18.8926082, "tags": {"tourism": "viewpoint"}}, {"type": "node", "id": 6305318694, "lat": 47.6777375, "lon": 18.8914548, "tags": {"tourism": "viewpoint"}}, {"type": "node", "id": 6340218337, "lat": 47.6751103, "lon": 18.9739048, "tags": {"tourism": "viewpoint"}}, {"type": "node", "id": 6375696421, "lat": 47.6099295, "lon": 18.885061, "tags": {"tourism": "viewpoint"}}, {"type": "node", "id": 6416051519, "lat": 47.4830515, "lon": 19.0483969}, {"type": "node", "id": 6416051520, "lat": 47.483046, "lon": 19.0484351}, {"type": "node", "id": 6416051521, "lat": 47.48296, "lon": 19.0484081}, {"type": "node", "id": 6416051522, "lat": 47.4829655, "lon": 19.0483699}, {"type": "node", "id": 6426538810, "lat": 47.5343331, "lon": 18.9544063, "tags": {"direction": "30", "tourism": "viewpoint"}}, {"type": "node", "id": 6439749102, "lat": 47.5029062, "lon": 18.8464451, "tags": {"direction": "270-45", "ele": "250", "tourism": "viewpoint"}}, {"type": "node", "id": 6455581186, "lat": 47.6708124, "lon": 19.0771366, "tags": {"name:ru": "\u0412\u0438\u0434 \u043d\u0430 \u0440\u0435\u043a\u0443 \u0438 \u0433\u043e\u0440\u043e\u0434\u043e\u043a \u0441 \u0445\u043e\u043b\u043c\u0430", "tourism": "viewpoint"}}, {"type": "node", "id": 6468080167, "lat": 47.7223432, "lon": 18.5748473, "tags": {"tourism": "viewpoint"}}, {"type": "node", "id": 6542998382, "lat": 47.504787, "lon": 19.0335184, "tags": {"tourism": "viewpoint"}}, {"type": "node", "id": 6544581558, "lat": 47.6340498, "lon": 18.6131351, "tags": {"access": "public", "addr:city": "Ep\u00f6l", "addr:country": "HU", "addr:district": "Esztergomi J\u00e1r\u00e1s", "addr:province": "Kom\u00e1rom-Esztergom Megye", "alt_name": "Bajna Csimai k\u00e1polna \u00e9s k\u00e1lv\u00e1ria \u00e9szlel\u0151hely", "closest_town": "Bajna", "dark_sky": "yes", "description": "6,47 magnit\u00fad\u00f3 az \u00e9gbolt szabad szemes hat\u00e1rf\u00e9nyess\u00e9ge", "direction": "0-360", "ele": "182", "fee": "no", "leisure": "star_gazing", "name": "amat\u0151rcsillag\u00e1sz \u00e9szlel\u0151hely Bajna Csimai k\u00e1polna (6,5mn darksky)", "ref": "SQM 21.32 mag./arc sec2; 6,47 mn", "source": "survey 2019.j\u00fan.12.", "surface": "grass", "surveillance": "astronomy", "surveillance:type": "viewpoint", "tourism": "viewpoint", "type": "astronomy", "url": "https://www.lightpollutionmap.info/#zoom=15.43&lat=47.6343&lon=18.6141&layers=0BFFFFFFTFFFFFFFFFF", "url:darksky": "fenyszennyezes.hu", "url:egkep": "http://egkep.com/?qwfr", "url:mcse": "https://www.mcse.hu/eszlelohelyek/", "website": "http://umap.openstreetmap.fr/hu/map/csillag-terkep_441074#8/47.186/19.303"}}, {"type": "node", "id": 6709927647, "lat": 47.7509133, "lon": 18.5690429, "tags": {"direction": "30", "tourism": "viewpoint"}}, {"type": "node", "id": 6828389981, "lat": 47.4128504, "lon": 18.9371813, "tags": {"direction": "130", "tourism": "viewpoint"}}, {"type": "node", "id": 6844050111, "lat": 47.7281761, "lon": 18.8202941, "tags": {"direction": "315", "tourism": "viewpoint"}}, {"type": "node", "id": 6853054766, "lat": 47.5905713, "lon": 18.8483349, "tags": {"tourism": "viewpoint"}}, {"type": "node", "id": 6855617693, "lat": 47.5482887, "lon": 19.0113474, "tags": {"direction": "90", "tourism": "viewpoint"}}, {"type": "node", "id": 6939067369, "lat": 47.5516864, "lon": 18.9888374, "tags": {"name": "\u00dajlakil\u00e1t\u00e1s", "tourism": "viewpoint"}}, {"type": "node", "id": 6947565474, "lat": 47.5186625, "lon": 18.654705, "tags": {"ele": "203", "name": "M\u00e1nyi K\u00e1lv\u00e1riadomb", "ref": "4269. (GCMKD)", "tourism": "viewpoint", "website": "https://geocaching.hu/caches.geo?id=5211"}}, {"type": "node", "id": 6954054389, "lat": 47.5172116, "lon": 19.0123528, "tags": {"tourism": "viewpoint"}}, {"type": "node", "id": 7039562197, "lat": 47.4967233, "lon": 19.0372246, "tags": {"tourism": "viewpoint"}}, {"type": "node", "id": 7076407302, "lat": 47.4962902, "lon": 19.0261913, "tags": {"direction": "270-45", "name": "Vonatn\u00e9z\u0151 D\u00e9li-pu.", "tourism": "viewpoint"}}, {"type": "node", "id": 7078449845, "lat": 47.5032862, "lon": 19.0112963, "tags": {"direction": "315-110", "is_in": "Kis-Sv\u00e1b-hegy", "name": "Kisszakad\u00e9k", "tourism": "viewpoint"}}, {"type": "node", "id": 7078449871, "lat": 47.5049186, "lon": 19.0094993, "tags": {"direction": "275-45", "is_in": "Kis-Sv\u00e1b-hegy", "name": "Nagyszakad\u00e9k", "tourism": "viewpoint"}}, {"type": "node", "id": 7227191285, "lat": 47.495108, "lon": 19.041513, "tags": {"tourism": "viewpoint"}}, {"type": "node", "id": 7227289985, "lat": 47.4983037, "lon": 19.0353041, "tags": {"tourism": "viewpoint"}}, {"type": "node", "id": 7256249705, "lat": 47.5724189, "lon": 18.9775022, "tags": {"tourism": "viewpoint"}}, {"type": "node", "id": 7284074804, "lat": 47.5201426, "lon": 18.5571694, "tags": {"tourism": "viewpoint"}}, {"type": "node", "id": 7388760775, "lat": 47.6374336, "lon": 18.9333836, "tags": {"tourism": "viewpoint"}}, {"type": "node", "id": 7391567328, "lat": 47.6181205, "lon": 18.9649623, "tags": {"tourism": "viewpoint"}}, {"type": "node", "id": 7418729814, "lat": 47.6561244, "lon": 18.8056085, "tags": {"tourism": "viewpoint"}}, {"type": "node", "id": 7459576584, "lat": 47.5310775, "lon": 18.9872043, "tags": {"direction": "230", "tourism": "viewpoint"}}, {"type": "node", "id": 7508444284, "lat": 47.3951157, "lon": 19.0152036, "tags": {"tourism": "viewpoint"}}, {"type": "node", "id": 7528339878, "lat": 47.5765257, "lon": 18.9680249, "tags": {"direction": "WNW-N", "tourism": "viewpoint"}}, {"type": "node", "id": 7528339879, "lat": 47.5768548, "lon": 18.9594197, "tags": {"direction": "ESE-SW", "source": "survey", "survey:date": "2020-05-16", "tourism": "viewpoint"}}, {"type": "node", "id": 7558522336, "lat": 47.6676647, "lon": 18.9956124, "tags": {"tourism": "viewpoint"}}, {"type": "node", "id": 7563720615, "lat": 47.5307799, "lon": 18.9545057, "tags": {"direction": "200", "tourism": "viewpoint"}}, {"type": "node", "id": 7624083897, "lat": 47.3904604, "lon": 18.9510624, "tags": {"tourism": "viewpoint"}}, {"type": "node", "id": 7659416318, "lat": 47.7073744, "lon": 19.0245226, "tags": {"tourism": "viewpoint"}}, {"type": "node", "id": 7669730861, "lat": 47.625993, "lon": 19.0770537, "tags": {"ele": "3", "name": "a g\u00e9p farka", "tourism": "viewpoint"}}, {"type": "node", "id": 7726562746, "lat": 47.7210807, "lon": 18.5686851, "tags": {"tourism": "viewpoint"}}, {"type": "node", "id": 7726562761, "lat": 47.7235789, "lon": 18.5751643, "tags": {"tourism": "viewpoint"}}, {"type": "node", "id": 7780766908, "lat": 47.6354004, "lon": 19.1273233, "tags": {"direction": "180-315", "name": "Attila-kil\u00e1t\u00f3hely", "tourism": "viewpoint"}}, {"type": "node", "id": 7834869062, "lat": 47.5908567, "lon": 18.8736449, "tags": {"tourism": "viewpoint"}}, {"type": "node", "id": 7895225705, "lat": 47.5602805, "lon": 18.9904879, "tags": {"tourism": "viewpoint"}}, {"type": "node", "id": 7900181552, "lat": 47.6996752, "lon": 18.8923404, "tags": {"access": "private", "dark_sky": "yes", "description": "Csak gyalogosan megk\u00f6zel\u00edthet\u0151, lesoromp\u00f3zott \u00e9szlel\u0151hely. 6,2 magnit\u00fad\u00f3 az \u00e9g hat\u00e1rf\u00e9nyess\u00e9ge.", "ele": "625", "fee": "no", "foot": "yes", "leisure": "star_gazing", "motor_vehicle": "no", "name": "amat\u0151rcsillag\u00e1sz \u00e9szlel\u0151hely, Dobog\u00f3k\u0151; 6,32 mn s\u00f6t\u00e9t\u00e9gbolt", "surface": "grass", "surveillance": "astronomy", "surveillance:type": "viewpoint", "tourism": "viewpoint", "type": "astronomy", "url": "http://egkep.com", "website": "https://kameraaltal.blog.hu/2014/02/18/mn_1059_11_2_honi_legvedelmi_raketaosztaly_pilisszentkereszt"}}, {"type": "node", "id": 7973615226, "lat": 47.5578954, "lon": 18.9935074, "tags": {"tourism": "viewpoint"}}, {"type": "node", "id": 8018153780, "lat": 47.4454947, "lon": 18.830874, "tags": {"tourism": "viewpoint"}}, {"type": "node", "id": 8221836165, "lat": 47.7205586, "lon": 18.695698, "tags": {"tourism": "viewpoint"}}, {"type": "node", "id": 8320614189, "lat": 47.6111463, "lon": 19.0044473, "tags": {"direction": "220", "tourism": "viewpoint"}}, {"type": "node", "id": 8376608286, "lat": 47.5092767, "lon": 19.0277047, "tags": {"tourism": "viewpoint"}}, {"type": "node", "id": 8395949457, "lat": 47.4722654, "lon": 18.9309387, "tags": {"tourism": "viewpoint"}}, {"type": "node", "id": 8442578719, "lat": 47.5310828, "lon": 18.9871482, "tags": {"tourism": "viewpoint"}}, {"type": "node", "id": 8545116057, "lat": 47.3873093, "lon": 18.9487955, "tags": {"tourism": "viewpoint"}}, {"type": "node", "id": 8545116058, "lat": 47.3892342, "lon": 18.9463721, "tags": {"tourism": "viewpoint"}}, {"type": "node", "id": 8569624640, "lat": 47.4756084, "lon": 18.9662655, "tags": {"tourism": "viewpoint"}}, {"type": "node", "id": 8583462902, "lat": 47.6574044, "lon": 19.0086879, "tags": {"tourism": "viewpoint"}}, {"type": "node", "id": 8587243876, "lat": 47.7237949, "lon": 18.5746166, "tags": {"tourism": "viewpoint"}}, {"type": "node", "id": 8596380101, "lat": 47.4386551, "lon": 18.9650966, "tags": {"name": "225-360", "tourism": "viewpoint"}}, {"type": "node", "id": 8600319616, "lat": 47.479653, "lon": 19.0132668, "tags": {"description": "Kelenf\u00f6ld/\u0150rmez\u0151 ir\u00e1ny\u00e1ba", "tourism": "viewpoint"}}, {"type": "node", "id": 8639703097, "lat": 47.6202007, "lon": 18.9665774, "tags": {"tourism": "viewpoint"}}, {"type": "node", "id": 8677697403, "lat": 47.723994, "lon": 18.5748182, "tags": {"tourism": "viewpoint"}}, {"type": "node", "id": 8747417503, "lat": 47.6807536, "lon": 18.9781858, "tags": {"direction": "45", "tourism": "viewpoint"}}, {"type": "node", "id": 8747417505, "lat": 47.7221923, "lon": 18.6144281, "tags": {"direction": "45", "tourism": "viewpoint"}}, {"type": "node", "id": 8747417506, "lat": 47.7208117, "lon": 18.6152263, "tags": {"direction": "45", "tourism": "viewpoint"}}, {"type": "node", "id": 8747417507, "lat": 47.7228026, "lon": 18.6139739, "tags": {"direction": "45", "tourism": "viewpoint"}}, {"type": "node", "id": 8939311519, "lat": 47.4566479, "lon": 18.8353394, "tags": {"tourism": "viewpoint"}}, {"type": "node", "id": 8961364847, "lat": 47.4403141, "lon": 19.0089896, "tags": {"access": "private", "direction": "290-90", "name": "Panor\u00e1ma-kanyar", "tourism": "viewpoint"}}, {"type": "node", "id": 9020402087, "lat": 47.6733169, "lon": 19.0168661, "tags": {"ele": "350", "tourism": "viewpoint"}}, {"type": "node", "id": 9020402092, "lat": 47.6728844, "lon": 19.0146437, "tags": {"tourism": "viewpoint"}}, {"type": "node", "id": 9072737362, "lat": 47.4752314, "lon": 18.955925, "tags": {"tourism": "viewpoint"}}, {"type": "node", "id": 9143416209, "lat": 47.7453835, "lon": 18.9580631, "tags": {"direction": "E-S", "source": "survey", "survey:date": "2021-10-02", "tourism": "viewpoint"}}, {"type": "node", "id": 9143416211, "lat": 47.7475394, "lon": 18.9592604, "tags": {"direction": "NE-SE", "source": "survey", "survey:date": "2021-10-02", "tourism": "viewpoint"}}, {"type": "node", "id": 9164864536, "lat": 47.605899, "lon": 18.8686524, "tags": {"tourism": "viewpoint"}}, {"type": "node", "id": 9164865010, "lat": 47.6025728, "lon": 18.8739612, "tags": {"direction": "0-360", "tourism": "viewpoint"}}, {"type": "node", "id": 9177975272, "lat": 47.5420302, "lon": 18.9904153, "tags": {"addr:city": "Budapest", "addr:postcode": "1025", "ele": "354", "is_in": "Kecske-hegy;Sz\u00e9pv\u00f6lgy;Budai hegys\u00e9g", "name": "Kil\u00e1t\u00e1s", "ref": "19. GCKL1", "tourism": "viewpoint", "website": "https://geocaching.hu/caches.geo?id=33"}}, {"type": "node", "id": 9218403708, "lat": 47.6909626, "lon": 18.9798645}, {"type": "node", "id": 9218403709, "lat": 47.6909411, "lon": 18.9798733}, {"type": "node", "id": 9218403710, "lat": 47.6909345, "lon": 18.979838}, {"type": "node", "id": 9218403711, "lat": 47.690956, "lon": 18.9798291}, {"type": "node", "id": 9301599199, "lat": 47.6141077, "lon": 18.9787303, "tags": {"ele": "255", "name": "Teve-szikla kil\u00e1t\u00e1s", "tourism": "viewpoint"}}, {"type": "node", "id": 9366137342, "lat": 47.4645816, "lon": 18.946694, "tags": {"direction": "90-270", "tourism": "viewpoint"}}, {"type": "node", "id": 9380111461, "lat": 47.5758483, "lon": 18.9426868, "tags": {"description": "Sz\u00e9p kil\u00e1t\u00e1s", "direction": "270", "tourism": "viewpoint"}}, {"type": "node", "id": 9405639114, "lat": 47.3913477, "lon": 18.8735736, "tags": {"direction": "0-360", "name": "Szem\u00e9tdombkil\u00e1t\u00f3", "tourism": "viewpoint"}}, {"type": "node", "id": 9407661505, "lat": 47.4703706, "lon": 18.922124, "tags": {"direction": "90-270", "tourism": "viewpoint"}}, {"type": "node", "id": 9529153994, "lat": 47.5292145, "lon": 18.8908298, "tags": {"ele": "325", "name": "Szarvas-\u00e1rki kil\u00e1t\u00e1s", "tourism": "viewpoint"}}, {"type": "node", "id": 9574783773, "lat": 47.4226816, "lon": 18.8447155, "tags": {"direction": "W", "tourism": "viewpoint"}}, {"type": "node", "id": 9626385900, "lat": 47.6653521, "lon": 18.9150238, "tags": {"tourism": "viewpoint"}}, {"type": "node", "id": 9635643210, "lat": 47.5095746, "lon": 18.9583311, "tags": {"direction": "350-120", "name": "Budai Sport Hotel panor\u00e1ma", "tourism": "viewpoint"}}, {"type": "node", "id": 9641436352, "lat": 47.5121938, "lon": 18.9614964, "tags": {"description": "Pihen\u0151hely, t\u0171zrak\u00f3hely, 763. M\u00e9g egy kil\u00e1t\u00f3hely (GCMEKH)", "direction": "25-160", "ele": "419", "name": "T\u00fcnd\u00e9rhegyi \u00fati kil\u00e1t\u00e1s", "tourism": "viewpoint", "url": "http://turistautak.hu/maps/mapnik/geojaunt.php?lat=47.512200&lon=18.961500&zoom=14&layers=00B00&arrow=1", "website": "https://geocaching.hu/caches.geo?id=851"}}, {"type": "node", "id": 9661474021, "lat": 47.64453, "lon": 18.973514, "tags": {"tourism": "viewpoint"}}, {"type": "node", "id": 9706674540, "lat": 47.5172297, "lon": 19.084923, "tags": {"contact:phone": "+36 1 55 33 444", "direction": "0-360", "fixme": "position", "name": "Balloon Fly", "operator": "Ballonkil\u00e1t\u00f3 Zrt.", "tourism": "viewpoint", "website": "https://balloonfly.hu/"}}, {"type": "node", "id": 9740805952, "lat": 47.7404706, "lon": 18.9985639, "tags": {"tourism": "viewpoint"}}, {"type": "node", "id": 9741917355, "lat": 47.5552582, "lon": 18.9982769, "tags": {"access": "public", "dark_sky": "no", "fee": "no", "leisure": "star_gazing", "surface": "grass", "surveillance": "astronomy", "surveillance:type": "viewpoint", "tourism": "viewpoint", "type": "astronomy"}}, {"type": "node", "id": 9766861417, "lat": 47.4875648, "lon": 19.0478696, "tags": {"tourism": "viewpoint"}}, {"type": "node", "id": 9784199419, "lat": 47.7214874, "lon": 18.5935063, "tags": {"tourism": "viewpoint"}}, {"type": "node", "id": 9784199420, "lat": 47.6499964, "lon": 18.988486, "tags": {"tourism": "viewpoint"}}, {"type": "node", "id": 9784199421, "lat": 47.5918807, "lon": 19.0181912, "tags": {"tourism": "viewpoint"}}, {"type": "node", "id": 9794838754, "lat": 47.5191537, "lon": 19.0802242, "tags": {"man_made": "tower", "tourism": "viewpoint", "tower:type": "observation"}}, {"type": "node", "id": 9831153778, "lat": 47.4362304, "lon": 18.5498813, "tags": {"access": "yes", "addr:city": "Bodm\u00e9r", "addr:country": "HU", "addr:district": "Bicskei J\u00e1r\u00e1s", "addr:province": "Fej\u00e9r Megye", "alt_name": "Parlagi-d\u0171l\u0151 \u00e9szlel\u0151hely", "dark_sky": "yes", "description": "6,8 magnit\u00fad\u00f3 az \u00e9gbolt szabad szemes hat\u00e1rf\u00e9nyess\u00e9ge", "direction": "0-360", "ele": "175", "fee": "no", "leisure": "star_gazing", "name": "amat\u0151rcsillag\u00e1sz \u00e9szlel\u0151hely Bodm\u00e9r (6,7mn darksky)", "ref": "SQM 21.37 mag./arc sec2; Brighness 0,307 mcd/m2; Artif.bright: 136 mikrCd/m2; 6,8 magnit\u00fad\u00f3; Bortle class 4", "source": "survey 2022-06-18", "surface": "grass", "surveillance": "astronomy", "surveillance:type": "viewpoint", "tourism": "viewpoint", "type": "astronomy", "url": "https://www.lightpollutionmap.info/#zoom=13.30&lat=47.4386&lon=18.5536&layers=0BFFFFFFTFFFFFFFFFFFF&state=eyJtYXJrZXJzIjp7Im1hcmtlcm15TG9jYXRpb24iOlsyMTM4MjE0LDU5NTkzODhdfX0=", "url:darksky": "fenyszennyezes.hu", "url:egkep": "http://egkep.com/?djvt", "url:mcse": "https://www.mcse.hu/eszlelohelyek/", "website": "http://umap.openstreetmap.fr/hu/map/csillag-terkep_441074#14/47.4361/18.5509"}}, {"type": "node", "id": 9894038665, "lat": 47.4305171, "lon": 18.7356076, "tags": {"direction": "130", "tourism": "viewpoint"}}, {"type": "node", "id": 10015533427, "lat": 47.5491486, "lon": 18.9882024, "tags": {"tourism": "viewpoint"}}, {"type": "node", "id": 10016043397, "lat": 47.531402, "lon": 19.0333052, "tags": {"direction": "150", "tourism": "viewpoint"}}, {"type": "node", "id": 10016043398, "lat": 47.5405904, "lon": 19.0095415, "tags": {"direction": "180", "tourism": "viewpoint"}}, {"type": "node", "id": 10106992844, "lat": 47.7428854, "lon": 18.7601696, "tags": {"direction": "-120", "tourism": "viewpoint"}}, {"type": "node", "id": 10138457997, "lat": 47.5062801, "lon": 18.9653486, "tags": {"tourism": "viewpoint"}}, {"type": "node", "id": 10178217981, "lat": 47.665069, "lon": 18.9032524, "tags": {"tourism": "viewpoint"}}, {"type": "node", "id": 10178217982, "lat": 47.6870186, "lon": 18.8858807, "tags": {"tourism": "viewpoint"}}, {"type": "node", "id": 10178217983, "lat": 47.6923917, "lon": 18.8857564, "tags": {"tourism": "viewpoint"}}, {"type": "node", "id": 10178217984, "lat": 47.7464204, "lon": 18.8168477, "tags": {"tourism": "viewpoint"}}, {"type": "node", "id": 10226583928, "lat": 47.4471457, "lon": 18.8286138, "tags": {"tourism": "viewpoint"}}, {"type": "node", "id": 10271765548, "lat": 47.5152437, "lon": 18.9749327, "tags": {"name": "Kil\u00e1t\u00e1s a kanap\u00e9r\u00f3l", "tourism": "viewpoint"}}, {"type": "node", "id": 10271992739, "lat": 47.7479491, "lon": 18.5635138, "tags": {"tourism": "viewpoint"}}, {"type": "node", "id": 10628450559, "lat": 47.5296131, "lon": 18.9173123}, {"type": "node", "id": 10628450560, "lat": 47.5295735, "lon": 18.9173925}, {"type": "node", "id": 10628450561, "lat": 47.5295953, "lon": 18.9173028}, {"type": "node", "id": 10666230086, "lat": 47.5358922, "lon": 18.926817, "tags": {"direction": "NW-SE", "tourism": "viewpoint"}}, {"type": "node", "id": 10692461274, "lat": 47.5578081, "lon": 18.9323143, "tags": {"tourism": "viewpoint"}}, {"type": "node", "id": 10692475425, "lat": 47.5572072, "lon": 18.9341729, "tags": {"tourism": "viewpoint"}}, {"type": "way", "id": 107171243, "nodes": [1232195883, 1232195948, 1232195623, 1232195825, 1232195883], "tags": {"building": "yes", "height": "0.5", "mapillary": "464287997972382", "name": "Gomba-szikla kil\u00e1t\u00f3", "tourism": "viewpoint"}}, {"type": "way", "id": 253496077, "nodes": [2594205018, 2594205015, 2594205012, 2594205009, 2594205004, 2594205001, 2594204994, 2594204992, 2594204989, 2594204986, 2594204982, 2594204984, 2594204988, 2594204990, 2594204995, 2594204999, 2594205003, 2594205006, 2594205007, 2594205010, 2594205014, 2594205017, 2594205018], "tags": {"architect": "Koller J\u00f3zsef", "building": "yes", "description": "Volt geod\u00e9ziai m\u00e9r\u0151torony, 2014-t\u0151l kil\u00e1t\u00f3", "direction": "0-360", "ele": "756", "height": "17.25", "is_in": "Pilis-hegy;Pilis-hegys\u00e9g", "man_made": "tower", "material": "concrete", "name": "Boldog \u00d6zs\u00e9b kil\u00e1t\u00f3", "old_name": "Pilis (m\u00e9r\u0151torony)", "operator": "Pilisi Parkerd\u0151 Zrt.", "start_date": "1976", "tourism": "viewpoint", "tower:construction": "concrete", "tower:type": "observation", "wikidata": "Q56388945", "wikipedia": "hu:Boldog \u00d6zs\u00e9b-kil\u00e1t\u00f3"}}, {"type": "way", "id": 263992077, "nodes": [2696708430, 4838053474, 4838053473, 4838053481, 4838053475, 2696708431, 2696708432, 4838053482, 4838053480, 4838053472, 4838053483, 2696708433, 4838053478, 4838053477, 4838053476, 4838053479, 2696708430], "tags": {"architect": "Friedrich L\u00f3r\u00e1nt", "building": "yes", "ele": "377", "name": "\u00c1rp\u00e1d-kil\u00e1t\u00f3", "start_date": "1929", "tourism": "viewpoint", "website": "http://egykor.hu/budapest-ii--kerulet/arpad-kilato/1177", "wikidata": "Q1470098", "wikipedia": "hu:\u00c1rp\u00e1d-kil\u00e1t\u00f3"}}, {"type": "way", "id": 270298735, "nodes": [2753430803, 2753430807, 457134699, 2753430811, 2753430813, 2753430816, 2753430819, 2753430821, 4831053689, 4831053690, 2753430822, 2753430820, 2753430818, 2753430815, 2753430812, 2753430810, 2753430808, 2753430806, 2753430804, 2753430803], "tags": {"architect": "Klunzinger P\u00e1l;Schulek Frigyes", "building": "tower", "communication:mobile_phone": "yes", "fee": "no", "height": "23.5", "historic": "yes", "man_made": "tower", "name": "Erzs\u00e9bet-kil\u00e1t\u00f3", "name:de": "Elisabeth-Turm", "name:en": "Elisabeth lookout", "name:fr": "Tour Elisabeth", "name:hu": "Erzs\u00e9bet-kil\u00e1t\u00f3", "start_date": "1910-09-08", "step_count": "133", "tourism": "viewpoint", "tower:type": "observation", "wheelchair": "no", "wikidata": "Q718126", "wikipedia": "hu:Erzs\u00e9bet-kil\u00e1t\u00f3"}}, {"type": "way", "id": 310405785, "nodes": [3158264020, 3158264021, 3158264022, 3158264023, 3158264020], "tags": {"access": "yes", "architect": "Basa P\u00e9ter;Cz\u00e9r P\u00e9ter", "architect:wikipedia": "hu:Basa P\u00e9ter", "building": "yes", "ele": "559", "fee": "no", "height": "32", "is_in": "Nagy-Kopasz-hegy;Fekete-hegyek;P\u00e1ty k\u00fclter\u00fclet", "man_made": "tower", "mapillary": "4384230454922621", "material": "wood;concrete", "name": "Csergez\u00e1n P\u00e1l kil\u00e1t\u00f3", "opening_hours": "24/7", "operator": "Pilisi Parkerd\u0151 Zrt", "start_date": "2006-09-05", "tourism": "viewpoint", "tower:construction": "wood", "tower:type": "observation", "url": "https://turistautak.hu/poi.php?id=61971", "wikidata": "Q25456769", "wikipedia": "hu:Csergez\u00e1n P\u00e1l-kil\u00e1t\u00f3"}}, {"type": "way", "id": 315396361, "nodes": [3215109671, 3215109667, 3215109665, 3215109666, 3215109670, 3215109672, 3215109676, 3215109679, 3215109681, 3215109680, 3215109678, 3215109673, 3215109671], "tags": {"alt_name": "Gloriette", "artist_name": "Ybl Mikl\u00f3s", "historic": "monument", "name": "Sz\u00e9chenyi eml\u00e9km\u0171 \u00e9s kil\u00e1t\u00f3", "tourism": "viewpoint"}}, {"type": "way", "id": 329581211, "nodes": [3364697712, 3364697711, 3364697716, 3364697721, 3364697725, 3364697723, 3364697712], "tags": {"building": "tower", "ele": "270", "height": "20", "man_made": "tower", "name": "Anna-hegyi kil\u00e1t\u00f3", "tourism": "viewpoint", "tower:type": "observation"}}, {"type": "way", "id": 376863655, "nodes": [4107894055, 4107894053, 4107894052, 4107894049, 4473473995, 4107894054, 4107894056, 4107894059, 4107894060, 4107894058, 4107894055], "tags": {"alt_name": "H\u00e1rmashat\u00e1r-hegyi kil\u00e1t\u00f3", "architect": "Koller J\u00f3zsef", "architect:wikipedia": "hu:Koller J\u00f3zsef (\u00e9p\u00edt\u00e9szm\u00e9rn\u00f6k)", "building": "yes", "building:levels": "2", "description": "k\u00f6rpanor\u00e1ma kil\u00e1t\u00f3, vasbeton- RRFA szerkezet", "direction": "0-360", "ele": "495", "height": "20", "is_in": "H\u00e1rmashat\u00e1r-hegy", "layer": "1", "man_made": "tower", "material": "wood", "name": "Guckler K\u00e1roly-kil\u00e1t\u00f3pont", "source": "survey", "start_date": "2015", "tourism": "viewpoint", "tower:type": "observation", "url": "http://hhkk.hu/kilatopont/", "website": "http://parkerdo.hu/turizmus/latnivalok/guckler-karoly-kilatopont/", "wheelchair": "no", "wikidata": "Q26422279", "wikipedia": "hu:Guckler K\u00e1roly-kil\u00e1t\u00f3"}}, {"type": "way", "id": 444333703, "nodes": [4418179418, 4418179419, 4418179417, 4418179415, 4418179412, 4418179411, 4418179413, 4418179416, 4418179418], "tags": {"access": "yes", "architect": "Koller J\u00f3zsef", "architect:wikipedia": "hu:Koller J\u00f3zsef (\u00e9p\u00edt\u00e9szm\u00e9rn\u00f6k)", "description": "12m magas fa kil\u00e1t\u00f3torony, 3 felfel\u00e9 sz\u00e9lesed\u0151 terasszal. A szinteken a t\u00e9rs\u00e9gben jelent\u0151s szerepet j\u00e1tsz\u00f3 magyar kir\u00e1lyokr\u00f3l k\u00e9zzel festett egyedi t\u00e1j\u00e9koztat\u00f3 t\u00e1bl\u00e1k. Szolg\u00e1ltat\u00e1sok: 2 webkamera, ingyenes Wi-Fi kapcsolat, t\u0171zrak\u00f3hely, padok-asztalok.", "description:cz": "12m vysok\u00e1 d\u0159ev\u011bn\u00e1 rozhledna se 3 terasami. Ru\u010dn\u011b malovan\u00e9 informa\u010dn\u00ed tabule o uhersk\u00fdch kr\u00e1l\u00edch. Slu\u017eby: 2 webkamery, bezplatn\u00e9 Wi-Fi p\u0159ipojen\u00ed, ohni\u0161t\u011b, lavice a stoly.", "description:de": "12m hoher h\u00f6lzerner Aussichtsturm mit 3 Terrassen. Handgemalte Informationstafeln \u00fcber ungarische K\u00f6nige. Leistungen: 2 Webcams, kostenlose Wi-Fi-Verbindung, Feuerstelle, B\u00e4nke und Tische.", "description:en": "12m high wooden observation tower with 3 terraces widening upwards. Individual hand-painted information boards about Hungarian kings on the levels. Services: 2 webcams, free Wi-Fi connection, fireplace, benches and tables.", "description:fr": "Tour d'observation en bois de 12 m de haut avec 3 terrasses. Panneaux d'information peints \u00e0 la main sur les rois hongrois. Services : 2 webcams, connexion Wi-Fi gratuite, chemin\u00e9e, bancs et tables.", "description:hr": "12m visoka drvena osmatra\u010dnica sa 3 terase. Ru\u010dno oslikane informativne plo\u010de o ma\u0111arskim kraljevima. Usluge: 2 web kamere, besplatna Wi-Fi veza, kamin, klupe i stolovi.", "description:it": "Torre di osservazione in legno alta 12 m con 3 terrazze. Pannelli informativi dipinti a mano sui re ungheresi. Servizi: 2 webcam, connessione Wi-Fi gratuita, caminetto, panche e tavoli.", "description:pl": "Drewniana wie\u017ca widokowa o wysoko\u015bci 12 m z 3 tarasami. R\u0119cznie malowane tablice informacyjne o w\u0119gierskich kr\u00f3lach. Us\u0142ugi: 2 kamery internetowe, bezp\u0142atny bezprzewodowy dost\u0119p do Internetu, kominek, \u0142awki i sto\u0142y.", "description:ro": "Turn de observatie din lemn inaltime de 12m cu 3 terase. Panouri informative pictate manual despre regii maghiari. Servicii: 2 camere web, conexiune Wi-Fi gratuit\u0103, \u0219emineu, b\u0103nci \u0219i mese.", "description:ru": "\u0414\u0435\u0440\u0435\u0432\u044f\u043d\u043d\u0430\u044f \u0441\u043c\u043e\u0442\u0440\u043e\u0432\u0430\u044f \u0431\u0430\u0448\u043d\u044f \u0432\u044b\u0441\u043e\u0442\u043e\u0439 12 \u043c \u0441 3 \u0442\u0435\u0440\u0440\u0430\u0441\u0430\u043c\u0438. \u0420\u0430\u0441\u043a\u0440\u0430\u0448\u0435\u043d\u043d\u044b\u0435 \u0432\u0440\u0443\u0447\u043d\u0443\u044e \u0438\u043d\u0444\u043e\u0440\u043c\u0430\u0446\u0438\u043e\u043d\u043d\u044b\u0435 \u0449\u0438\u0442\u044b \u043e \u0432\u0435\u043d\u0433\u0435\u0440\u0441\u043a\u0438\u0445 \u043a\u043e\u0440\u043e\u043b\u044f\u0445. \u0423\u0441\u043b\u0443\u0433\u0438: 2 \u0432\u0435\u0431-\u043a\u0430\u043c\u0435\u0440\u044b, \u0431\u0435\u0441\u043f\u043b\u0430\u0442\u043d\u044b\u0439 Wi-Fi, \u043a\u0430\u043c\u0438\u043d, \u0441\u043a\u0430\u043c\u0435\u0439\u043a\u0438 \u0438 \u0441\u0442\u043e\u043b\u044b.", "description:sk": "12 m vysok\u00e1 dreven\u00e1 vyhliadkov\u00e1 ve\u017ea s 3 terasami. Ru\u010dne ma\u013eovan\u00e9 informa\u010dn\u00e9 tabule o uhorsk\u00fdch kr\u00e1\u013eoch. Slu\u017eby: 2 webkamery, bezplatn\u00e9 Wi-Fi pripojenie, ohnisko, lavi\u010dky a stoly.", "description:sl": "12m visok lesen razgledni stolp s 3 terasami. Ro\u010dno poslikane informacijske table o mad\u017earskih kraljih. Storitve: 2 spletni kameri, brezpla\u010dna Wi-Fi povezava, kamin, klopi in mize.", "description:sr": "12\u043c \u0432\u0438\u0441\u043e\u043a\u0430 \u0434\u0440\u0432\u0435\u043d\u0430 \u043e\u0441\u043c\u0430\u0442\u0440\u0430\u0447\u043d\u0438\u0446\u0430 \u0441\u0430 3 \u0442\u0435\u0440\u0430\u0441\u0435. \u0420\u0443\u0447\u043d\u043e \u043e\u0441\u043b\u0438\u043a\u0430\u043d\u0435 \u0438\u043d\u0444\u043e\u0440\u043c\u0430\u0442\u0438\u0432\u043d\u0435 \u0442\u0430\u0431\u043b\u0435 \u043e \u0443\u0433\u0430\u0440\u0441\u043a\u0438\u043c \u043a\u0440\u0430\u0459\u0435\u0432\u0438\u043c\u0430. \u0423\u0441\u043b\u0443\u0433\u0435: 2 \u0432\u0435\u0431 \u043a\u0430\u043c\u0435\u0440\u0435, \u0431\u0435\u0441\u043f\u043b\u0430\u0442\u043d\u0430 \u0412\u0438-\u0424\u0438 \u0432\u0435\u0437\u0430, \u043a\u0430\u043c\u0438\u043d, \u043a\u043b\u0443\u043f\u0435 \u0438 \u0441\u0442\u043e\u043b\u043e\u0432\u0438.", "description:ua": "\u0414\u0435\u0440\u0435\u0432'\u044f\u043d\u0430 \u043e\u0433\u043b\u044f\u0434\u043e\u0432\u0430 \u0432\u0435\u0436\u0430 \u0432\u0438\u0441\u043e\u0442\u043e\u044e 12 \u043c\u0435\u0442\u0440\u0456\u0432 \u0437 3 \u0442\u0435\u0440\u0430\u0441\u0430\u043c\u0438. \u0406\u043d\u0444\u043e\u0440\u043c\u0430\u0446\u0456\u0439\u043d\u0456 \u0449\u0438\u0442\u0438 \u0437 \u0440\u0443\u0447\u043d\u0438\u043c \u0440\u043e\u0437\u043f\u0438\u0441\u043e\u043c \u043f\u0440\u043e \u0443\u0433\u043e\u0440\u0441\u044c\u043a\u0438\u0445 \u043a\u043e\u0440\u043e\u043b\u0456\u0432. \u041f\u043e\u0441\u043b\u0443\u0433\u0438: 2 \u0432\u0435\u0431-\u043a\u0430\u043c\u0435\u0440\u0438, \u0431\u0435\u0437\u043a\u043e\u0448\u0442\u043e\u0432\u043d\u0438\u0439 Wi-Fi, \u043a\u0430\u043c\u0456\u043d, \u043b\u0430\u0432\u043a\u0438 \u0442\u0430 \u0441\u0442\u043e\u043b\u0438.", "direction": "0-360", "ele": "639", "fee": "no", "height": "12", "internet_access": "wlan", "internet_access:fee": "no", "man_made": "tower", "material": "wood", "name": "Pr\u00e9dik\u00e1l\u00f3sz\u00e9k-kil\u00e1t\u00f3", "official_name": "Pr\u00e9dik\u00e1l\u00f3sz\u00e9ki-kil\u00e1t\u00f3", "opening_hours": "24/7", "operator": "Pilisi Parkerd\u0151 Zrt.", "source": "survey", "start_date": "2016", "survey:date": "2016-09-25", "tourism": "viewpoint", "tower:construction": "lattice", "tower:type": "observation", "url": "https://www.idokep.hu/webkamera/predikaloszek", "website": "https://parkerdo.hu/turizmus/latnivalok/predikaloszeki-kilato/"}}, {"type": "way", "id": 548633987, "nodes": [5300100110, 5300100109, 5300100108, 5300100107, 5300100102, 5300100106, 5300100105, 5300100104, 5300100103, 5300100110], "tags": {"building:levels": "2", "building:part": "torony", "height": "8", "man_made": "tower", "name": "hiperbola-torony", "tourism": "viewpoint", "tower:type": "observation"}}, {"type": "way", "id": 684766999, "nodes": [6416051519, 6416051520, 6416051521, 6416051522, 6416051519], "tags": {"bench": "yes", "building": "yes", "direction": "east", "shelter_type": "gazebo", "tourism": "viewpoint"}}, {"type": "way", "id": 998390890, "nodes": [9218403711, 9218403710, 9218403709, 9218403708, 9218403711], "tags": {"architect": "Koller J\u00f3zsef", "building": "yes", "building:material": "wood", "capacity": "5", "elevator": "no", "fee": "no", "height": "7", "man_made": "tower", "material": "wood", "name": "B\u00f6lcs\u0151-hegyi kil\u00e1t\u00f3", "source": "survey", "start_date": "2021-11-25", "survey:date": "2022-03-13", "tourism": "viewpoint", "tower:type": "observation"}}, {"type": "way", "id": 1140702624, "nodes": [10628450561, 10628450560, 3454532160, 10628450559, 10628450561], "tags": {"description": "fedett kil\u00e1t\u00f3", "ele": "333", "man_made": "tower", "source": "turistautak.hu", "source:date": "2014-02-04", "tourism": "viewpoint", "tower:type": "observation", "url": "http://turistautak.hu/poi.php?id=18122"}}]}