{"version": 0.6, "generator": "Overpass API 0.7.59 e21c39fe", "osm3s": {"timestamp_osm_base": "2023-03-01T08:40:53Z", "copyright": "The data included in this document is from www.openstreetmap.org. The data is made available under ODbL."}, "elements": [{"type": "node", "id": 1657899766, "lat": 48.4773702, "lon": 20.4690928, "tags": {"tourism": "artwork"}}, {"type": "node", "id": 3397867570, "lat": 48.5327754, "lon": 20.4858307, "tags": {"tourism": "artwork"}}, {"type": "node", "id": 3448898795, "lat": 48.514371, "lon": 21.0143208, "tags": {"artwork_type": "statue", "material": "wood", "tourism": "artwork"}}, {"type": "node", "id": 3462281846, "lat": 48.5454, "lon": 20.761267, "tags": {"artwork_type": "statue", "name": "Turul-szobor", "source": "turistautak.hu", "source:date": "2011-06-23", "tourism": "artwork", "url": "http://turistautak.hu/poi.php?id=40973"}}, {"type": "node", "id": 5522849996, "lat": 48.4878704, "lon": 20.6283791, "tags": {"artwork_type": "statue", "name": "Szek\u00e9r", "tourism": "artwork"}}, {"type": "node", "id": 5524959604, "lat": 48.479038, "lon": 20.6218421, "tags": {"artist_name": "Varga", "artwork_type": "geoglyph", "description:hu": "96 m hossz, 1045 m2 alapter\u00fclet", "name": "Foltos szalamandra (k\u0151b\u0151l kirakott)", "start_date": "2012", "tourism": "artwork", "url": "http://dunaninnendunantul.blogspot.hu/search?q=Szinpetri", "wikipedia": "hu:Szinpetri"}}, {"type": "node", "id": 5536034939, "lat": 48.2190073, "lon": 20.7008206, "tags": {"addr:city": "Saj\u00f3szentp\u00e9ter", "addr:postcode": "3770", "addr:street": "Sport utca", "artwork_type": "statue", "tourism": "artwork"}}, {"type": "node", "id": 6110040616, "lat": 48.2485862, "lon": 20.614885, "tags": {"artwork_type": "sculpture", "name": "\u00d6lelkez\u0151 medv\u00e9k", "tourism": "artwork"}}, {"type": "node", "id": 6110042355, "lat": 48.2520784, "lon": 20.6169752, "tags": {"tourism": "artwork"}}, {"type": "node", "id": 9236226719, "lat": 48.2330651, "lon": 20.5050521, "tags": {"artwork_type": "szekely_gate", "tourism": "artwork"}}, {"type": "node", "id": 9667444521, "lat": 48.208839, "lon": 20.4830392, "tags": {"artwork_type": "installation", "name": "Baglyos postal\u00e1da", "tourism": "artwork"}}, {"type": "node", "id": 9858978448, "lat": 48.4740927, "lon": 20.4858716, "tags": {"amenity": "bench", "name": "Hello Szomsz\u00e9d pad HU/SK", "tourism": "artwork"}}, {"type": "node", "id": 9882958405, "lat": 48.5371611, "lon": 20.7342294, "tags": {"amenity": "recycling", "artwork_type": "statue", "name": "Kupakgy\u0171jt\u0151 sz\u00edv", "opening_hours": "24/7", "recycling:plastic_bottle_caps": "yes", "recycling_type": "container", "source": "survey", "tourism": "artwork"}}, {"type": "node", "id": 9890610925, "lat": 48.3811662, "lon": 20.8659889, "tags": {"artwork_type": "statue", "material": "wood", "tourism": "artwork"}}, {"type": "node", "id": 10010842883, "lat": 48.2546032, "lon": 20.6260129, "tags": {"artwork_type": "statue", "name": "unikornis", "tourism": "artwork"}}, {"type": "node", "id": 10010842884, "lat": 48.2554102, "lon": 20.6239219, "tags": {"artwork_type": "statue", "tourism": "artwork"}}, {"type": "node", "id": 10117631825, "lat": 48.2515407, "lon": 20.619339, "tags": {"artist_name": "Gy\u0151ri Dezs\u0151 1969.", "artwork_type": "statue", "material": "concrete", "name": "Borj\u00fat terel\u0151 fi\u00fa", "tourism": "artwork"}}, {"type": "node", "id": 10117631893, "lat": 48.2488929, "lon": 20.6184736, "tags": {"artist_name": "B\u00faza Barna 1960.", "artwork_type": "statue", "name": "Kuruc lovas", "tourism": "artwork"}}, {"type": "node", "id": 10117631924, "lat": 48.2490281, "lon": 20.6201572, "tags": {"artist_name": "Az alkot\u00f3ja ismeretlen, mivel a s\u00e9r\u00fclt szobrot nem lehet teljesen helyre\u00e1ll\u00edtani.", "artwork_type": "statue", "material": "concrete", "name": "Felszabadul\u00e1s eml\u00e9km\u0171 1958. november 5.", "tourism": "artwork"}}, {"type": "node", "id": 10117631938, "lat": 48.2502422, "lon": 20.6208001, "tags": {"artwork_type": "statue", "name": "T\u00e1ncol\u00f3 p\u00e1r", "tourism": "artwork"}}, {"type": "node", "id": 10136332234, "lat": 48.2447853, "lon": 20.6222481, "tags": {"artwork_type": "statue", "name": "Jubileumi park", "tourism": "artwork"}}, {"type": "node", "id": 10220807208, "lat": 48.4771625, "lon": 20.4678699, "tags": {"artwork_type": "sculpture", "tourism": "artwork"}}, {"type": "node", "id": 10220807209, "lat": 48.4771, "lon": 20.4679381, "tags": {"artwork_type": "sculpture", "tourism": "artwork"}}]}