{"version": 0.6, "generator": "Overpass API 0.7.59 e21c39fe", "osm3s": {"timestamp_osm_base": "2023-03-01T09:24:30Z", "copyright": "The data included in this document is from www.openstreetmap.org. The data is made available under ODbL."}, "elements": [{"type": "node", "id": 309947052, "lat": 47.3462858, "lon": 16.4901698}, {"type": "node", "id": 309947055, "lat": 47.3461077, "lon": 16.4903612}, {"type": "node", "id": 309947056, "lat": 47.3462096, "lon": 16.4904269}, {"type": "node", "id": 309947058, "lat": 47.346194, "lon": 16.4901106}, {"type": "node", "id": 309948572, "lat": 47.3527926, "lon": 16.433644}, {"type": "node", "id": 309948573, "lat": 47.3528297, "lon": 16.4336337}, {"type": "node", "id": 309948582, "lat": 47.3528495, "lon": 16.4337915}, {"type": "node", "id": 309948583, "lat": 47.3528131, "lon": 16.4338016}, {"type": "node", "id": 309949081, "lat": 47.3705046, "lon": 16.4679518}, {"type": "node", "id": 309949083, "lat": 47.370328, "lon": 16.4678285}, {"type": "node", "id": 309949084, "lat": 47.3704594, "lon": 16.4680196}, {"type": "node", "id": 309949086, "lat": 47.3703732, "lon": 16.4677607}, {"type": "node", "id": 410836595, "lat": 47.3886913, "lon": 16.5410085}, {"type": "node", "id": 437524532, "lat": 47.6862863, "lon": 16.5912131}, {"type": "node", "id": 437531092, "lat": 47.6863328, "lon": 16.5909926}, {"type": "node", "id": 441708205, "lat": 47.6865006, "lon": 16.5903862}, {"type": "node", "id": 441708210, "lat": 47.6864883, "lon": 16.5911454}, {"type": "node", "id": 456922048, "lat": 47.5868671, "lon": 16.4680676, "tags": {"charge": "4 \u20ac", "name": "Der Natur auf der Spur", "opening_hours": "Mar-Dec: We-Su 09:00-17:00", "tourism": "museum", "website": "www.esterhazy.at/de/naturspur"}}, {"type": "node", "id": 1246788034, "lat": 47.6867903, "lon": 16.5911952}, {"type": "node", "id": 1246788035, "lat": 47.6867051, "lon": 16.5912555}, {"type": "node", "id": 1246788036, "lat": 47.6866308, "lon": 16.5910889}, {"type": "node", "id": 1246788038, "lat": 47.6867229, "lon": 16.5911103}, {"type": "node", "id": 1246788041, "lat": 47.6864991, "lon": 16.5909203}, {"type": "node", "id": 1246788045, "lat": 47.6867254, "lon": 16.5911689}, {"type": "node", "id": 1246788046, "lat": 47.6868289, "lon": 16.5909603}, {"type": "node", "id": 1246788047, "lat": 47.6866381, "lon": 16.5909977}, {"type": "node", "id": 1246788049, "lat": 47.6867354, "lon": 16.5910138}, {"type": "node", "id": 1247767282, "lat": 47.6866713, "lon": 16.5905492}, {"type": "node", "id": 1247767283, "lat": 47.6866148, "lon": 16.5905544}, {"type": "node", "id": 1247767288, "lat": 47.6866599, "lon": 16.590438}, {"type": "node", "id": 1247767289, "lat": 47.6866159, "lon": 16.5903378}, {"type": "node", "id": 1247767290, "lat": 47.6868484, "lon": 16.5906178}, {"type": "node", "id": 1247767293, "lat": 47.6864971, "lon": 16.5906654}, {"type": "node", "id": 1247767295, "lat": 47.6867904, "lon": 16.5903898}, {"type": "node", "id": 1248186195, "lat": 47.6866615, "lon": 16.5902993}, {"type": "node", "id": 1248186211, "lat": 47.6866797, "lon": 16.5902827}, {"type": "node", "id": 1248186214, "lat": 47.686695, "lon": 16.5902713}, {"type": "node", "id": 1248186237, "lat": 47.6866429, "lon": 16.5903169}, {"type": "node", "id": 1251060879, "lat": 47.6858908, "lon": 16.5895907}, {"type": "node", "id": 1251060885, "lat": 47.6860401, "lon": 16.5895553}, {"type": "node", "id": 1251060887, "lat": 47.6858625, "lon": 16.5894593}, {"type": "node", "id": 1251060889, "lat": 47.6861763, "lon": 16.5912221}, {"type": "node", "id": 1251060890, "lat": 47.6860986, "lon": 16.5899538}, {"type": "node", "id": 1251060892, "lat": 47.6860421, "lon": 16.5899217}, {"type": "node", "id": 1251060893, "lat": 47.6859117, "lon": 16.5900632}, {"type": "node", "id": 1251060894, "lat": 47.6862313, "lon": 16.5909508}, {"type": "node", "id": 1251060895, "lat": 47.6862073, "lon": 16.5910874}, {"type": "node", "id": 1251060906, "lat": 47.6862567, "lon": 16.589722}, {"type": "node", "id": 1251060908, "lat": 47.6859187, "lon": 16.5898035}, {"type": "node", "id": 1251060913, "lat": 47.6862011, "lon": 16.5910854}, {"type": "node", "id": 1251060914, "lat": 47.6860912, "lon": 16.5897308}, {"type": "node", "id": 1251060915, "lat": 47.6861477, "lon": 16.5897629}, {"type": "node", "id": 1251060916, "lat": 47.6859631, "lon": 16.589632}, {"type": "node", "id": 1251060917, "lat": 47.6857394, "lon": 16.5899268}, {"type": "node", "id": 1251060918, "lat": 47.6858464, "lon": 16.5897622}, {"type": "node", "id": 1251060919, "lat": 47.6861141, "lon": 16.5902072}, {"type": "node", "id": 1251685539, "lat": 47.685852, "lon": 16.5895013}, {"type": "node", "id": 1251685607, "lat": 47.6857958, "lon": 16.5897095}, {"type": "node", "id": 1276936743, "lat": 47.6849109, "lon": 16.5904694}, {"type": "node", "id": 1276936745, "lat": 47.6848369, "lon": 16.5905668}, {"type": "node", "id": 1276936752, "lat": 47.684923, "lon": 16.5903849}, {"type": "node", "id": 1276936767, "lat": 47.6847764, "lon": 16.590378}, {"type": "node", "id": 1276936770, "lat": 47.6848586, "lon": 16.5904171}, {"type": "node", "id": 1276936772, "lat": 47.6848927, "lon": 16.5905836}, {"type": "node", "id": 1276936773, "lat": 47.6848122, "lon": 16.5901961}, {"type": "node", "id": 1276936774, "lat": 47.6849501, "lon": 16.5902609}, {"type": "node", "id": 1407006772, "lat": 47.6508369, "lon": 16.496764, "tags": {"addr:city": "Sopron", "addr:housenumber": "14", "addr:postcode": "9408", "addr:street": "\u00d3brennbergi \u00fat", "addr:suburb": "Brennbergb\u00e1nya", "name": "B\u00e1ny\u00e1szati Eml\u00e9kh\u00e1z", "opening_hours": "May-Sep: We-Su 14:00-18:00", "phone": "+36 99 311 327", "tourism": "museum"}}, {"type": "node", "id": 1415519442, "lat": 47.3859697, "lon": 16.5303138}, {"type": "node", "id": 1415519452, "lat": 47.3858184, "lon": 16.5303575}, {"type": "node", "id": 1415519459, "lat": 47.3858051, "lon": 16.5305623}, {"type": "node", "id": 1415519461, "lat": 47.3858579, "lon": 16.5306366}, {"type": "node", "id": 1415519467, "lat": 47.385797, "lon": 16.530412}, {"type": "node", "id": 1415519468, "lat": 47.3859327, "lon": 16.5306529}, {"type": "node", "id": 1415519475, "lat": 47.3860348, "lon": 16.5304874}, {"type": "node", "id": 1415519482, "lat": 47.385886, "lon": 16.530297}, {"type": "node", "id": 1415519494, "lat": 47.3858466, "lon": 16.530321}, {"type": "node", "id": 1415519496, "lat": 47.3858988, "lon": 16.5306543}, {"type": "node", "id": 1415519497, "lat": 47.3858373, "lon": 16.5306175}, {"type": "node", "id": 1415519499, "lat": 47.3860052, "lon": 16.5305928}, {"type": "node", "id": 1415519500, "lat": 47.3859729, "lon": 16.5306318}, {"type": "node", "id": 1415519502, "lat": 47.3860305, "lon": 16.5304248}, {"type": "node", "id": 1415519503, "lat": 47.3860271, "lon": 16.5305388}, {"type": "node", "id": 1415519508, "lat": 47.3859935, "lon": 16.5303381}, {"type": "node", "id": 1415519509, "lat": 47.3859292, "lon": 16.5302945}, {"type": "node", "id": 1415519511, "lat": 47.3857912, "lon": 16.5305028}, {"type": "node", "id": 1415519513, "lat": 47.3860201, "lon": 16.5303873}, {"type": "node", "id": 1415530186, "lat": 47.3886262, "lon": 16.5411293}, {"type": "node", "id": 1415530202, "lat": 47.3887108, "lon": 16.5410762}, {"type": "node", "id": 1415530208, "lat": 47.3885949, "lon": 16.5410104}, {"type": "node", "id": 1415530218, "lat": 47.3886751, "lon": 16.5409617}, {"type": "node", "id": 1415566402, "lat": 47.3892789, "lon": 16.5411348, "tags": {"name": "Patikam\u00fazeum", "tourism": "museum"}}, {"type": "node", "id": 1428866616, "lat": 47.6700105, "lon": 16.4992036, "tags": {"addr:city": "Sopron", "addr:housenumber": "3", "addr:postcode": "9408", "addr:street": "Hidegv\u00edzv\u00f6lgy utca", "addr:suburb": "G\u00f6rbehalom", "name": "G\u00f6rbehalmi B\u00e1ny\u00e1szm\u00fazeum", "phone": "+36 99 354 188", "tourism": "museum", "website": "http://gorbehalom-banyamuzeum.hu/"}}, {"type": "node", "id": 1467568989, "lat": 47.3886896, "lon": 16.54109}, {"type": "node", "id": 1467573891, "lat": 47.387953, "lon": 16.5395584}, {"type": "node", "id": 1467573893, "lat": 47.3881441, "lon": 16.539597}, {"type": "node", "id": 1467573894, "lat": 47.388002, "lon": 16.539429}, {"type": "node", "id": 1467573896, "lat": 47.3881057, "lon": 16.5394954}, {"type": "node", "id": 1467573897, "lat": 47.387923, "lon": 16.5394659}, {"type": "node", "id": 1467573901, "lat": 47.3879606, "lon": 16.5393519}, {"type": "node", "id": 1470722561, "lat": 47.6876468, "lon": 16.591798, "tags": {"addr:city": "Sopron", "addr:housenumber": "25", "addr:postcode": "9400", "addr:street": "V\u00e1rker\u00fclet", "email": "varosplebania@sopron.hu", "name": "Katolikus gy\u0171jtem\u00e9ny", "opening_hours": "May-Oct: Tu 14:00-16:00; May-Oct: Th 09:00-11:00", "phone": "+36 99 312 221", "tourism": "museum"}}, {"type": "node", "id": 1470722564, "lat": 47.6838263, "lon": 16.591259, "tags": {"addr:city": "Sopron", "addr:housenumber": "2", "addr:postcode": "9400", "addr:street": "H\u00e1ts\u00f3kapu", "name": "Soproni Horv\u00e1th J\u00f3zsef gy\u0171jtem\u00e9ny", "opening_hours": "Th-Su 10:00-13:00, May-Sep: Sa 15:00-18:00", "phone": "+36 99 312 326", "tourism": "museum"}}, {"type": "node", "id": 1620261094, "lat": 47.3895932, "lon": 16.5385461, "tags": {"tourism": "museum", "wheelchair": "yes"}}, {"type": "node", "id": 1831081478, "lat": 47.294453, "lon": 16.4450279, "tags": {"name": "Kreuzstadl", "opening_hours": "24/7", "subject:wikidata": "Q1907400", "subject:wikipedia": "de:Massaker von Rechnitz#Gedenkst.C3.A4tte Kreuzstadl", "tourism": "museum", "website": "http://kreuzstadl.net/"}}, {"type": "node", "id": 2436295787, "lat": 47.685776, "lon": 16.591291, "tags": {"addr:city": "Sopron", "addr:housenumber": "1", "addr:postcode": "9400", "addr:street": "\u00daj utca", "historic:civilization": "ancient_roman", "name": "Scarbantia F\u00f3ruma", "opening_hours": "Mo-Sa 10:00-18:00;Su 10:00-14:00", "phone": "+36 20 364 2263", "tourism": "museum", "website": "https://sites.google.com/site/scarbantiaarcheopark/Home/forum-scarbantiae"}}, {"type": "node", "id": 2436570097, "lat": 47.689073, "lon": 16.592372, "tags": {"addr:city": "Sopron", "addr:housenumber": "5", "addr:postcode": "9400", "addr:street": "B\u00e9csi \u00fat", "description": "l\u00e1togat\u00e1si sz\u00e1nd\u00e9kot el\u0151zetesen a 99/311327 telefonon jelezni", "name": "P\u00e9k-h\u00e1z", "opening_hours": "Apr-Sep: Tu-Su 14:00-18:00", "phone": "+36 99 311 327", "tourism": "museum", "website": "http://muzeum.sopron.hu/"}}, {"type": "node", "id": 2562700396, "lat": 47.6796793, "lon": 16.5757392}, {"type": "node", "id": 2562700397, "lat": 47.6798707, "lon": 16.575825}, {"type": "node", "id": 2562700398, "lat": 47.6795818, "lon": 16.5762006}, {"type": "node", "id": 2562700399, "lat": 47.6797706, "lon": 16.5762912}, {"type": "node", "id": 3024256432, "lat": 47.3527983, "lon": 16.4336885}, {"type": "node", "id": 3024256633, "lat": 47.3528082, "lon": 16.4337633}, {"type": "node", "id": 3024256634, "lat": 47.3528351, "lon": 16.4336767}, {"type": "node", "id": 3024256636, "lat": 47.3528445, "lon": 16.4337522}, {"type": "node", "id": 3071266761, "lat": 47.6867433, "lon": 16.5902537}, {"type": "node", "id": 3072137044, "lat": 47.6871802, "lon": 16.5946821, "tags": {"addr:city": "Sopron", "addr:housenumber": "11", "addr:postcode": "9400", "addr:street": "Balfi \u00fat", "name": "Zettl-Langer gy\u0171jtem\u00e9ny", "phone": "+36 99 311 136", "tourism": "museum", "website": "http://zettl-langer.atw.hu/"}}, {"type": "node", "id": 3430556502, "lat": 47.3240595, "lon": 16.4898037, "tags": {"name": "Bozsoki Borh\u00e1z", "source": "turistautak.hu", "tourism": "museum", "url": "http://turistautak.hu/poi.php?id=74075"}}, {"type": "node", "id": 3465143400, "lat": 47.38879, "lon": 16.5394, "tags": {"contact:phone": "+36 94 563 174;+36 94 563 175", "name": "Chernel Istv\u00e1n Mad\u00e1rv\u00e9delmi Mintatelep \u00e9s Eml\u00e9km\u00fazeum", "source": "turistautak.hu", "source:date": "2011-09-06", "tourism": "museum", "url": "http://turistautak.hu/poi.php?id=68659"}}, {"type": "node", "id": 3466253963, "lat": 47.6882665, "lon": 16.5118023, "tags": {"name": "T\u00e1jh\u00e1z M\u00fazeum", "source": "turistautak.hu", "source:date": "2008-05-14", "tourism": "museum", "url": "http://turistautak.hu/poi.php?id=37901"}}, {"type": "node", "id": 3691148444, "lat": 47.5667945, "lon": 16.5290464}, {"type": "node", "id": 3691148455, "lat": 47.5668812, "lon": 16.5292518}, {"type": "node", "id": 3691148485, "lat": 47.566953, "lon": 16.5291852}, {"type": "node", "id": 3691148502, "lat": 47.5668662, "lon": 16.5289799}, {"type": "node", "id": 3958598110, "lat": 47.3880479, "lon": 16.5395091}, {"type": "node", "id": 4018481047, "lat": 47.6852213, "lon": 16.588648, "tags": {"addr:city": "Sopron", "addr:housenumber": "27", "addr:postcode": "9400", "addr:street": "Sz\u00ednh\u00e1z utca", "name": "Soproni Evang\u00e9likus M\u00fazeum, Lev\u00e9lt\u00e1r \u00e9s K\u00f6nyvt\u00e1r", "operator": "Soproni Evang\u00e9likus Egyh\u00e1zk\u00f6zs\u00e9g", "tourism": "museum"}}, {"type": "node", "id": 4405611777, "lat": 47.5254909, "lon": 16.4799971, "tags": {"addr:city": "Stoob", "addr:country": "AT", "addr:housenumber": "140", "addr:postcode": "7344", "addr:street": "Hauptstra\u00dfe", "at_bev:addr_date": "2018-10-01", "fee": "no", "heritage": "2", "heritage:operator": "bda", "name": "Di\u00f6zesanmuseum, ehem. evangelischer Pfarrhof", "on_the_list:wikipedia": "de:Liste der denkmalgesch\u00fctzten Objekte in Stoob", "ref:at:bda": "50219", "tourism": "museum", "wikidata": "Q38026343"}}, {"type": "node", "id": 5021891539, "lat": 47.4474704, "lon": 16.3772303, "tags": {"email": "office@fruehmittelalterdorf.at", "name": "Freilichtmuseum Fr\u00fchmittelalterdorf Unterrabnitz", "tourism": "museum", "website": "http://www.fruehmittelalterdorf.at"}}, {"type": "node", "id": 6220898910, "lat": 47.6492471, "lon": 16.4791498}, {"type": "node", "id": 6220898911, "lat": 47.6492443, "lon": 16.479175, "tags": {"barrier": "entrance", "entrance": "yes"}}, {"type": "node", "id": 6220898912, "lat": 47.6492418, "lon": 16.4791981}, {"type": "node", "id": 6220898913, "lat": 47.6491964, "lon": 16.4791871}, {"type": "node", "id": 6220898914, "lat": 47.6491989, "lon": 16.4791633, "tags": {"barrier": "entrance", "entrance": "yes"}}, {"type": "node", "id": 6220898915, "lat": 47.6492017, "lon": 16.4791387}, {"type": "node", "id": 6401016461, "lat": 47.5970305, "lon": 16.5493026, "tags": {"level": "1", "name": "Weinbau- & Fahnenschwinger Museum", "opening_hours": "Th-Sa 10:00-12:00,15:00-19:00; Su 14:00-18:00; PH,Mo-We closed || \"nach Vereinbarung\"", "toilets": "yes", "toilets:wheelchair": "no", "tourism": "museum", "wheelchair": "no", "wheelchair:description": "Museum ist im ersten Stock ohne Aufzug"}}, {"type": "node", "id": 7057793101, "lat": 47.446245, "lon": 16.5061942, "tags": {"addr:city": "Oberloisdorf", "addr:postcode": "7451", "addr:street": "Schulgasse", "name": "Dorfgemeinschaftshaus-Dorfmuseum", "opening_hours": "\"nur nach Vereinbarung\"", "tourism": "museum"}}, {"type": "node", "id": 7256174576, "lat": 47.3887189, "lon": 16.5408377, "tags": {"name": "T\u00e1bornokh\u00e1z", "tourism": "museum"}}, {"type": "node", "id": 7256174580, "lat": 47.3880053, "lon": 16.5396267}, {"type": "node", "id": 7816201794, "lat": 47.3461843, "lon": 16.4901433}, {"type": "node", "id": 7816201795, "lat": 47.3461612, "lon": 16.4901284}, {"type": "node", "id": 7816201796, "lat": 47.3461041, "lon": 16.4903209}, {"type": "node", "id": 7816201797, "lat": 47.3461171, "lon": 16.4903293}, {"type": "node", "id": 7833110992, "lat": 47.388607, "lon": 16.541055}, {"type": "node", "id": 8579134109, "lat": 47.5285294, "lon": 16.478032, "tags": {"fee": "no", "name": "T\u00f6pfermuseum Stoob", "phone": "+43 2612/42436", "tourism": "museum", "website": "http://toepfermuseum.at/"}}, {"type": "node", "id": 8696980719, "lat": 47.6659132, "lon": 16.568867}, {"type": "node", "id": 8696980720, "lat": 47.6658342, "lon": 16.5688398}, {"type": "node", "id": 8696980721, "lat": 47.665804, "lon": 16.5690332}, {"type": "node", "id": 8696980722, "lat": 47.665883, "lon": 16.5690604}, {"type": "node", "id": 9211001121, "lat": 47.3885979, "lon": 16.5410235}, {"type": "node", "id": 9211001122, "lat": 47.3886169, "lon": 16.5410965}, {"type": "node", "id": 9507208569, "lat": 47.6826897, "lon": 16.5832374, "tags": {"addr:city": "Sopron", "addr:housenumber": "1", "addr:postcode": "9400", "addr:street": "De\u00e1k t\u00e9r", "name": "Lenck-villa", "tourism": "museum", "website": "https://lenckvilla.hu/"}}, {"type": "node", "id": 9507238746, "lat": 47.6851548, "lon": 16.5914323, "tags": {"name": "Macskak\u0151 gyermekm\u00faeum", "tourism": "museum", "website": "https://sopronimuzeum.hu/2015/10/14/macskako-gyermekmuzeum/"}}, {"type": "node", "id": 9719147970, "lat": 47.6864979, "lon": 16.5909614}, {"type": "node", "id": 9719147978, "lat": 47.6859584, "lon": 16.5901038}, {"type": "node", "id": 9719147979, "lat": 47.685888, "lon": 16.5900419}, {"type": "node", "id": 9719147980, "lat": 47.6860326, "lon": 16.5895883}, {"type": "node", "id": 9997031493, "lat": 47.6861852, "lon": 16.5911731}, {"type": "way", "id": 28219940, "nodes": [309947052, 309947056, 309947055, 7816201797, 7816201796, 7816201795, 7816201794, 309947058, 309947052], "tags": {"addr:city": "Velem", "addr:housenumber": "96", "addr:postcode": "9726", "addr:street": "R\u00e1k\u00f3czi Ferenc \u00fat", "building": "yes", "name": "Vasf\u00fcgg\u00f6ny l\u00e1togat\u00f3k\u00f6zpont", "note": "Does it exist yet?", "tourism": "museum"}}, {"type": "way", "id": 28220070, "nodes": [309949086, 309949083, 309949084, 309949081, 309949086], "tags": {"building": "yes", "museum": "nature", "museum_type": "municipal", "name": "Erd\u00e9szeti m\u00fazeum", "operator": "Szombathelyi Erd\u00e9szeti Zrt.", "tourism": "museum"}}, {"type": "way", "id": 108738428, "nodes": [1246788049, 1246788047, 1246788036, 1246788038, 1246788049]}, {"type": "way", "id": 108738429, "nodes": [1246788034, 1246788045, 1246788035, 441708210, 9719147970, 1246788041, 1246788046, 1246788034]}, {"type": "way", "id": 108880147, "nodes": [1248186195, 1248186237, 1247767288, 1247767282, 1247767283, 1247767289, 441708205, 1247767293, 1247767290, 1247767295, 3071266761, 1248186214, 1248186211, 1248186195], "tags": {"addr:city": "Sopron", "addr:housenumber": "6", "addr:postcode": "9400", "addr:street": "F\u0151 t\u00e9r", "building": "public", "building:levels": "3", "name": "Fabricius-h\u00e1z", "opening_hours": "Apr-Sep: Tu-Su 10:00-18:00", "phone": "+36 99 311 327", "tourism": "museum", "website": "http://muzeum.sopron.hu/", "wikidata": "Q995433", "wikipedia": "hu:Fabricius-h\u00e1z"}}, {"type": "way", "id": 109231729, "nodes": [1251060894, 437531092, 437524532, 1251060889, 9997031493, 1251060913, 1251060895, 1251060894], "tags": {"addr:city": "Sopron", "addr:housenumber": "2", "addr:postcode": "9400", "addr:street": "F\u0151 t\u00e9r", "building": "yes", "building:levels": "3", "fee": "yes", "name": "Patikam\u00fazeum", "opening_hours": "Apr-Sep: Tu-Su 10:00-14:00", "phone": "+36 99 311 327", "tourism": "museum", "website": "http://muzeum.sopron.hu/", "wikidata": "Q1230927", "wikipedia": "hu:Patikam\u00fazeum (Sopron)"}}, {"type": "way", "id": 109231730, "nodes": [1251060879, 1251060916, 1251060908, 1251060918, 1251060879]}, {"type": "way", "id": 109231733, "nodes": [1251060919, 9719147978, 1251060893, 9719147980, 1251060906, 1251060919]}, {"type": "way", "id": 109231734, "nodes": [1251060887, 1251060885, 1251060893, 9719147979, 1251060917, 1251685607, 1251685539, 1251060887]}, {"type": "way", "id": 109231735, "nodes": [1251060914, 1251060915, 1251060890, 1251060892, 1251060914]}, {"type": "way", "id": 112317286, "nodes": [1276936745, 1276936770, 1276936767, 1276936773, 1276936774, 1276936752, 1276936743, 1276936772, 1276936745], "tags": {"addr:city": "Sopron", "addr:housenumber": "22", "addr:postcode": "9400", "addr:street": "\u00daj utca", "building": "public", "name": "\u00d3zsinag\u00f3ga", "opening_hours": "Apr-Oct: Tu-Su 10:00-18:00", "phone": "+36 99 311 327", "tourism": "museum", "website": "http://muzeum.sopron.hu/", "wikidata": "Q1472036", "wikipedia": "hu:Soproni \u00f3zsinag\u00f3ga"}}, {"type": "way", "id": 128004001, "nodes": [1415519459, 1415519511, 1415519467, 1415519452, 1415519494, 1415519482, 1415519509, 1415519442, 1415519508, 1415519513, 1415519502, 1415519475, 1415519503, 1415519499, 1415519500, 1415519468, 1415519496, 1415519461, 1415519497, 1415519459], "tags": {"building": "public", "contact:facebook": "https://www.facebook.com/buboscinege/", "contact:website": "http://www.buboscinege.hu/", "name": "Bechtold Istv\u00e1n Term\u00e9szetv\u00e9delmi L\u00e1togat\u00f3k\u00f6zpont", "tourism": "museum"}}, {"type": "way", "id": 128004231, "nodes": [1415530218, 410836595, 1415530202, 1467568989, 1415530186, 9211001122, 7833110992, 9211001121, 1415530208, 1415530218], "tags": {"int_name": "Heldentor", "name": "H\u0151s\u00f6k kapuja", "tourism": "museum", "wheelchair": "no"}}, {"type": "way", "id": 133318146, "nodes": [7256174580, 1467573891, 1467573897, 1467573901, 1467573894]}, {"type": "way", "id": 249694014, "nodes": [2562700399, 2562700398, 2562700396, 2562700397, 2562700399], "tags": {"addr:city": "Sopron", "addr:housenumber": "4", "addr:postcode": "9400", "addr:street": "Bajcsy-Zsilinszky Endre utca", "alt_name": "NymE L\u00e1togat\u00f3k\u00f6zpont", "building": "public", "int_name": "University of West Hungary Building: Ligneum", "name": "Soproni Egyetem, Ligneum", "name:hu": "SoE Ligneum", "opening_hours": "Mo-Sa 09:00-16:30", "operator": "Soproni Egyetem", "tourism": "museum", "website": "http://www.ligneum.hu/"}}, {"type": "way", "id": 353807031, "nodes": [309948573, 3024256634, 3024256432, 309948572, 309948573]}, {"type": "way", "id": 353807032, "nodes": [3024256636, 309948582, 309948583, 3024256633, 3024256636]}, {"type": "way", "id": 365071737, "nodes": [3691148502, 3691148444, 3691148455, 3691148485, 3691148502], "tags": {"addr:city": "Raiding", "addr:country": "AT", "addr:housenumber": "45", "addr:postcode": "7321", "addr:street": "Lisztstra\u00dfe", "at_bev:addr_date": "2017-10-01", "building": "yes", "contact:fax": "+43 2619 510 47 22", "contact:phone": "+43 2619 510 47 16", "contact:website": "https://liszt-haus.at", "heritage": "2", "heritage:operator": "bda", "name": "Liszt-Geburtshaus", "name:etymology": "Franz Liszt", "name:etymology:wikidata": "Q41309", "name:ru": "\u0414\u043e\u043c-\u043c\u0443\u0437\u0435\u0439 \u0424\u0435\u0440\u0435\u043d\u0446\u0430 \u041b\u0438\u0441\u0442\u0430", "ref:at:bda": "30683", "tourism": "museum", "wikidata": "Q1445881", "wikipedia": "de:Franz-Liszt-Geburtshaus"}}, {"type": "way", "id": 664611916, "nodes": [6220898910, 6220898911, 6220898912, 6220898913, 6220898914, 6220898915, 6220898910], "tags": {"building": "yes", "fee": "no", "start_date": "2002", "tourism": "museum"}}, {"type": "way", "id": 777540330, "nodes": [1467573894, 3958598110, 1467573896, 1467573893, 7256174580]}, {"type": "way", "id": 938798905, "nodes": [8696980719, 8696980720, 8696980721, 8696980722, 8696980719], "tags": {"building": "yes", "name": "K\u0151halmy Vad\u00e1szati M\u00fazeum", "tourism": "museum"}}, {"type": "relation", "id": 1543223, "members": [{"type": "way", "ref": 108738428, "role": "inner"}, {"type": "way", "ref": 108738429, "role": "outer"}], "tags": {"addr:city": "Sopron", "addr:housenumber": "8", "addr:postcode": "9400", "addr:street": "F\u0151 t\u00e9r", "building": "public", "building:levels": "3", "name": "Storno-h\u00e1z", "name:zh": "\u65bd\u6258\u8bfa\u73cd\u85cf\u9986", "opening_hours": "Jan-Mar,Nov-Dec: Tu-Su 09:00-17:00;Apr-Oct: Tu-Su 10:00-18:00", "phone": "+36 99 311 327", "tourism": "museum", "type": "multipolygon", "website": "http://muzeum.sopron.hu/", "wikidata": "Q1291841", "wikipedia": "hu:Storno-h\u00e1z"}}, {"type": "relation", "id": 1549145, "members": [{"type": "way", "ref": 109231730, "role": "inner"}, {"type": "way", "ref": 109231734, "role": "outer"}], "tags": {"addr:city": "Sopron", "addr:housenumber": "4", "addr:postcode": "9400", "addr:street": "Templom utca", "building": "yes", "email": "erdmuz@gmail.com", "fax": "+36 99 523 419", "name": "Erd\u00e9szeti M\u00fazeum", "opening_hours": "Mo-Tu,Th-Su 10:00-17:00", "phone": "+36 99 338 870", "tourism": "museum", "type": "multipolygon", "website": "http://erdmuz.emk.nyme.hu/"}}, {"type": "relation", "id": 1549147, "members": [{"type": "way", "ref": 109231733, "role": "outer"}, {"type": "way", "ref": 109231735, "role": "inner"}], "tags": {"addr:city": "Sopron", "addr:housenumber": "2", "addr:postcode": "9400", "addr:street": "Templom utca", "building": "yes", "fee": "yes", "name": "K\u00f6zponti B\u00e1ny\u00e1szati M\u00fazeum", "opening_hours": "Apr-Sep: Tu-Su 08:00-17:00;Oct-Mar: Tu-Su 08:00-16:00", "phone": "+36 99 312 667", "tourism": "museum", "type": "multipolygon", "website": "http://kbm.hu/"}}, {"type": "relation", "id": 5284426, "members": [{"type": "way", "ref": 353807032, "role": "outer"}, {"type": "way", "ref": 353807031, "role": "outer"}], "tags": {"level": "0", "tourism": "museum", "type": "multipolygon"}}, {"type": "relation", "id": 10773419, "members": [{"type": "way", "ref": 777540330, "role": "outer"}, {"type": "way", "ref": 133318146, "role": "outer"}], "tags": {"addr:city": "K\u0151szeg", "addr:housenumber": "16", "addr:postcode": "9730", "addr:street": "Chernel utca", "building": "yes", "name": "Zwinger", "tourism": "museum", "type": "multipolygon", "wheelchair": "no"}}]}