{"version": 0.6, "generator": "Overpass API 0.7.59 e21c39fe", "osm3s": {"timestamp_osm_base": "2023-03-01T09:08:19Z", "copyright": "The data included in this document is from www.openstreetmap.org. The data is made available under ODbL."}, "elements": [{"type": "node", "id": 457921484, "lat": 46.0789939, "lon": 18.2269083, "tags": {"addr:city": "P\u00e9cs", "addr:housenumber": "2", "addr:postcode": "7621", "addr:street": "K\u00e1ptalan utca", "name": "Zsolnay m\u00fazeum", "tourism": "museum"}}, {"type": "node", "id": 457940324, "lat": 46.0774193, "lon": 18.2279369, "tags": {"addr:city": "P\u00e9cs", "addr:housenumber": "12", "addr:postcode": "7621", "addr:street": "Sz\u00e9chenyi t\u00e9r", "name": "R\u00e9g\u00e9szeti M\u00fazeum", "tourism": "museum"}}, {"type": "node", "id": 457947937, "lat": 46.0774672, "lon": 18.2248069}, {"type": "node", "id": 457947951, "lat": 46.0774819, "lon": 18.2253391}, {"type": "node", "id": 457947952, "lat": 46.0772588, "lon": 18.2253519}, {"type": "node", "id": 457947953, "lat": 46.0772442, "lon": 18.2248197}, {"type": "node", "id": 457950440, "lat": 46.0784859, "lon": 18.226883}, {"type": "node", "id": 457950441, "lat": 46.0785168, "lon": 18.2270271}, {"type": "node", "id": 457950442, "lat": 46.0788335, "lon": 18.2268858}, {"type": "node", "id": 457950443, "lat": 46.0788026, "lon": 18.2267418}, {"type": "node", "id": 457951415, "lat": 46.0785687, "lon": 18.2268826, "tags": {"addr:city": "P\u00e9cs", "addr:housenumber": "3", "addr:postcode": "7621", "addr:street": "K\u00e1ptalan utca", "name": "Victor Vasarely m\u00fazeum", "phone": "+36 30 934 6127", "tourism": "museum", "website": "https://pecsimuzeumok.hu/index.php?m=1&s=2&id=96", "wheelchair": "yes"}}, {"type": "node", "id": 1118545686, "lat": 46.0777728, "lon": 18.2244432, "tags": {"heritage": "1", "heritage:operator": "whc", "name": "Cella Septichora L\u00e1togat\u00f3k\u00f6zpont", "name:zh": "\u65e9\u671f\u57fa\u7763\u6559\u9675\u5893", "opening_hours": "Tu-Su 10:00-17:00", "ref:whc": "853", "tourism": "museum"}}, {"type": "node", "id": 1118545754, "lat": 46.0773194, "lon": 18.2237722, "tags": {"heritage": "1", "heritage:operator": "whc", "name": "\u00d3kereszt\u00e9ny Mauz\u00f3leum", "ref:whc": "853", "tourism": "museum", "website": "https://hu.wikipedia.org/wiki/P%C3%A9csi_%C3%B3kereszt%C3%A9ny_s%C3%ADrkamr%C3%A1k"}}, {"type": "node", "id": 1574147763, "lat": 46.0721164, "lon": 18.2241235}, {"type": "node", "id": 1574147768, "lat": 46.0721083, "lon": 18.2242471}, {"type": "node", "id": 1574147783, "lat": 46.0721484, "lon": 18.2241291}, {"type": "node", "id": 1574147813, "lat": 46.0722198, "lon": 18.2241384}, {"type": "node", "id": 1574147836, "lat": 46.0722783, "lon": 18.2243549}, {"type": "node", "id": 1574147841, "lat": 46.0722784, "lon": 18.2244849}, {"type": "node", "id": 1574147847, "lat": 46.0723519, "lon": 18.2243578}, {"type": "node", "id": 1574147854, "lat": 46.0723681, "lon": 18.2242877}, {"type": "node", "id": 1574147860, "lat": 46.0723901, "lon": 18.2244855}, {"type": "node", "id": 1574147864, "lat": 46.0723704, "lon": 18.2241685}, {"type": "node", "id": 1574147889, "lat": 46.0724422, "lon": 18.2243435}, {"type": "node", "id": 1574147893, "lat": 46.0724836, "lon": 18.224216}, {"type": "node", "id": 1752073909, "lat": 46.0789624, "lon": 18.225941, "tags": {"description": "Sz\u00e9kely P\u00e9ter M\u00fazeum", "name": "Modern Magyar K\u00e9pt\u00e1r", "tourism": "museum"}}, {"type": "node", "id": 2146525343, "lat": 46.0787453, "lon": 18.2221561}, {"type": "node", "id": 2146525346, "lat": 46.0787878, "lon": 18.2226771}, {"type": "node", "id": 2146525350, "lat": 46.0789078, "lon": 18.2221286}, {"type": "node", "id": 2146525351, "lat": 46.0789503, "lon": 18.2226495}, {"type": "node", "id": 2612540752, "lat": 46.0781773, "lon": 18.2260126}, {"type": "node", "id": 2612540753, "lat": 46.0781802, "lon": 18.2261853}, {"type": "node", "id": 2612540754, "lat": 46.0782482, "lon": 18.2260102}, {"type": "node", "id": 2612540755, "lat": 46.0782487, "lon": 18.2260423}, {"type": "node", "id": 2612540756, "lat": 46.0782903, "lon": 18.2266266}, {"type": "node", "id": 2612540757, "lat": 46.0783049, "lon": 18.2269497}, {"type": "node", "id": 2612540758, "lat": 46.0783618, "lon": 18.2266149}, {"type": "node", "id": 2612540759, "lat": 46.0783647, "lon": 18.2267104}, {"type": "node", "id": 2612540760, "lat": 46.0783683, "lon": 18.2268233}, {"type": "node", "id": 2612540762, "lat": 46.0783741, "lon": 18.2269343}, {"type": "node", "id": 2612540763, "lat": 46.0783591, "lon": 18.2254272}, {"type": "node", "id": 2612540764, "lat": 46.0784251, "lon": 18.2258967}, {"type": "node", "id": 2612540765, "lat": 46.0784664, "lon": 18.2253959}, {"type": "node", "id": 2612540766, "lat": 46.0785226, "lon": 18.2260328}, {"type": "node", "id": 2612540767, "lat": 46.0785249, "lon": 18.2261734}, {"type": "node", "id": 2612540768, "lat": 46.0785323, "lon": 18.2258654}, {"type": "node", "id": 2612540769, "lat": 46.0787597, "lon": 18.2265501}, {"type": "node", "id": 2612540770, "lat": 46.078779, "lon": 18.2266386}, {"type": "node", "id": 2616330242, "lat": 46.0773318, "lon": 18.2248147}, {"type": "node", "id": 2799875927, "lat": 46.0789941, "lon": 18.2235428}, {"type": "node", "id": 2799875929, "lat": 46.078883, "lon": 18.224022}, {"type": "node", "id": 2799875930, "lat": 46.0790011, "lon": 18.2240134}, {"type": "node", "id": 2889235082, "lat": 46.0777902, "lon": 18.2482918}, {"type": "node", "id": 2889235083, "lat": 46.077798, "lon": 18.2481649}, {"type": "node", "id": 2889235091, "lat": 46.0778289, "lon": 18.2482676}, {"type": "node", "id": 2889235202, "lat": 46.0778715, "lon": 18.2482386}, {"type": "node", "id": 2889235203, "lat": 46.0778721, "lon": 18.2481186}, {"type": "node", "id": 2889235212, "lat": 46.0779024, "lon": 18.2482193}, {"type": "node", "id": 2889235213, "lat": 46.0779055, "lon": 18.2483516}, {"type": "node", "id": 2889235215, "lat": 46.0779126, "lon": 18.2486988}, {"type": "node", "id": 2889235236, "lat": 46.0779883, "lon": 18.2482998}, {"type": "node", "id": 2889235238, "lat": 46.0779907, "lon": 18.2484803}, {"type": "node", "id": 2889235251, "lat": 46.0780337, "lon": 18.2486231}, {"type": "node", "id": 2889235252, "lat": 46.0780343, "lon": 18.248453}, {"type": "node", "id": 3021419082, "lat": 45.8682369, "lon": 18.452916, "tags": {"name": "Borm\u00fazeum", "name:de": "Weinmuseum", "tourism": "museum"}}, {"type": "node", "id": 3348021172, "lat": 46.0784951, "lon": 18.2243429}, {"type": "node", "id": 3348021173, "lat": 46.0782575, "lon": 18.224384}, {"type": "node", "id": 3348021174, "lat": 46.0783098, "lon": 18.2245434}, {"type": "node", "id": 3348021175, "lat": 46.0785139, "lon": 18.2245137}, {"type": "node", "id": 3348021176, "lat": 46.0784749, "lon": 18.2245583}, {"type": "node", "id": 3348021177, "lat": 46.0783437, "lon": 18.2246465}, {"type": "node", "id": 3348021178, "lat": 46.0784594, "lon": 18.2249987}, {"type": "node", "id": 3348021179, "lat": 46.0785892, "lon": 18.2249114}, {"type": "node", "id": 3407111629, "lat": 46.0768758, "lon": 18.2254099, "tags": {"description": "Jelenleg (2021) teljes fel\u00faj\u00edt\u00e1sa zajlik.", "name": "K\u00e9s\u0151 r\u00f3mai temet\u0151k\u00e1polna", "tourism": "museum"}}, {"type": "node", "id": 3408908435, "lat": 46.0836854, "lon": 18.1274997, "tags": {"name": "Ur\u00e1nb\u00e1ny\u00e1szati ki\u00e1ll\u00edt\u00e1s", "tourism": "museum"}}, {"type": "node", "id": 3413993784, "lat": 46.0786968, "lon": 18.2266282, "tags": {"level": "-3", "name": "Mecseki B\u00e1ny\u00e1szati M\u00fazeum", "tourism": "museum"}}, {"type": "node", "id": 3417412148, "lat": 46.1210477, "lon": 18.3105552, "tags": {"name": "Helyt\u00f6rt\u00e9neti ki\u00e1ll\u00edt\u00e1s", "tourism": "museum"}}, {"type": "node", "id": 3419780593, "lat": 46.0780542, "lon": 18.2271345, "tags": {"name": "Klim\u00f3 gy\u0171jtem\u00e9ny", "tourism": "museum"}}, {"type": "node", "id": 3419780594, "lat": 46.077932, "lon": 18.2271581, "tags": {"name": "Egyetemt\u00f6rt\u00e9neti ki\u00e1ll\u00edt\u00e1s", "tourism": "museum"}}, {"type": "node", "id": 3419780595, "lat": 46.0769179, "lon": 18.231832, "tags": {"name": "Lantos Ferenc ki\u00e1ll\u00edt\u00e1s", "tourism": "museum"}}, {"type": "node", "id": 3419780598, "lat": 46.0795568, "lon": 18.22927, "tags": {"addr:city": "P\u00e9cs", "addr:housenumber": "5", "addr:postcode": "7621", "addr:street": "Papn\u00f6velde utca", "name": "Modern Magyar K\u00e9pt\u00e1r", "tourism": "museum"}}, {"type": "node", "id": 3419780601, "lat": 46.0728096, "lon": 18.2241622, "tags": {"addr:city": "P\u00e9cs", "addr:housenumber": "15", "addr:postcode": "7621", "addr:street": "R\u00e1k\u00f3czi \u00fat", "name": "N\u00e9prajzi m\u00fazeum", "tourism": "museum"}}, {"type": "node", "id": 3419780608, "lat": 46.0722011, "lon": 18.2242085, "tags": {"name": "Term\u00e9szettudom\u00e1nyi ki\u00e1ll\u00edt\u00e1s", "tourism": "museum"}}, {"type": "node", "id": 3419780609, "lat": 46.0760505, "lon": 18.2355046, "tags": {"addr:city": "P\u00e9cs", "addr:housenumber": "9", "addr:postcode": "7621", "addr:street": "Fels\u0151malom utca", "name": "V\u00e1rost\u00f6rt\u00e9neti M\u00fazeum", "tourism": "museum", "website": "https://jpm.hu/index.php?m=3", "wikidata": "Q1462216", "wikipedia": "hu:V\u00e1rost\u00f6rt\u00e9neti M\u00fazeum (P\u00e9cs)"}}, {"type": "node", "id": 3419780624, "lat": 46.0784667, "lon": 18.2491681, "tags": {"name": "R\u00f3zsasz\u00edn Zsolnay ki\u00e1ll\u00edt\u00e1s", "tourism": "museum"}}, {"type": "node", "id": 3419780625, "lat": 46.0787636, "lon": 18.2489148, "tags": {"name": "Zsolnay csal\u00e1d- \u00e9s gy\u00e1rt\u00f6rt\u00e9neti ki\u00e1ll\u00edt\u00e1s", "tourism": "museum"}}, {"type": "node", "id": 3440812608, "lat": 46.084726, "lon": 18.07984, "tags": {"name": "Helyt\u00f6rt\u00e9neti M\u00fazeum", "source": "turistautak.hu", "source:date": "2015-01-12", "tourism": "museum", "url": "http://turistautak.hu/poi.php?id=126042"}}, {"type": "node", "id": 3440812609, "lat": 46.083883, "lon": 18.124583, "tags": {"name": "Helyt\u00f6rt\u00e9neti gy\u0171jtem\u00e9ny", "source": "turistautak.hu", "source:date": "2011-09-25", "tourism": "museum", "url": "http://turistautak.hu/poi.php?id=125105"}}, {"type": "node", "id": 3440855686, "lat": 46.0782009, "lon": 18.2240372, "tags": {"name": "P\u00e9ter-P\u00e1l s\u00edrkamra", "source": "turistautak.hu", "source:date": "2011-09-08", "tourism": "museum", "url": "http://turistautak.hu/poi.php?id=24441"}}, {"type": "node", "id": 3440859555, "lat": 46.0672311, "lon": 18.2358186, "tags": {"description": "Szabadt\u00e9ri ki\u00e1ll\u00edt\u00e1s", "name": "E-On T\u00f6rt\u00e9neti \u00e9s Elektrotechnikai Gy\u0171jtem\u00e9ny", "tourism": "museum"}}, {"type": "node", "id": 3440859576, "lat": 46.073933, "lon": 18.174501, "tags": {"name": "Falik\u00fat gy\u0171jtem\u00e9ny", "source": "turistautak.hu", "source:date": "2012-01-16", "tourism": "museum", "url": "http://turistautak.hu/poi.php?id=132268"}}, {"type": "node", "id": 3445424888, "lat": 45.892683, "lon": 18.393633, "tags": {"description": "A h\u00edres pincesor, j\u00f3f\u00e9le borokat lehet itt k\u00f3stolni \u00e9s venni.", "name": "Palkonyai pincesor", "opening_hours": "24/7", "source": "turistautak.hu", "source:date": "2015-01-12", "tourism": "museum", "url": "http://turistautak.hu/poi.php?id=341"}}, {"type": "node", "id": 3445424908, "lat": 45.86639, "lon": 18.36703, "tags": {"description": "Pincesor 100. +36 70 5094756", "name": "R\u00f3zsakerti Gal\u00e9ria", "source": "turistautak.hu", "source:date": "2015-01-12", "tourism": "museum", "url": "http://turistautak.hu/poi.php?id=113231"}}, {"type": "node", "id": 3445424919, "lat": 45.7808838, "lon": 18.3983646, "tags": {"contact:phone": "+36 72 474 537", "name": "Sok\u00e1c t\u00e1jh\u00e1z", "source": "turistautak.hu", "source:date": "2015-01-12", "tourism": "museum", "url": "http://turistautak.hu/poi.php?id=19393"}}, {"type": "node", "id": 3445424921, "lat": 45.896389, "lon": 18.433884, "tags": {"description": "http://konradhaz.hu/tortenet.htm", "name": "Sv\u00e1b t\u00e1jh\u00e1z (Konr\u00e1d h\u00e1z)", "source": "turistautak.hu", "source:date": "2011-09-08", "tourism": "museum", "url": "http://turistautak.hu/poi.php?id=100269"}}, {"type": "node", "id": 3445424941, "lat": 45.863907, "lon": 18.344717, "tags": {"name": "T\u00e1jh\u00e1z", "source": "turistautak.hu", "source:date": "2011-09-08", "tourism": "museum", "url": "http://turistautak.hu/poi.php?id=55856"}}, {"type": "node", "id": 3445424943, "lat": 45.863183, "lon": 18.349066, "tags": {"name": "T\u00e9gla- \u00e9s Babaki\u00e1ll\u00edt\u00e1s", "source": "turistautak.hu", "source:date": "2011-09-08", "tourism": "museum", "url": "http://turistautak.hu/poi.php?id=55857"}}, {"type": "node", "id": 3464278608, "lat": 46.097423, "lon": 18.460512, "tags": {"description": "Magyar Cementlapm\u00fazeum ~priv\u00e1t gy\u0171jtem\u00e9ny~ nyitva megbesz\u00e9l\u00e9s alapj\u00e1n (+36)-20-9258550", "name": "Cementlap M\u00fazeum", "source": "turistautak.hu", "source:date": "2011-09-08", "tourism": "museum", "url": "http://turistautak.hu/poi.php?id=97646"}}, {"type": "node", "id": 3464278686, "lat": 46.109262, "lon": 18.524956, "tags": {"name": "T\u00e1jh\u00e1z", "source": "turistautak.hu", "source:date": "2011-09-08", "tourism": "museum", "url": "http://turistautak.hu/poi.php?id=102405"}}, {"type": "node", "id": 3464291493, "lat": 46.03883, "lon": 18.565714, "tags": {"name": "Helyt\u00f6rt\u00e9neti M\u00fazeum", "source": "turistautak.hu", "source:date": "2012-08-17", "tourism": "museum", "url": "http://turistautak.hu/poi.php?id=143374"}}, {"type": "node", "id": 3464291578, "lat": 45.909128, "lon": 18.603586, "tags": {"description": "R\u00f3mai katolikus pl\u00e9b\u00e1niahivatal, t\u00e1jh\u00e1z \u00e9s falum\u00fazeum.", "name": "T\u00e1jh\u00e1z", "source": "turistautak.hu", "source:date": "2011-09-08", "tourism": "museum", "url": "http://turistautak.hu/poi.php?id=75672"}}, {"type": "node", "id": 3471869624, "lat": 46.045947, "lon": 18.515201, "tags": {"name": "Helyt\u00f6rt\u00e9neti M\u00fazeum", "source": "turistautak.hu", "source:date": "2013-05-07", "tourism": "museum", "url": "http://turistautak.hu/poi.php?id=153258"}}, {"type": "node", "id": 3471869627, "lat": 46.025495, "lon": 18.462908, "tags": {"name": "Iskolam\u00fazeum - Falum\u00fazeum", "source": "turistautak.hu", "source:date": "2013-06-04", "tourism": "museum", "url": "http://turistautak.hu/poi.php?id=154442"}}, {"type": "node", "id": 3472569592, "lat": 46.0732097, "lon": 18.2230227, "tags": {"addr:city": "P\u00e9cs", "addr:housenumber": "11", "addr:postcode": "7621", "addr:street": "R\u00e1k\u00f3czi \u00fat", "name": "P\u00e9csi V\u00e1rosi K\u00e9pt\u00e1r", "tourism": "museum"}}, {"type": "node", "id": 3928671915, "lat": 46.0723783, "lon": 18.2244854, "tags": {"artist_name": "Asszonyi Tam\u00e1s", "artwork_type": "sculpture", "name": "Steinmetz Mikl\u00f3s-eml\u00e9kt\u00e1bla", "tourism": "artwork"}}, {"type": "node", "id": 4314745868, "lat": 45.8002311, "lon": 18.0987402, "tags": {"addr:city": "Szaporca", "addr:postcode": "7843", "contact:phone": "+36 72 223 015", "name": "\u0150s-Dr\u00e1va L\u00e1togat\u00f3k\u00f6zpont", "name:de": "Besucherzentrum Alt-Drau", "name:en": "Ancient Drava Visitor Centre", "name:hr": "Starodravski centar", "name:hu": "\u0150s-Dr\u00e1va L\u00e1togat\u00f3k\u00f6zpont", "operator": "OS-Dr\u00e1va", "tourism": "museum", "website": "http://odlk.hu"}}, {"type": "node", "id": 5046934604, "lat": 45.8058641, "lon": 18.2120105, "tags": {"name": "Rovartani ki\u00e1ll\u00edt\u00e1s", "tourism": "museum", "website": "http://dravaszabolcs.hu/hirek/latnivalok/rovartani-kiallitas/"}}, {"type": "node", "id": 5664459651, "lat": 45.9422275, "lon": 18.3622366, "tags": {"name": "Traktorm\u00fazeum", "source": "survey", "tourism": "museum"}}, {"type": "node", "id": 5664500032, "lat": 45.8508885, "lon": 18.2962042}, {"type": "node", "id": 5664513922, "lat": 45.8509655, "lon": 18.2961028}, {"type": "node", "id": 5664514240, "lat": 45.8509338, "lon": 18.295975}, {"type": "node", "id": 5664514241, "lat": 45.8510853, "lon": 18.2962122}, {"type": "node", "id": 5664514328, "lat": 45.8508913, "lon": 18.2964676}, {"type": "node", "id": 5664514329, "lat": 45.8507613, "lon": 18.2962641}, {"type": "node", "id": 5664514330, "lat": 45.8508512, "lon": 18.2961458}, {"type": "node", "id": 5664514331, "lat": 45.8509067, "lon": 18.2960107}, {"type": "node", "id": 6328447303, "lat": 46.1278281, "lon": 18.5276215, "tags": {"name": "Templomszoba m\u00fazeum", "tourism": "museum"}}, {"type": "node", "id": 6368160920, "lat": 46.0788701, "lon": 18.2234629}, {"type": "node", "id": 6368160921, "lat": 46.0789212, "lon": 18.2234606}, {"type": "node", "id": 6368160922, "lat": 46.0789225, "lon": 18.223545}, {"type": "node", "id": 6370797429, "lat": 46.0789042, "lon": 18.2226573, "tags": {"entrance": "yes"}}, {"type": "node", "id": 6370797430, "lat": 46.0787497, "lon": 18.2222108, "tags": {"addr:city": "P\u00e9cs", "addr:housenumber": "6", "addr:postcode": "7621", "addr:street": "D\u00f3m t\u00e9r", "entrance": "yes"}}, {"type": "node", "id": 6370797451, "lat": 46.0788741, "lon": 18.2236368, "tags": {"access": "no", "barrier": "gate", "foot": "yes"}}, {"type": "node", "id": 6485776318, "lat": 46.0784498, "lon": 18.2249675, "tags": {"historic": "memorial", "inscription": "Martyn Ferenc 1899-1986. Ebben a h\u00e1zban \u00e9lt \u00e9s alkotott Martyn Ferenc az Eur\u00f3pai k\u00e9pz\u0151m\u0171v\u00e9szet kiemelked\u0151 alkot\u00f3ja.", "memorial": "plaque", "name": "Martyn Ferenc"}}, {"type": "node", "id": 6485776363, "lat": 46.0792182, "lon": 18.2263264, "tags": {"name": "Renesz\u00e1nsz k\u0151t\u00e1r", "tourism": "museum"}}, {"type": "node", "id": 6485776389, "lat": 46.0785266, "lon": 18.2258248, "tags": {"board_type": "architecture", "description": "\u00c9p\u00fclt a XVIII.sz. k\u00f6zep\u00e9n", "information": "board", "name": "M\u0171eml\u00e9k", "tourism": "information"}}, {"type": "node", "id": 6485776391, "lat": 46.0785234, "lon": 18.2258021, "tags": {"entrance": "yes"}}, {"type": "node", "id": 6485776435, "lat": 46.0784162, "lon": 18.2248673, "tags": {"board_type": "history", "information": "board", "inscription": "M\u0171eml\u00e9k jelleg\u0171 \u00e9p\u00fclet, \u00e9p\u00fclt 1841-ben. Homlokzata eklektikus st\u00edlusu. \u00c1talak\u00edtva 1890-k\u00f6r\u00fcl, helyre\u00e1ll\u00edtva 1974-ben.", "name": "Volt Kanonoki h\u00e1z", "tourism": "information"}}, {"type": "node", "id": 6485776438, "lat": 46.0784064, "lon": 18.2248372, "tags": {"entrance": "yes"}}, {"type": "node", "id": 6485776442, "lat": 46.0783644, "lon": 18.2245376}, {"type": "node", "id": 6485776443, "lat": 46.0783952, "lon": 18.2246119}, {"type": "node", "id": 6486017396, "lat": 46.0788122, "lon": 18.2267866, "tags": {"description": "Mecseki B\u00e1ny\u00e1szati M\u00fazeum, Vasarely M\u00fazeum", "information": "board", "name": "M\u00fazeum", "tourism": "information"}}, {"type": "node", "id": 6486017397, "lat": 46.0787689, "lon": 18.2265922, "tags": {"entrance": "yes"}}, {"type": "node", "id": 6509063578, "lat": 46.0723291, "lon": 18.2243569, "tags": {"entrance": "yes"}}, {"type": "node", "id": 6509063579, "lat": 46.0721615, "lon": 18.2242554, "tags": {"entrance": "yes"}}, {"type": "node", "id": 6858741963, "lat": 46.078729, "lon": 18.2265587}, {"type": "node", "id": 6858741966, "lat": 46.0784255, "lon": 18.2266874}, {"type": "node", "id": 7257922445, "lat": 46.0782976, "lon": 18.2267892, "tags": {"entrance": "yes"}}, {"type": "node", "id": 8080410218, "lat": 45.7722802, "lon": 18.6089012, "tags": {"addr:city": "Beli Manastir", "addr:housenumber": "70", "addr:postcode": "31300", "addr:street": "Ulica kralja Tomislava", "name": "Etnolo\u0161ki centar baranjske ba\u0161tine", "tourism": "museum", "website": "http://etnobaranja.eu"}}, {"type": "node", "id": 8694187138, "lat": 45.8478851, "lon": 18.3986864, "tags": {"name": "Helyt\u00f6rt\u00e9neti Gy\u0171jtem\u00e9ny Nagyhars\u00e1ny", "tourism": "museum"}}, {"type": "node", "id": 8892972246, "lat": 46.0784446, "lon": 18.2243516, "tags": {"entrance": "yes"}}, {"type": "node", "id": 9723259689, "lat": 45.8449109, "lon": 18.3996406, "tags": {"name": "Victorem Hagyom\u00e1ny\u00f6rz\u0151 Egyes\u00fclet ki\u00e1ll\u00edt\u00f3termei", "tourism": "museum"}}, {"type": "node", "id": 9922088712, "lat": 45.94406, "lon": 18.5824091, "tags": {"email": "polgarmester@nagynyarad.hu", "name": "Hadt\u00f6rt\u00e9neti m\u00fazeum", "note": "Nyitva: el\u0151zetes bejelent\u00e9s alapj\u00e1n", "phone": "+ 36 30 140 3810", "survey:date": "2022-07-30", "tourism": "museum", "website": "http://nagynyarad.hu/hadtorteneti-muzeum-2"}}, {"type": "way", "id": 38666416, "nodes": [457947937, 457947951, 457947952, 457947953, 2616330242, 457947937], "tags": {"addr:city": "P\u00e9cs", "addr:housenumber": "11", "addr:postcode": "7621", "addr:street": "Janus Pannonius utca", "building": "yes", "name": "Csontv\u00e1ry M\u00fazeum", "name:zh": "\u743c\u7279\u74e6\u91cc\u535a\u7269\u9986", "opening_hours": "Tu-Su 10:00-18:00", "tourism": "museum", "website": "https://jpm.hu/index.php?m=1&s=2&id=34", "wikidata": "Q874325", "wikipedia": "hu:Csontv\u00e1ry M\u00fazeum"}}, {"type": "way", "id": 38666641, "nodes": [457950440, 457950441, 457950442, 6486017396, 457950443, 457950440], "tags": {"addr:city": "P\u00e9cs", "addr:housenumber": "3", "addr:postcode": "7621", "addr:street": "K\u00e1ptalan utca", "building": "yes", "tourism": "museum"}}, {"type": "way", "id": 143853860, "nodes": [1574147841, 3928671915, 1574147860, 1574147889, 1574147893, 1574147864, 1574147813, 1574147783, 1574147763, 1574147768, 6509063579, 1574147854, 1574147847, 6509063578, 1574147836, 1574147841], "tags": {"addr:city": "P\u00e9cs", "addr:housenumber": "2", "addr:postcode": "7623", "addr:street": "Szabads\u00e1g \u00fat", "alt_name": "Janus Pannonius M\u00fazeum Term\u00e9szettudom\u00e1nyi M\u00fazeum", "building": "yes", "name": "Term\u00e9szettudom\u00e1nyi M\u00fazeum", "tourism": "museum", "website": "https://pecsimuzeumok.hu/index.php?m=2"}}, {"type": "way", "id": 204662559, "nodes": [2146525346, 6370797430, 2146525343, 2146525350, 2146525351, 6370797429, 2146525346], "tags": {"building": "yes", "description": "Valamint k\u00e1v\u00e9z\u00f3.", "name": "P\u00fcsp\u00f6ki magt\u00e1r \u00e9s pince", "tourism": "museum"}}, {"type": "way", "id": 255573376, "nodes": [2612540768, 6485776389, 6485776391, 2612540765, 2612540763, 2612540764, 2612540768], "tags": {"building": "yes", "name": "Janus Pannonius M\u00fazeum", "tourism": "museum"}}, {"type": "way", "id": 255573377, "nodes": [2612540767, 2612540753, 2612540752, 2612540754, 2612540755, 2612540766, 2612540767], "tags": {"building": "yes", "name": "Scha\u00e1r Erzs\u00e9bet: \u201eUtca\u201d szoborki\u00e1ll\u00edt\u00e1s", "tourism": "museum"}}, {"type": "way", "id": 255573378, "nodes": [2612540756, 7257922445, 2612540757, 2612540762, 2612540760, 2612540770, 6486017397, 2612540769, 6858741963, 6858741966, 2612540759, 2612540758, 2612540756], "tags": {"building": "yes", "tourism": "museum"}}, {"type": "way", "id": 275345555, "nodes": [2799875927, 6368160922, 6368160921, 6368160920, 6370797451, 2799875929, 2799875930, 2799875927], "tags": {"building": "yes", "name": "K\u00f6z\u00e9pkori egyetem", "tourism": "museum"}}, {"type": "way", "id": 285240452, "nodes": [2889235215, 2889235082, 2889235091, 2889235083, 2889235203, 2889235212, 2889235202, 2889235213, 2889235236, 2889235252, 2889235238, 2889235251, 2889235215], "tags": {"addr:city": "P\u00e9cs", "addr:housenumber": "39", "addr:postcode": "7629", "addr:street": "Zsolnay Vilmos utca", "building": "yes", "name": "Gyugyi gy\u0171jtem\u00e9ny", "tourism": "museum"}}, {"type": "way", "id": 327985329, "nodes": [3348021172, 8892972246, 3348021173, 3348021174, 6485776442, 3348021175, 3348021172], "tags": {"addr:city": "P\u00e9cs", "addr:housenumber": "8", "addr:postcode": "7621", "addr:street": "K\u00e1ptalan utca", "building": "yes", "name": "D\u00f3m m\u00fazeum", "tourism": "museum"}}, {"type": "way", "id": 327985330, "nodes": [3348021176, 6485776443, 3348021177, 6485776438, 6485776435, 6485776318, 3348021178, 3348021179, 3348021176], "tags": {"addr:city": "P\u00e9cs", "addr:housenumber": "6", "addr:postcode": "7621", "addr:street": "K\u00e1ptalan utca", "building": "yes", "name": "P\u00fcsp\u00f6ki Kincst\u00e1r", "tourism": "museum"}}, {"type": "way", "id": 593887633, "nodes": [5664514241, 5664514240, 5664514331, 5664513922, 5664500032, 5664514330, 5664514329, 5664514328, 5664514241], "tags": {"building": "yes", "name": "Vad \u00e9s Vad\u00e1szati M\u00fazeum", "source": "survey;F\u00d6MI ortofot\u00f3 2005", "tourism": "museum"}}]}