{"version": 0.6, "generator": "Overpass API 0.7.59 e21c39fe", "osm3s": {"timestamp_osm_base": "2023-03-01T09:29:39Z", "copyright": "The data included in this document is from www.openstreetmap.org. The data is made available under ODbL."}, "elements": [{"type": "node", "id": 3439443539, "lat": 46.9140697, "lon": 19.6545855, "tags": {"ele": "122", "man_made": "tower", "name": "\u00daj Kil\u00e1t\u00f3", "source": "turistautak.hu", "source:date": "2014-03-14", "tourism": "viewpoint", "tower:type": "observation", "url": "http://turistautak.hu/poi.php?id=95622"}}, {"type": "node", "id": 3439444423, "lat": 46.90894, "lon": 19.56552, "tags": {"ele": "121", "man_made": "tower", "source": "turistautak.hu", "source:date": "2013-03-12", "tourism": "viewpoint", "tower:type": "observation", "url": "http://turistautak.hu/poi.php?id=24813"}}, {"type": "node", "id": 3459945642, "lat": 46.76645, "lon": 19.63898, "tags": {"man_made": "tower", "name": "Mag\u00e1nkil\u00e1t\u00f3", "source": "turistautak.hu", "source:date": "2013-12-17", "tourism": "viewpoint", "tower:type": "observation", "url": "http://turistautak.hu/poi.php?id=67931"}}, {"type": "node", "id": 3459946889, "lat": 46.737457, "lon": 19.58401, "tags": {"man_made": "tower", "name": "torony", "source": "turistautak.hu", "source:date": "2013-12-17", "tourism": "viewpoint", "tower:type": "observation", "url": "http://turistautak.hu/poi.php?id=119206"}}, {"type": "node", "id": 3459947805, "lat": 46.7703, "lon": 19.472667, "tags": {"description": "Sz\u00e9p kil\u00e1t\u00e1s az \u00c1rp\u00e1s-halom fel\u00e9, illetve az Orgov\u00e1nyi r\u00e9tekre.", "source": "turistautak.hu", "source:date": "2013-04-29", "tourism": "viewpoint", "url": "http://turistautak.hu/poi.php?id=152880"}}, {"type": "node", "id": 3474965035, "lat": 46.771408, "lon": 19.340423, "tags": {"man_made": "tower", "name": "Mad\u00e1rv\u00e1logat\u00f3", "source": "turistautak.hu", "source:date": "2013-10-17", "tourism": "viewpoint", "tower:type": "observation", "url": "http://turistautak.hu/poi.php?id=160645"}}, {"type": "node", "id": 3474965036, "lat": 46.789401, "lon": 19.329138, "tags": {"ele": "101", "man_made": "tower", "name": "Megfigyel\u0151torony", "tourism": "viewpoint", "tower:type": "observation", "url": "http://turistautak.hu/poi.php?id=21565"}}, {"type": "node", "id": 3474965063, "lat": 46.8023931, "lon": 19.3424471, "tags": {"man_made": "tower", "name": "Romos kil\u00e1t\u00f3", "source": "turistautak.hu", "source:date": "2013-06-24", "tourism": "viewpoint", "tower:type": "observation", "url": "http://turistautak.hu/poi.php?id=155442"}}, {"type": "node", "id": 3485197387, "lat": 46.647171, "lon": 19.610981, "tags": {"access": "no", "description": "kil\u00e1t\u00f3 (rom)", "man_made": "tower", "name": "Nagybugac", "ruins": "yes", "source": "turistautak.hu", "source:date": "2014-03-28", "tourism": "viewpoint", "tower:type": "observation", "url": "http://turistautak.hu/poi.php?id=6979"}}, {"type": "node", "id": 3881294486, "lat": 46.745031, "lon": 19.2380673, "tags": {"access": "public", "addr:city": "Soltszentimre", "addr:country": "HU", "addr:district": "Kisk\u0151r\u00f6si J\u00e1r\u00e1s", "addr:province": "B\u00e1cs-Kiskun Megye", "alt_name": "\u00c1rp\u00e1d-kori templomrom Soltszentimre", "closest_town": "Akaszt\u00f3 - Soltsztimre", "dark_sky": "yes", "description": "7,13 magnit\u00fad\u00f3 az \u00e9gbolt szabad szemes hat\u00e1rf\u00e9nyess\u00e9ge", "direction": "0-360", "ele": "102", "fee": "no", "is_in": "Csonkatorony-d\u0171l\u0151; Kiskuns\u00e1g", "leisure": "star_gazing", "name": "Amat\u0151r csillag\u00e1sz \u00e9szlel\u0151hely (7,1mn darksky), Csonkatorony-Soltsztimre", "surface": "grass", "surveillance": "astronomy", "surveillance:type": "viewpoint", "toilets:wheelchair": "no", "tourism": "viewpoint", "type": "astronomy", "url": "http://egkep.com/?kzct", "url:darksky": "fenyszennyezes.hu", "website": "https://www.mcse.hu/eszlelohelyek/", "wheelchair": "yes"}}, {"type": "node", "id": 4086984233, "lat": 46.795232, "lon": 19.485305, "tags": {"man_made": "tower", "noexit": "yes", "tourism": "viewpoint", "tower:type": "observation"}}, {"type": "node", "id": 4787061265, "lat": 46.6181308, "lon": 19.3941761, "tags": {"source": "survey", "tourism": "viewpoint"}}, {"type": "node", "id": 4863833992, "lat": 46.7385054, "lon": 19.5865088, "tags": {"addr:city": "Jakabsz\u00e1ll\u00e1s", "addr:country": "HU", "addr:province": "B\u00e1cs-Kiskun Megye", "description": "Kis-Magyarorsz\u00e1g Botanikus Kert", "name": "Budapest (Magyarkert)", "tourism": "viewpoint"}}, {"type": "node", "id": 6874039524, "lat": 46.7721546, "lon": 19.3387484, "tags": {"man_made": "tower", "name": "mad\u00e1rles", "tourism": "viewpoint", "tower:type": "observation"}}, {"type": "node", "id": 6874039529, "lat": 46.7754409, "lon": 19.3353608, "tags": {"man_made": "tower", "name": "Mad\u00e1rmegfigyel\u0151 torony (l\u00e9tra n\u00e9lk\u00fcl)", "tourism": "viewpoint", "tower:type": "observation"}}, {"type": "node", "id": 6874039551, "lat": 46.7875138, "lon": 19.3303129, "tags": {"man_made": "tower", "tourism": "viewpoint", "tower:type": "observation"}}, {"type": "node", "id": 8356750717, "lat": 46.5785266, "lon": 19.2249167, "tags": {"tourism": "viewpoint"}}, {"type": "node", "id": 8647269094, "lat": 46.8653765, "lon": 19.340917, "tags": {"addr:city": "F\u00fcl\u00f6psz\u00e1ll\u00e1s", "addr:country": "HU", "addr:district": "Kisk\u0151r\u00f6si j\u00e1r\u00e1s", "addr:province": "B\u00e1cs-Kiskun megye", "alt_name": "F\u00fcl\u00f6psz\u00e1ll\u00e1s k\u00f6zeli \u00e9szlel\u0151hely", "closest_town": "F\u00fcl\u00f6psz\u00e1ll\u00e1s; Kisizs\u00e1k; F\u00fcl\u00f6ph\u00e1za", "description": "7 magnit\u00fad\u00f3 az \u00e9gbolt szabad szemes hat\u00e1rf\u00e9nyess\u00e9ge", "direction": "0-360", "ele": "97", "is_in": "Kurjant\u00f3; F\u00fcl\u0151ph\u00e1zi legel\u0151k; Kiskuns\u00e1g", "name": "amat\u0151rcsillag\u00e1sz \u00e9szlel\u0151hely (7mn darksky), F\u00fcl\u00f6ph\u00e1za", "surface": "grass", "surveillance": "astronomy", "surveillance:type": "viewpoint", "toilets:wheelchair": "no", "tourism": "viewpoint", "url": "http://egkep.com/?kzct", "url:darksky": "fenyszennyezes.hu", "website": "https://www.mcse.hu/eszlelohelyek/", "wheelchair": "yes"}}, {"type": "node", "id": 8998957330, "lat": 46.6981663, "lon": 19.5865899, "tags": {"direction": "130-310", "is_in": "Kisbugac puszta", "name": "Kisbugac Szekerc\u00e9s-sz\u00e9k puszta", "tourism": "viewpoint"}}, {"type": "node", "id": 9114437618, "lat": 46.6977863, "lon": 19.6388408, "tags": {"access": "yes", "fee": "no", "man_made": "tower", "material": "wood", "name": "Parkerd\u0151 kil\u00e1t\u00f3torony", "opening_hours": "24/7", "tourism": "viewpoint", "tower:type": "observation"}}, {"type": "node", "id": 9695802522, "lat": 46.8226607, "lon": 19.5757028, "tags": {"direction": "0-360", "man_made": "tower", "name": "W\u00e9ber Ede kil\u00e1t\u00f3", "tourism": "viewpoint", "tower:type": "observation"}}, {"type": "node", "id": 9967380736, "lat": 46.5692815, "lon": 19.7790331, "tags": {"access": "yes", "addr:city": "J\u00e1szszentl\u00e1szl\u00f3", "addr:country": "HU", "addr:district": "Kiskunmajsai j\u00e1r\u00e1s", "addr:housenumber": "6", "addr:postcode": "6133", "addr:province": "B\u00e1cs-Kiskun Megye", "addr:street": "B\u00e9k\u00e1sparti d\u0171l\u0151", "alt_name": "K\u00e9zm\u0171vesek Tany\u00e1ja \u00e9szlel\u0151hely", "dark_sky": "yes", "description": "Kiskun\u2013Neptunusz Csillag\u00e1szati \u00c9szlel\u0151t\u00e1bor MCSE. 7 magnit\u00fad\u00f3 az \u00e9gbolt szabad szemes hat\u00e1rf\u00e9nyess\u00e9ge", "direction": "0-360", "ele": "96", "fee": "yes", "leisure": "star_gazing", "loc_name": "K\u00e9zm\u0171ves Tanya \u00e9szlel\u0151hely, J\u00e1szszentl\u00e1szl\u00f3", "name": "amat\u0151rcsillag\u00e1sz \u00e9szlel\u0151hely J\u00e1szszentl\u00e1szl\u00f3 (7mn darksky)", "operator": "K\u00e9zm\u0171vesek Tany\u00e1ja", "ref": "SQM 21.58 mag./arc sec2; Brighness 0,251 mcd/m2; Artif.bright: 79,9 mikrCd/m2; 7 magnit\u00fad\u00f3; Bortle class 4", "source": "survey 2022-07-23", "surface": "grass", "surveillance": "astronomy", "surveillance:type": "viewpoint", "tourism": "viewpoint", "type": "astronomy", "url": "https://www.lightpollutionmap.info/#zoom=16.67&lat=46.5689&lon=19.7798&layers=0BFFFFFFFTFFFFFFFFFFF&state=eyJtYXJrZXJzIjp7Im1hcmtlcm15TG9jYXRpb24iOlsyMTM4MjE0LDU5NTkzODhdfX0=", "url:darksky": "fenyszennyezes.hu", "url:egkep": "http://egkep.com", "url:mcse": "https://www.mcse.hu/helyi-csoportok/kiskun-csoport/", "website": "http://umap.openstreetmap.fr/hu/map/csillag-terkep_441074#14/47.4361/18.5509"}}]}