{"version": 0.6, "generator": "Overpass API 0.7.59 e21c39fe", "osm3s": {"timestamp_osm_base": "2023-03-01T09:12:24Z", "copyright": "The data included in this document is from www.openstreetmap.org. The data is made available under ODbL."}, "elements": [{"type": "node", "id": 1614246024, "lat": 46.181339, "lon": 18.9525586}, {"type": "node", "id": 1614246025, "lat": 46.181346, "lon": 18.9529711}, {"type": "node", "id": 1614246031, "lat": 46.1814636, "lon": 18.9525542}, {"type": "node", "id": 1614246032, "lat": 46.181467, "lon": 18.9527561}, {"type": "node", "id": 1614246033, "lat": 46.1814686, "lon": 18.9528484}, {"type": "node", "id": 1614246034, "lat": 46.1814706, "lon": 18.9529667}, {"type": "node", "id": 1614246037, "lat": 46.1815089, "lon": 18.9527546}, {"type": "node", "id": 1614246038, "lat": 46.1815105, "lon": 18.9528469}, {"type": "node", "id": 1614257219, "lat": 46.1767084, "lon": 18.9518322}, {"type": "node", "id": 1614257222, "lat": 46.1767682, "lon": 18.9524583}, {"type": "node", "id": 1614257230, "lat": 46.1768193, "lon": 18.9519887}, {"type": "node", "id": 1614257231, "lat": 46.1768568, "lon": 18.9523375}, {"type": "node", "id": 1614257233, "lat": 46.1769849, "lon": 18.9519083}, {"type": "node", "id": 1614257234, "lat": 46.1770238, "lon": 18.9522919}, {"type": "node", "id": 1614257235, "lat": 46.1770992, "lon": 18.9516076}, {"type": "node", "id": 1614257237, "lat": 46.1771874, "lon": 18.9523473}, {"type": "node", "id": 1705564902, "lat": 46.5309917, "lon": 18.9721371}, {"type": "node", "id": 1705564909, "lat": 46.5305648, "lon": 18.972598}, {"type": "node", "id": 1705564911, "lat": 46.5310429, "lon": 18.9723312}, {"type": "node", "id": 1705564913, "lat": 46.5303731, "lon": 18.9718722}, {"type": "node", "id": 1705564915, "lat": 46.5308707, "lon": 18.9715946}, {"type": "node", "id": 1705564917, "lat": 46.5305804, "lon": 18.9720128}, {"type": "node", "id": 1705564919, "lat": 46.5306618, "lon": 18.9723211}, {"type": "node", "id": 1705564920, "lat": 46.5309297, "lon": 18.9718179}, {"type": "node", "id": 2923512765, "lat": 46.3482432, "lon": 18.7072282, "tags": {"addr:city": "Szeksz\u00e1rd", "addr:housenumber": "26", "addr:postcode": "7100", "addr:street": "Szent Istv\u00e1n t\u00e9r", "email": "wmmm@terrasoft.hu", "fee": "yes", "name": "Wosinsky M\u00f3r M\u00fazeum", "opening_hours": "Tu-Su 10:00-17:00", "phone": "+36 74 316 222", "tourism": "museum", "website": "https://wmmm.hu"}}, {"type": "node", "id": 2974381985, "lat": 46.3482974, "lon": 18.6976264, "tags": {"addr:city": "Szeksz\u00e1rd", "addr:housenumber": "9/b", "addr:postcode": "7100", "addr:street": "Munk\u00e1csy Mih\u00e1ly utca", "contact:facebook": "https://www.facebook.com/mezeskalacs.hu", "email": "info@mezeskalacs.hu", "mobile": "+36 20 951 0687;+36 20 384 8224", "name": "Petrits M\u00e9zeskal\u00e1cs M\u00fazeum", "name:de": "Lebkuchen Museum", "opening_hours": "Mo 10:00-15:00; Tu-Sa 10:00-16:30", "payment:american_express": "yes", "payment:cash": "yes", "payment:maestro": "yes", "payment:mastercard": "yes", "payment:visa": "yes", "payment:visa_electron": "yes", "survey:date": "2021-08-30", "tourism": "museum", "website": "https://mezeskalacs.hu/", "wikipedia": "hu:Petrits M\u00e9zeskal\u00e1cs M\u00fazeum"}}, {"type": "node", "id": 3040025582, "lat": 46.1925771, "lon": 19.1439665}, {"type": "node", "id": 3040025583, "lat": 46.1926108, "lon": 19.1441016}, {"type": "node", "id": 3040025591, "lat": 46.1926931, "lon": 19.1440587}, {"type": "node", "id": 3040025593, "lat": 46.1927169, "lon": 19.1441537}, {"type": "node", "id": 3040025594, "lat": 46.1927283, "lon": 19.1438876}, {"type": "node", "id": 3040025596, "lat": 46.1927418, "lon": 19.1438963}, {"type": "node", "id": 3040025601, "lat": 46.1927958, "lon": 19.1441126}, {"type": "node", "id": 3042292235, "lat": 46.2466017, "lon": 19.1424734, "tags": {"name": "Falum\u00fazeum", "tourism": "museum"}}, {"type": "node", "id": 3072195440, "lat": 46.1953771, "lon": 19.1865554}, {"type": "node", "id": 3072195441, "lat": 46.1954652, "lon": 19.1870758}, {"type": "node", "id": 3072195442, "lat": 46.1954655, "lon": 19.1865242}, {"type": "node", "id": 3072195444, "lat": 46.1955535, "lon": 19.1870446}, {"type": "node", "id": 3073937309, "lat": 46.3472242, "lon": 18.5941602, "tags": {"name": "T\u00e1jh\u00e1z", "tourism": "museum"}}, {"type": "node", "id": 3171086309, "lat": 46.348589, "lon": 19.1194289}, {"type": "node", "id": 3171086310, "lat": 46.3486315, "lon": 19.1195195}, {"type": "node", "id": 3171086315, "lat": 46.3487846, "lon": 19.1192362}, {"type": "node", "id": 3171086316, "lat": 46.3488271, "lon": 19.1193268}, {"type": "node", "id": 3417744902, "lat": 46.3504661, "lon": 18.6955833, "tags": {"name": "Babits Mih\u00e1ly Eml\u00e9kh\u00e1z", "source": "turistautak.hu", "tourism": "museum", "url": "http://turistautak.hu/poi.php?id=43489"}}, {"type": "node", "id": 3417744955, "lat": 46.348603, "lon": 18.706648, "tags": {"addr:interpolation": "10", "name": "M\u0171v\u00e9szetek H\u00e1za", "source": "turistautak.hu", "tourism": "museum", "url": "http://turistautak.hu/poi.php?id=32173"}}, {"type": "node", "id": 3420245647, "lat": 46.255357, "lon": 18.843012, "tags": {"addr:city": "Decs", "addr:postcode": "7144", "addr:street": "Lank\u00f3ci g\u00e1t\u0151rh\u00e1z", "museum": "technology", "name": "Lank\u00f3ci V\u00edz\u00fcgyi Ki\u00e1ll\u00edt\u00f3hely \u00e9s Szivatty\u00fatelep", "opening_hours": "\"by appointment\"", "opening_hours:covid19": "same", "operator": "K\u00f6z\u00e9p-dun\u00e1nt\u00fali V\u00edz\u00fcgyi Igazgat\u00f3s\u00e1g", "operator:type": "government", "phone": "+36 74 311911", "source": "turistautak.hu", "tourism": "museum", "url": "http://turistautak.hu/poi.php?id=130018"}}, {"type": "node", "id": 3420245648, "lat": 46.2372518, "lon": 18.8569326, "tags": {"name": "Lassi Hal\u00e1szati M\u00fazeum", "source": "turistautak.hu", "tourism": "museum", "url": "http://turistautak.hu/poi.php?id=81124"}}, {"type": "node", "id": 3420245666, "lat": 46.2000771, "lon": 18.826609, "tags": {"name": "V\u00edz\u00fcgyi \u00e9s Vad\u00e1szati ki\u00e1ll\u00edt\u00e1s", "source": "turistautak.hu", "tourism": "museum", "url": "http://turistautak.hu/poi.php?id=127754"}}, {"type": "node", "id": 3462181539, "lat": 46.185133, "lon": 18.725767, "tags": {"description": "A t\u00e1jh\u00e1zhoz a M\u0171vel\u0151d\u00e9si H\u00e1zban kell sz\u00f3lni el\u0151sz\u00f6r, s onnan j\u00f6n majd valaki vezet\u00e9sre. 74-493-690 74-491-861 74-491-863 20/471-9776 20/397-7576 20/265-1229", "name": "T\u00e1jh\u00e1z", "source": "turistautak.hu", "source:date": "2011-09-08", "tourism": "museum", "url": "http://turistautak.hu/poi.php?id=20569"}}, {"type": "node", "id": 3462187063, "lat": 46.38338, "lon": 18.66506, "tags": {"description": "H\u00edmz\u00e9sm\u00fazeum 06 30 959 4029 06 30 229 4293 06 74 315 550", "name": "H\u00edmz\u00e9sm\u00fazeum", "source": "turistautak.hu", "source:date": "2012-10-14", "tourism": "museum", "url": "http://turistautak.hu/poi.php?id=32344"}}, {"type": "node", "id": 3470101962, "lat": 46.527517, "lon": 18.975867, "tags": {"description": "Viski K\u00e1roly M\u00fazeum Szent Istv\u00e1n kir\u00e1ly \u00fat 25 (78) 462-351 N\u00e9pek, \u00e9letform\u00e1k, hagyom\u00e1nyok a Kalocsai S\u00e1rk\u00f6zben", "name": "Viski K\u00e1roly M\u00fazeum", "source": "turistautak.hu", "source:date": "2011-06-24", "tourism": "museum", "url": "http://turistautak.hu/poi.php?id=9831"}}, {"type": "node", "id": 3474964993, "lat": 46.422316, "lon": 19.178662, "tags": {"name": "Falum\u00fazeum", "source": "turistautak.hu", "source:date": "2011-06-24", "tourism": "museum", "url": "http://turistautak.hu/poi.php?id=88836"}}, {"type": "node", "id": 3487703991, "lat": 46.182633, "lon": 18.9561, "tags": {"contact:email": "eber.baja@museum.hu", "contact:phone": "+36 79 324 216", "name": "\u00c9ber Eml\u00e9kh\u00e1z", "source": "turistautak.hu", "source:date": "2011-06-24", "tourism": "museum", "url": "http://turistautak.hu/poi.php?id=80001"}}, {"type": "node", "id": 3488458744, "lat": 46.424523, "lon": 18.791125, "tags": {"name": "Helyt\u00f6rt\u00e9neti M\u00fazeum", "source": "turistautak.hu", "source:date": "2012-01-01", "tourism": "museum", "url": "http://turistautak.hu/poi.php?id=52920"}}, {"type": "node", "id": 3488458745, "lat": 46.407248, "lon": 18.756102, "tags": {"name": "Helyt\u00f6rt\u00e9neti m\u00fazeum", "source": "turistautak.hu", "source:date": "2012-01-01", "tourism": "museum", "url": "http://turistautak.hu/poi.php?id=52923"}}, {"type": "node", "id": 3778908454, "lat": 46.5297029, "lon": 18.9743795}, {"type": "node", "id": 3778912261, "lat": 46.5297963, "lon": 18.9744919}, {"type": "node", "id": 3778912266, "lat": 46.5298982, "lon": 18.9743132}, {"type": "node", "id": 3778912267, "lat": 46.5299089, "lon": 18.9743261}, {"type": "node", "id": 3778912271, "lat": 46.5299392, "lon": 18.973965}, {"type": "node", "id": 3778912282, "lat": 46.5300434, "lon": 18.9740904}, {"type": "node", "id": 3978192489, "lat": 46.164683, "lon": 18.938467, "tags": {"name": "De\u00e1k Ferenc-zsilip - V\u00edz\u00fcgyi M\u00fazeum", "source": "turistautak.hu", "tourism": "museum", "url": "http://turistautak.hu/poi.php?id=26639"}}, {"type": "node", "id": 4043559460, "lat": 46.5348217, "lon": 18.9945127}, {"type": "node", "id": 4043559461, "lat": 46.5347408, "lon": 18.9944902}, {"type": "node", "id": 4043559462, "lat": 46.5347202, "lon": 18.9946466}, {"type": "node", "id": 4043559463, "lat": 46.5346914, "lon": 18.9946386}, {"type": "node", "id": 4043559464, "lat": 46.5346739, "lon": 18.9947716}, {"type": "node", "id": 4043559465, "lat": 46.534702, "lon": 18.9947794}, {"type": "node", "id": 4043559466, "lat": 46.534683, "lon": 18.9949237}, {"type": "node", "id": 4043559467, "lat": 46.5347635, "lon": 18.9949461}, {"type": "node", "id": 4043559468, "lat": 46.534782, "lon": 18.9948052}, {"type": "node", "id": 4043559469, "lat": 46.5347906, "lon": 18.9948076}, {"type": "node", "id": 4043559470, "lat": 46.5348092, "lon": 18.9946659}, {"type": "node", "id": 4043559471, "lat": 46.5348018, "lon": 18.9946638}, {"type": "node", "id": 4314196087, "lat": 46.5314377, "lon": 18.9795731}, {"type": "node", "id": 4314196088, "lat": 46.5314478, "lon": 18.9794466}, {"type": "node", "id": 4314196789, "lat": 46.5314527, "lon": 18.9793867, "tags": {"entrance": "main"}}, {"type": "node", "id": 4314196790, "lat": 46.5314894, "lon": 18.9789294}, {"type": "node", "id": 4314196792, "lat": 46.5315392, "lon": 18.9795919}, {"type": "node", "id": 4314196797, "lat": 46.5316001, "lon": 18.9788731}, {"type": "node", "id": 4314196802, "lat": 46.5318012, "lon": 18.9797394}, {"type": "node", "id": 4624276201, "lat": 46.214607, "lon": 18.6426605}, {"type": "node", "id": 4624276202, "lat": 46.214665, "lon": 18.6425364}, {"type": "node", "id": 4624276203, "lat": 46.2146686, "lon": 18.6427207}, {"type": "node", "id": 4624276204, "lat": 46.2147266, "lon": 18.6425966}, {"type": "node", "id": 4952630465, "lat": 46.3854436, "lon": 18.8320633}, {"type": "node", "id": 4952630466, "lat": 46.3850578, "lon": 18.8316731}, {"type": "node", "id": 4952630467, "lat": 46.3850108, "lon": 18.8317707}, {"type": "node", "id": 4952630468, "lat": 46.3853966, "lon": 18.832161}, {"type": "node", "id": 4952630503, "lat": 46.3858316, "lon": 18.8259901}, {"type": "node", "id": 4952630504, "lat": 46.3856752, "lon": 18.8261189}, {"type": "node", "id": 4952630505, "lat": 46.3857111, "lon": 18.8262105}, {"type": "node", "id": 4952630506, "lat": 46.3858675, "lon": 18.8260818}, {"type": "node", "id": 4952631136, "lat": 46.4201223, "lon": 18.7904748}, {"type": "node", "id": 4952631137, "lat": 46.4202906, "lon": 18.7908503}, {"type": "node", "id": 4952631138, "lat": 46.4202173, "lon": 18.7909193}, {"type": "node", "id": 4952631139, "lat": 46.4200491, "lon": 18.7905438}, {"type": "node", "id": 5070860627, "lat": 46.5241602, "lon": 18.9814524, "tags": {"addr:city": "Kalocsa", "addr:housenumber": "76", "addr:postcode": "6300", "addr:street": "Szent Istv\u00e1n kir\u00e1ly \u00fat", "internet_access": "wlan", "name": "Sch\u00f6ffer M\u00fazeum Kalocsa", "name:hu": "Sch\u00f6ffer M\u00fazeum Kalocsa", "phone": "+36 78 462 253", "tourism": "museum"}}, {"type": "node", "id": 5181285024, "lat": 46.1767921, "lon": 18.9517841}, {"type": "node", "id": 5966020479, "lat": 46.154233, "lon": 18.6198982}, {"type": "node", "id": 5966020480, "lat": 46.1539005, "lon": 18.6193054}, {"type": "node", "id": 5966020481, "lat": 46.1539672, "lon": 18.6192271}, {"type": "node", "id": 5966020482, "lat": 46.1543016, "lon": 18.6198145}, {"type": "node", "id": 6718160527, "lat": 46.5318188, "lon": 18.9829297}, {"type": "node", "id": 6718160529, "lat": 46.5316472, "lon": 18.9829208}, {"type": "node", "id": 6718160530, "lat": 46.5317178, "lon": 18.9830671}, {"type": "node", "id": 6718160531, "lat": 46.5318153, "lon": 18.9830722}, {"type": "node", "id": 6718160536, "lat": 46.5316388, "lon": 18.9832587}, {"type": "node", "id": 6718160539, "lat": 46.531713, "lon": 18.9832626}, {"type": "node", "id": 7138505464, "lat": 46.3930593, "lon": 18.6472743, "tags": {"addr:city": "Si\u00f3ag\u00e1rd", "addr:housenumber": "31", "addr:postcode": "7171", "addr:street": "Zr\u00ednyi Mikl\u00f3s utca", "museum": "t\u00e1jh\u00e1z", "name": "T\u00e1jh\u00e1z", "opening_hours": "el\u0151zetes bejelentkez\u00e9s alapj\u00e1n", "tourism": "museum", "website": "http://www.sioagard.hu/tajhaz.html"}}, {"type": "node", "id": 7705051369, "lat": 46.1956544, "lon": 19.1418739, "tags": {"contact:phone": "+36 30 530 7507", "description": "Nyitva tart\u00e1si id\u0151n k\u00edv\u00fcli megtekint\u00e9shez telefonon lehet egyeztetni", "name": "Vad\u00e1szati ki\u00e1ll\u00edt\u00e1s", "opening_hours": "Mo-Fr 08:00-16:00", "operator": "Cs\u00e1volyi Vad\u00e1szt\u00e1rsas\u00e1g", "tourism": "museum"}}, {"type": "node", "id": 8094215907, "lat": 46.200759, "lon": 18.8241078, "tags": {"addr:city": "P\u00f6rb\u00f6ly", "addr:housenumber": "100", "addr:postcode": "7142", "addr:street": "Bajai utca", "email": "csp@gemenczrt.hu", "museum": "nature", "name": "Habsburg Frigyes f\u0151herceg uradalmi s\u00f6rpavilonja", "opening_hours:covid19": "open", "operator": "Gemenc Zrt", "operator:type": "government", "tourism": "museum", "website": "http://turizmus.gemenczrt.hu/"}}, {"type": "node", "id": 9497762549, "lat": 46.3440512, "lon": 18.6764725, "tags": {"addr:city": "Szeksz\u00e1rd", "addr:postcode": "7100", "addr:street": "Porkol\u00e1b v\u00f6lgy", "fee": "300 HUF", "museum": "person", "name": "M\u00e9sz\u00f6ly-tanya alkot\u00f3h\u00e1z", "opening_hours": "We-Su 14:00-18:00", "operator": "https://www.vagyonkezelokft.hu/", "operator:type": "local_authority", "tourism": "museum"}}, {"type": "way", "id": 148316626, "nodes": [1614246024, 1614246031, 1614246032, 1614246037, 1614246038, 1614246033, 1614246034, 1614246025, 1614246024], "tags": {"addr:city": "Baja", "addr:housename": "Vojnich-k\u00faria", "addr:housenumber": "1", "addr:postcode": "6500", "addr:street": "Arany J\u00e1nos utca", "building": "yes", "name": "Nagy Istv\u00e1n K\u00e9pt\u00e1r", "opening_hours": "Mo-Fr 10:00-16:00", "phone": "+36 79 325 649", "tourism": "museum"}}, {"type": "way", "id": 148317951, "nodes": [1614257219, 5181285024, 1614257235, 1614257237, 1614257222, 1614257219]}, {"type": "way", "id": 148317960, "nodes": [1614257230, 1614257233, 1614257234, 1614257231, 1614257230]}, {"type": "way", "id": 158332945, "nodes": [1705564920, 1705564915, 1705564913, 1705564909, 1705564911, 1705564902, 1705564919, 1705564917, 1705564920], "tags": {"building": "yes", "castle_type": "palace", "historic": "castle", "name": "\u00c9rseki palota", "tourism": "museum", "wikidata": "Q1470941", "wikipedia": "hu:\u00c9rseki palota (Kalocsa)"}}, {"type": "way", "id": 299917243, "nodes": [3040025583, 3040025591, 3040025593, 3040025601, 3040025596, 3040025594, 3040025582, 3040025583], "tags": {"building": "yes", "name": "Helyt\u00f6rt\u00e9neti gy\u0171jtem\u00e9ny", "tourism": "museum"}}, {"type": "way", "id": 302937205, "nodes": [3072195440, 3072195442, 3072195444, 3072195441, 3072195440], "tags": {"addr:city": "Fels\u0151szentiv\u00e1n", "addr:country": "HU", "addr:housenumber": "12", "addr:postcode": "6447", "addr:street": "Szent Istv\u00e1n utca", "building": "yes", "name": "Faluh\u00e1z", "tourism": "museum"}}, {"type": "way", "id": 311459806, "nodes": [3171086316, 3171086310, 3171086309, 3171086315, 3171086316], "tags": {"building": "yes", "name": "T\u00e1jh\u00e1z", "tourism": "museum"}}, {"type": "way", "id": 374498311, "nodes": [3778912282, 3778912271, 3778908454, 3778912261, 3778912266, 3778912267, 3778912282], "tags": {"building": "yes", "name": "Paprikam\u00fazeum", "opening_hours": "Mo-Su 10:00-16:00", "toilets:wheelchair": "no", "tourism": "museum", "wheelchair": "no"}}, {"type": "way", "id": 401949562, "nodes": [4043559460, 4043559461, 4043559462, 4043559463, 4043559464, 4043559465, 4043559466, 4043559467, 4043559468, 4043559469, 4043559470, 4043559471, 4043559460], "tags": {"building": "train_station", "description": "https://www.kalohirek.hu/orokseg/ujra-nyitva-kiallitott-relikviak-oroklott-ertekek-a-vasutallomason", "name": "Vas\u00fatt\u00f6rt\u00e9neti eml\u00e9khely", "operator": "Vas\u00fatt\u00f6rt\u00e9neti Alap\u00edtv\u00e1ny", "tourism": "museum"}}, {"type": "way", "id": 432345760, "nodes": [4314196797, 4314196802, 4314196792, 4314196087, 4314196088, 4314196789, 4314196790, 4314196797], "tags": {"name": "Paprika h\u00e1z", "source": "turistautak.hu", "source:date": "2011-06-24", "toilets:wheelchair": "no", "tourism": "museum", "url": "http://turistautak.hu/poi.php?id=9834", "wheelchair": "no"}}, {"type": "way", "id": 467824721, "nodes": [4624276201, 4624276202, 4624276204, 4624276203, 4624276201], "tags": {"building": "yes", "building:levels": "3", "name": "Helyt\u00f6rt\u00e9neti gy\u0171jtem\u00e9ny", "roof:shape": "gabled", "tourism": "museum"}}, {"type": "way", "id": 505292508, "nodes": [4952630468, 4952630467, 4952630466, 4952630465, 4952630468], "tags": {"building": "yes", "name": "Els\u0151 Magyar Jelv\u00e9nym\u00fazeum", "tourism": "museum"}}, {"type": "way", "id": 505292523, "nodes": [4952630506, 4952630505, 4952630504, 4952630503, 4952630506], "tags": {"building": "yes", "mapillary": "745066726159899", "name": "T\u00e1jh\u00e1z", "opening_hours": "Mo 12:00-16:00; Tu,Sa 08:00-12:00", "tourism": "museum"}}, {"type": "way", "id": 505292555, "nodes": [4952631139, 4952631136, 4952631137, 4952631138, 4952631139], "tags": {"building": "yes", "name": "K\u00e9kfest\u0151 m\u0171hely", "phone": "+36 30 691 4033", "tourism": "museum", "website": "http://www.kekfesto.com/"}}, {"type": "way", "id": 631816987, "nodes": [5966020482, 5966020479, 5966020480, 5966020481, 5966020482], "tags": {"building": "yes", "name": "Heimatmuseum Vemend", "tourism": "museum"}}, {"type": "way", "id": 714717265, "nodes": [6718160527, 6718160531, 6718160530, 6718160539, 6718160536, 6718160529, 6718160527], "tags": {"building": "yes", "name": "Folk Art House Musuem", "tourism": "museum"}}, {"type": "relation", "id": 5937311, "members": [{"type": "way", "ref": 148317951, "role": "outer"}, {"type": "way", "ref": 148317960, "role": "inner"}], "tags": {"addr:city": "Baja", "addr:housenumber": "1", "addr:postcode": "6500", "addr:street": "De\u00e1k Ferenc utca", "building": "yes", "name": "T\u00fcrr Istv\u00e1n M\u00fazeum", "tourism": "museum", "type": "multipolygon"}}]}