{"version": 0.6, "generator": "Overpass API 0.7.59 e21c39fe", "osm3s": {"timestamp_osm_base": "2023-03-01T09:07:20Z", "copyright": "The data included in this document is from www.openstreetmap.org. The data is made available under ODbL."}, "elements": [{"type": "node", "id": 1437421144, "lat": 47.6838536, "lon": 16.5907657}, {"type": "node", "id": 1437421147, "lat": 47.683932, "lon": 16.590826}, {"type": "node", "id": 1437421148, "lat": 47.6839778, "lon": 16.5904577}, {"type": "node", "id": 1437421149, "lat": 47.6840331, "lon": 16.5906533}, {"type": "node", "id": 1437421150, "lat": 47.684063, "lon": 16.5905143}, {"type": "node", "id": 3072718974, "lat": 47.6839695, "lon": 16.5904687}, {"type": "node", "id": 3087897007, "lat": 47.6844114, "lon": 16.5875764, "tags": {"addr:city": "Sopron", "addr:housenumber": "8", "addr:postcode": "9400", "addr:street": "Pet\u0151fi t\u00e9r", "name": "Fest\u0151terem", "phone": "+36 99 517 500", "tourism": "gallery", "website": "https://www.prokultura.hu/hu/festoterem/bemutatkozas.html"}}, {"type": "node", "id": 3087897009, "lat": 47.6846148, "lon": 16.5882658, "tags": {"addr:city": "Sopron", "addr:housenumber": "33", "addr:postcode": "9400", "addr:street": "Sz\u00ednh\u00e1z utca", "email": "keramiaart54@gmail.com", "name": "Interakt\u00edv Gal\u00e9ria", "phone": "+36 30 430 3174", "tourism": "gallery", "website": "http://pappart.hu/"}}, {"type": "node", "id": 3087897010, "lat": 47.6857801, "lon": 16.5907198, "tags": {"addr:city": "Sopron", "addr:housenumber": "7", "addr:postcode": "9400", "addr:street": "Kolostor utca", "email": "septem@septem.hu", "name": "Septem", "opening_hours": "Nov-Mar: Tu-Sa 10:00-16:00; Apr-Oct: Tu-Sa 10:00-18:00; PH closed", "tourism": "gallery", "website": "http://septem.hu/"}}, {"type": "node", "id": 3087897011, "lat": 47.6849328, "lon": 16.5912895, "tags": {"addr:city": "Sopron", "addr:housenumber": "14", "addr:postcode": "9400", "addr:street": "Szent Gy\u00f6rgy utca", "name": "Torony", "opening_hours": "Mo-Th 15:00-18:00", "tourism": "gallery"}}, {"type": "node", "id": 3190436210, "lat": 47.345634, "lon": 16.4903398}, {"type": "node", "id": 3190436211, "lat": 47.3456467, "lon": 16.4903942}, {"type": "node", "id": 3190436212, "lat": 47.3456765, "lon": 16.4904276}, {"type": "node", "id": 3190436213, "lat": 47.3456821, "lon": 16.4901453}, {"type": "node", "id": 3190436214, "lat": 47.3456947, "lon": 16.4901489}, {"type": "node", "id": 3190436215, "lat": 47.3457005, "lon": 16.4904402}, {"type": "node", "id": 3190436216, "lat": 47.3457027, "lon": 16.490109}, {"type": "node", "id": 3190436217, "lat": 47.3457137, "lon": 16.4901075}, {"type": "node", "id": 3190436218, "lat": 47.3457258, "lon": 16.4900542}, {"type": "node", "id": 3190436219, "lat": 47.345736, "lon": 16.4904443}, {"type": "node", "id": 3190436220, "lat": 47.3457388, "lon": 16.4900602}, {"type": "node", "id": 3190436221, "lat": 47.3457448, "lon": 16.4900262}, {"type": "node", "id": 3190436222, "lat": 47.3457686, "lon": 16.4904443}, {"type": "node", "id": 3190436223, "lat": 47.3457799, "lon": 16.4900202}, {"type": "node", "id": 3190436224, "lat": 47.3458125, "lon": 16.4900951}, {"type": "node", "id": 3190436225, "lat": 47.3458167, "lon": 16.4901495}, {"type": "node", "id": 3190436226, "lat": 47.3458181, "lon": 16.4900428}, {"type": "node", "id": 3190436227, "lat": 47.3458238, "lon": 16.4902143}, {"type": "node", "id": 3190436228, "lat": 47.3458281, "lon": 16.4901035}, {"type": "node", "id": 3190436229, "lat": 47.3458323, "lon": 16.4902394}, {"type": "node", "id": 3190436230, "lat": 47.3458352, "lon": 16.4901641}, {"type": "node", "id": 7816201798, "lat": 47.345637, "lon": 16.4903277}, {"type": "node", "id": 7816201805, "lat": 47.3456614, "lon": 16.4902291}, {"type": "node", "id": 9730421640, "lat": 47.6840213, "lon": 16.5904834}, {"type": "way", "id": 130539096, "nodes": [1437421148, 9730421640, 1437421150, 1437421149, 1437421147, 1437421144, 3072718974, 1437421148], "tags": {"addr:city": "Sopron", "addr:housenumber": "5", "addr:postcode": "9400", "addr:street": "Orsolya t\u00e9r", "building": "public", "building:levels": "2", "name": "L\u00e1bash\u00e1z", "phone": "+36 99 311 327", "tourism": "gallery", "website": "http://muzeum.sopron.hu/"}}, {"type": "way", "id": 313132010, "nodes": [3190436226, 3190436224, 3190436228, 3190436225, 3190436230, 3190436227, 3190436229, 3190436222, 3190436219, 3190436215, 3190436212, 3190436211, 3190436210, 7816201798, 7816201805, 3190436213, 3190436214, 3190436216, 3190436217, 3190436218, 3190436220, 3190436221, 3190436223, 3190436226], "tags": {"building": "yes", "name": "Korona Gal\u00e9ria", "opening_hours": "Mo-Fr 10:00-17:30; Sa 12:00-18:30; Su 09:00-18:00", "tourism": "gallery"}}]}