{"version": 0.6, "generator": "Overpass API 0.7.59 e21c39fe", "osm3s": {"timestamp_osm_base": "2023-03-01T08:17:23Z", "copyright": "The data included in this document is from www.openstreetmap.org. The data is made available under ODbL."}, "elements": [{"type": "node", "id": 3489427674, "lat": 47.2765, "lon": 20.451717, "tags": {"name": "Harang", "source": "turistautak.hu", "source:date": "2012-09-23", "tourism": "attraction", "url": "http://turistautak.hu/poi.php?id=145241"}}, {"type": "node", "id": 3489427678, "lat": 47.273383, "lon": 20.45725, "tags": {"amenity": "baking_oven", "name": "Kemence", "source": "turistautak.hu", "source:date": "2014-02-23", "tourism": "attraction", "url": "http://turistautak.hu/poi.php?id=145243"}}, {"type": "node", "id": 5983764593, "lat": 47.2792649, "lon": 20.8955079, "tags": {"alt_name": "Kunhalom; Kurg\u00e1n", "description": "''Ex lege'' v\u00e9dett kunhalom, term\u00e9szeti eml\u00e9k. A term\u00e9szet v\u00e9delm\u00e9r\u0151l sz\u00f3l\u00f3 1996.\u00e9vi LIII.Tvt. 23.\u00a7(2)bek \u201ekult\u00fart\u00f6rt\u00e9neti, kultur\u00e1lis \u00f6r\u00f6ks\u00e9gi, t\u00e1jk\u00e9pi, \u00e9l\u0151vil\u00e1g v\u00e9delmi szempontb\u00f3l jelent\u0151s dombor\u00fa f\u00f6ldm\u0171, mely .. meghat\u00e1roz\u00f3 eleme .. a t\u00e1jnak\u201d.", "ele": "95", "is_in": "Karcag d\u00e9li k\u00fclter\u00fclet", "name": "Kis-Hegyesbori halom", "natural": "peak", "opening_hours": "24/7", "reservation": "no", "tourism": "attraction", "website": "http://termeszetvedelem.hu/ex-lege-vedett-kunhalom", "wheelchair": "limited", "wikidata": "Q16521369", "wikipedia": "hu:Kunhalom"}}, {"type": "node", "id": 9567223107, "lat": 47.2647242, "lon": 20.8879951, "tags": {"alt_name": "Kunhalom; Kurg\u00e1n", "description": "''Ex lege'' v\u00e9dett kunhalom, term\u00e9szeti eml\u00e9k. A term\u00e9szet v\u00e9delm\u00e9r\u0151l sz\u00f3l\u00f3 1996.\u00e9vi LIII.Tvt. 23.\u00a7(2)bek \u201ekult\u00fart\u00f6rt\u00e9neti, kultur\u00e1lis \u00f6r\u00f6ks\u00e9gi, t\u00e1jk\u00e9pi, \u00e9l\u0151vil\u00e1g v\u00e9delmi szempontb\u00f3l jelent\u0151s dombor\u00fa f\u00f6ldm\u0171, mely .. meghat\u00e1roz\u00f3 eleme .. a t\u00e1jnak\u201d.", "is_in": "Karcag d\u00e9li k\u00fclter\u00fclet", "name": "Magyarkai-halom", "natural": "peak", "opening_hours": "24/7", "reservation": "no", "tourism": "attraction", "website": "http://termeszetvedelem.hu/ex-lege-vedett-kunhalom", "wheelchair": "limited", "wikidata": "Q16521369", "wikipedia": "hu:Kunhalom"}}, {"type": "node", "id": 9567293743, "lat": 47.2727087, "lon": 20.7484652, "tags": {"alt_name": "Kunhalom; Kurg\u00e1n", "description": "''Ex lege'' v\u00e9dett kunhalom, term\u00e9szeti eml\u00e9k. A term\u00e9szet v\u00e9delm\u00e9r\u0151l sz\u00f3l\u00f3 1996.\u00e9vi LIII.Tvt. 23.\u00a7(2)bek \u201ekult\u00fart\u00f6rt\u00e9neti, kultur\u00e1lis \u00f6r\u00f6ks\u00e9gi, t\u00e1jk\u00e9pi, \u00e9l\u0151vil\u00e1g v\u00e9delmi szempontb\u00f3l jelent\u0151s dombor\u00fa f\u00f6ldm\u0171, mely .. meghat\u00e1roz\u00f3 eleme .. a t\u00e1jnak\u201d.", "is_in": "Kenderes keleti k\u00fclter\u00fclet", "name": "H\u00e1rmas-halom", "natural": "peak", "opening_hours": "24/7", "reservation": "no", "tourism": "attraction", "website": "http://termeszetvedelem.hu/ex-lege-vedett-kunhalom", "wheelchair": "limited", "wikidata": "Q16521369", "wikipedia": "hu:Kunhalom"}}, {"type": "node", "id": 9567295428, "lat": 47.2779115, "lon": 20.8435214, "tags": {"alt_name": "Kunhalom; Kurg\u00e1n", "description": "''Ex lege'' v\u00e9dett kunhalom, term\u00e9szeti eml\u00e9k. A term\u00e9szet v\u00e9delm\u00e9r\u0151l sz\u00f3l\u00f3 1996.\u00e9vi LIII.Tvt. 23.\u00a7(2)bek \u201ekult\u00fart\u00f6rt\u00e9neti, kultur\u00e1lis \u00f6r\u00f6ks\u00e9gi, t\u00e1jk\u00e9pi, \u00e9l\u0151vil\u00e1g v\u00e9delmi szempontb\u00f3l jelent\u0151s dombor\u00fa f\u00f6ldm\u0171, mely .. meghat\u00e1roz\u00f3 eleme .. a t\u00e1jnak\u201d.", "is_in": "Karcag d\u00e9li k\u00fclter\u00fclet", "name": "Kontai kett\u0151s-halom", "natural": "peak", "opening_hours": "24/7", "reservation": "no", "tourism": "attraction", "website": "http://termeszetvedelem.hu/ex-lege-vedett-kunhalom", "wheelchair": "limited", "wikidata": "Q16521369", "wikipedia": "hu:Kunhalom"}}, {"type": "node", "id": 9567295433, "lat": 47.2801552, "lon": 20.8360111, "tags": {"alt_name": "Kunhalom; Kurg\u00e1n", "description": "''Ex lege'' v\u00e9dett kunhalom, term\u00e9szeti eml\u00e9k. A term\u00e9szet v\u00e9delm\u00e9r\u0151l sz\u00f3l\u00f3 1996.\u00e9vi LIII.Tvt. 23.\u00a7(2)bek \u201ekult\u00fart\u00f6rt\u00e9neti, kultur\u00e1lis \u00f6r\u00f6ks\u00e9gi, t\u00e1jk\u00e9pi, \u00e9l\u0151vil\u00e1g v\u00e9delmi szempontb\u00f3l jelent\u0151s dombor\u00fa f\u00f6ldm\u0171, mely .. meghat\u00e1roz\u00f3 eleme .. a t\u00e1jnak\u201d.", "is_in": "Karcag d\u00e9li k\u00fclter\u00fclet", "name": "Vermes-halom", "natural": "peak", "opening_hours": "24/7", "reservation": "no", "tourism": "attraction", "website": "http://termeszetvedelem.hu/ex-lege-vedett-kunhalom", "wheelchair": "limited", "wikidata": "Q16521369", "wikipedia": "hu:Kunhalom"}}, {"type": "node", "id": 9567300951, "lat": 47.2733006, "lon": 20.914273, "tags": {"alt_name": "Kunhalom; Kurg\u00e1n", "description": "''Ex lege'' v\u00e9dett kunhalom, term\u00e9szeti eml\u00e9k. A term\u00e9szet v\u00e9delm\u00e9r\u0151l sz\u00f3l\u00f3 1996.\u00e9vi LIII.Tvt. 23.\u00a7(2)bek \u201ekult\u00fart\u00f6rt\u00e9neti, kultur\u00e1lis \u00f6r\u00f6ks\u00e9gi, t\u00e1jk\u00e9pi, \u00e9l\u0151vil\u00e1g v\u00e9delmi szempontb\u00f3l jelent\u0151s dombor\u00fa f\u00f6ldm\u0171, mely .. meghat\u00e1roz\u00f3 eleme .. a t\u00e1jnak\u201d.", "is_in": "Karcag d\u00e9li k\u00fclter\u00fclet", "name": "R\u00f3zsa-halom", "natural": "peak", "opening_hours": "24/7", "reservation": "no", "tourism": "attraction", "website": "http://termeszetvedelem.hu/ex-lege-vedett-kunhalom", "wheelchair": "limited", "wikidata": "Q16521369", "wikipedia": "hu:Kunhalom"}}, {"type": "node", "id": 9567300966, "lat": 47.2792704, "lon": 20.8711823, "tags": {"alt_name": "Kunhalom; Kurg\u00e1n", "description": "''Ex lege'' v\u00e9dett kunhalom, term\u00e9szeti eml\u00e9k. A term\u00e9szet v\u00e9delm\u00e9r\u0151l sz\u00f3l\u00f3 1996.\u00e9vi LIII.Tvt. 23.\u00a7(2)bek \u201ekult\u00fart\u00f6rt\u00e9neti, kultur\u00e1lis \u00f6r\u00f6ks\u00e9gi, t\u00e1jk\u00e9pi, \u00e9l\u0151vil\u00e1g v\u00e9delmi szempontb\u00f3l jelent\u0151s dombor\u00fa f\u00f6ldm\u0171, mely .. meghat\u00e1roz\u00f3 eleme .. a t\u00e1jnak\u201d.", "is_in": "Karcag d\u00e9li k\u00fclter\u00fclet", "name": "Halom", "natural": "peak", "opening_hours": "24/7", "reservation": "no", "tourism": "attraction", "website": "http://termeszetvedelem.hu/ex-lege-vedett-kunhalom", "wheelchair": "limited", "wikidata": "Q16521369", "wikipedia": "hu:Kunhalom"}}, {"type": "node", "id": 9567319205, "lat": 47.3027354, "lon": 20.7336158, "tags": {"alt_name": "Kunhalom; Kurg\u00e1n", "description": "''Ex lege'' v\u00e9dett kunhalom, term\u00e9szeti eml\u00e9k. A term\u00e9szet v\u00e9delm\u00e9r\u0151l sz\u00f3l\u00f3 1996.\u00e9vi LIII.Tvt. 23.\u00a7(2)bek \u201ekult\u00fart\u00f6rt\u00e9neti, kultur\u00e1lis \u00f6r\u00f6ks\u00e9gi, t\u00e1jk\u00e9pi, \u00e9l\u0151vil\u00e1g v\u00e9delmi szempontb\u00f3l jelent\u0151s dombor\u00fa f\u00f6ldm\u0171, mely .. meghat\u00e1roz\u00f3 eleme .. a t\u00e1jnak\u201d.", "name": "Jaj-halom", "natural": "peak", "opening_hours": "24/7", "reservation": "no", "tourism": "attraction", "website": "http://termeszetvedelem.hu/ex-lege-vedett-kunhalom", "wheelchair": "limited", "wikidata": "Q16521369", "wikipedia": "hu:Kunhalom"}}]}