{"version": 0.6, "generator": "Overpass API 0.7.59 e21c39fe", "osm3s": {"timestamp_osm_base": "2023-03-01T09:25:32Z", "copyright": "The data included in this document is from www.openstreetmap.org. The data is made available under ODbL."}, "elements": [{"type": "node", "id": 324326326, "lat": 47.5752755, "lon": 18.532809, "tags": {"created_by": "Potlatch 0.10f", "tourism": "viewpoint"}}, {"type": "node", "id": 1379863444, "lat": 47.4595105, "lon": 18.4696499, "tags": {"tourism": "viewpoint"}}, {"type": "node", "id": 1423857522, "lat": 47.5699937, "lon": 18.5323196, "tags": {"tourism": "viewpoint"}}, {"type": "node", "id": 1471145605, "lat": 47.3930477, "lon": 18.3301971, "tags": {"name": "G\u00e9za pihen\u0151", "tourism": "viewpoint", "wikidata": "Q110253013"}}, {"type": "node", "id": 1471145861, "lat": 47.3605668, "lon": 18.3688343, "tags": {"tourism": "viewpoint"}}, {"type": "node", "id": 1679576535, "lat": 47.5882018, "lon": 18.4073731, "tags": {"ele": "300", "name": "Terasz", "name:de": "Terrasse", "name:en": "Terrace", "tourism": "viewpoint"}}, {"type": "node", "id": 2020029557, "lat": 47.6904568, "lon": 18.4899428, "tags": {"ele": "440", "name": "Titkos-fal kil\u00e1t\u00e1s", "tourism": "viewpoint"}}, {"type": "node", "id": 2266419477, "lat": 47.5968006, "lon": 18.408673, "tags": {"access": "yes", "description": "Ranzinger Vince n\u00e9hai b\u00e1nyam\u00e9rn\u00f6k tisztelet\u00e9re nevezt\u00e9k \u00e1t 2008-ban.", "ele": "370", "fee": "no", "height": "18", "man_made": "tower", "material": "steel", "name": "Ranzinger Vince-kil\u00e1t\u00f3", "old_name": "B\u00e1ny\u00e1sz-kil\u00e1t\u00f3", "opening_hours": "24/7", "start_date": "1980", "tourism": "viewpoint", "tower:type": "observation", "url": "https://www.termeszetjaro.hu/hu/poi/kilato/ranzinger-kilato/37771285/"}}, {"type": "node", "id": 2305567679, "lat": 47.3972088, "lon": 18.4418043, "tags": {"tourism": "viewpoint"}}, {"type": "node", "id": 2938911195, "lat": 47.7134186, "lon": 18.5104219, "tags": {"tourism": "viewpoint"}}, {"type": "node", "id": 2938911421, "lat": 47.7106255, "lon": 18.4982965, "tags": {"tourism": "viewpoint"}}, {"type": "node", "id": 2938911703, "lat": 47.7187038, "lon": 18.4918934, "tags": {"tourism": "viewpoint"}}, {"type": "node", "id": 2938911827, "lat": 47.7376745, "lon": 18.4861868, "tags": {"tourism": "viewpoint"}}, {"type": "node", "id": 2938911847, "lat": 47.739286, "lon": 18.4821789, "tags": {"tourism": "viewpoint"}}, {"type": "node", "id": 2939088735, "lat": 47.7268697, "lon": 18.4612894, "tags": {"tourism": "viewpoint"}}, {"type": "node", "id": 2939819841, "lat": 47.3649372, "lon": 18.3132828, "tags": {"name": "Pakodi-pihen\u0151", "tourism": "viewpoint"}}, {"type": "node", "id": 2939821554, "lat": 47.3623962, "lon": 18.3056894, "tags": {"tourism": "viewpoint"}}, {"type": "node", "id": 2939821702, "lat": 47.3641015, "lon": 18.3069705, "tags": {"tourism": "viewpoint"}}, {"type": "node", "id": 2941160483, "lat": 47.3694187, "lon": 18.3166331, "tags": {"tourism": "viewpoint"}}, {"type": "node", "id": 2955139457, "lat": 47.562818, "lon": 18.520737, "tags": {"name": "Kil\u00e1t\u00e1s", "tourism": "viewpoint"}}, {"type": "node", "id": 2992951067, "lat": 47.5546485, "lon": 18.5347285, "tags": {"name": "Kil\u00e1t\u00e1s", "tourism": "viewpoint"}}, {"type": "node", "id": 3009034617, "lat": 47.3824121, "lon": 18.3846746, "tags": {"tourism": "viewpoint"}}, {"type": "node", "id": 3012314846, "lat": 47.5873781, "lon": 18.4075629, "tags": {"direction": "SSE-NNW", "tourism": "viewpoint"}}, {"type": "node", "id": 3033635181, "lat": 47.6533532, "lon": 18.4357005, "tags": {"tourism": "viewpoint"}}, {"type": "node", "id": 3068220379, "lat": 47.4969297, "lon": 18.337833}, {"type": "node", "id": 3068220380, "lat": 47.4969915, "lon": 18.3379093}, {"type": "node", "id": 3068220381, "lat": 47.4970436, "lon": 18.3378168}, {"type": "node", "id": 3068220382, "lat": 47.4969817, "lon": 18.3377405}, {"type": "node", "id": 3181722552, "lat": 47.5735327, "lon": 18.5321704, "tags": {"tourism": "viewpoint"}}, {"type": "node", "id": 3181744000, "lat": 47.5066373, "lon": 18.515477, "tags": {"tourism": "viewpoint"}}, {"type": "node", "id": 3248622906, "lat": 47.42939, "lon": 18.4404102, "tags": {"tourism": "viewpoint"}}, {"type": "node", "id": 3411274694, "lat": 47.358528, "lon": 18.3118862, "tags": {"tourism": "viewpoint"}}, {"type": "node", "id": 3411274695, "lat": 47.3627853, "lon": 18.3093084, "tags": {"tourism": "viewpoint"}}, {"type": "node", "id": 3449108912, "lat": 47.372151, "lon": 18.338678, "tags": {"source": "turistautak.hu", "tourism": "viewpoint", "url": "http://turistautak.hu/poi.php?id=123317"}}, {"type": "node", "id": 3449109302, "lat": 47.3934293, "lon": 18.3293963, "tags": {"source": "turistautak.hu", "tourism": "viewpoint", "url": "http://turistautak.hu/poi.php?id=22692"}}, {"type": "node", "id": 3449109321, "lat": 47.3943221, "lon": 18.334936, "tags": {"source": "turistautak.hu", "tourism": "viewpoint", "url": "http://turistautak.hu/poi.php?id=22511"}}, {"type": "node", "id": 3449109329, "lat": 47.3946828, "lon": 18.3358686, "tags": {"source": "turistautak.hu", "tourism": "viewpoint", "url": "http://turistautak.hu/poi.php?id=22511"}}, {"type": "node", "id": 3451113444, "lat": 47.405083, "lon": 18.348789, "tags": {"ele": "359", "source": "turistautak.hu", "tourism": "viewpoint", "url": "http://turistautak.hu/poi.php?id=132500"}}, {"type": "node", "id": 3454424623, "lat": 47.682783, "lon": 18.48424, "tags": {"source": "turistautak.hu", "source:date": "2012-05-31", "tourism": "viewpoint", "url": "http://turistautak.hu/poi.php?id=139282"}}, {"type": "node", "id": 3454424644, "lat": 47.69098, "lon": 18.4885, "tags": {"source": "turistautak.hu", "source:date": "2012-09-22", "tourism": "viewpoint", "url": "http://turistautak.hu/poi.php?id=145171"}}, {"type": "node", "id": 3454424655, "lat": 47.698141, "lon": 18.4488931, "tags": {"source": "survey", "survey:date": "2017-04-08", "tourism": "viewpoint", "url": "http://turistautak.hu/poi.php?id=18522"}}, {"type": "node", "id": 3454425522, "lat": 47.72038, "lon": 18.47231, "tags": {"source": "turistautak.hu", "source:date": "2013-03-30", "tourism": "viewpoint", "url": "http://turistautak.hu/poi.php?id=144358"}}, {"type": "node", "id": 3454559814, "lat": 47.369239, "lon": 18.253926, "tags": {"source": "turistautak.hu", "tourism": "viewpoint", "url": "http://turistautak.hu/poi.php?id=78315"}}, {"type": "node", "id": 3454559827, "lat": 47.372225, "lon": 18.250071, "tags": {"source": "turistautak.hu", "tourism": "viewpoint", "url": "http://turistautak.hu/poi.php?id=78313"}}, {"type": "node", "id": 3455837994, "lat": 47.361578, "lon": 18.274525, "tags": {"ele": "385", "source": "turistautak.hu", "tourism": "viewpoint", "url": "http://turistautak.hu/poi.php?id=112728"}}, {"type": "node", "id": 3455838001, "lat": 47.361923, "lon": 18.277752, "tags": {"source": "turistautak.hu", "tourism": "viewpoint", "url": "http://turistautak.hu/poi.php?id=62210"}}, {"type": "node", "id": 3455838004, "lat": 47.362082, "lon": 18.307348, "tags": {"source": "turistautak.hu", "tourism": "viewpoint", "url": "http://turistautak.hu/poi.php?id=30734"}}, {"type": "node", "id": 3455838009, "lat": 47.362847, "lon": 18.269571, "tags": {"source": "turistautak.hu", "tourism": "viewpoint", "url": "http://turistautak.hu/poi.php?id=78318"}}, {"type": "node", "id": 3455838038, "lat": 47.367012, "lon": 18.259113, "tags": {"source": "turistautak.hu", "tourism": "viewpoint", "url": "http://turistautak.hu/poi.php?id=78316"}}, {"type": "node", "id": 3455838085, "lat": 47.369974, "lon": 18.314376, "tags": {"source": "turistautak.hu", "tourism": "viewpoint", "url": "http://turistautak.hu/poi.php?id=132502"}}, {"type": "node", "id": 3455838198, "lat": 47.371045, "lon": 18.319916, "tags": {"source": "turistautak.hu", "tourism": "viewpoint", "url": "http://turistautak.hu/poi.php?id=78323"}}, {"type": "node", "id": 3455838246, "lat": 47.374762, "lon": 18.302653, "tags": {"source": "turistautak.hu", "tourism": "viewpoint", "url": "http://turistautak.hu/poi.php?id=77904"}}, {"type": "node", "id": 3455838256, "lat": 47.375085, "lon": 18.308157, "tags": {"source": "turistautak.hu", "tourism": "viewpoint", "url": "http://turistautak.hu/poi.php?id=77903"}}, {"type": "node", "id": 3459827344, "lat": 47.377494, "lon": 18.382332, "tags": {"source": "turistautak.hu", "source:date": "2013-01-14", "tourism": "viewpoint", "url": "http://turistautak.hu/poi.php?id=90505"}}, {"type": "node", "id": 3468026238, "lat": 47.6191, "lon": 18.4083, "tags": {"description": "Sz\u00e9p kil\u00e1t\u00e1ssal V\u00e9rtessz\u0151l\u0151sre, Tatab\u00e1ny\u00e1ra, Tat\u00e1ra, a t\u00e1volban az \u00d6reg t\u00f3ra, Der\u00edt\u0151 t\u00f3ra!", "free_flying:site": "takeoff", "name": "Sikl\u00f3erny\u0151s starthely (Ny)", "source": "turistautak.hu", "source:date": "2011-12-12", "sport": "free_flying", "tourism": "viewpoint", "url": "http://turistautak.hu/poi.php?id=20534"}}, {"type": "node", "id": 3468026270, "lat": 47.4805749, "lon": 18.4008128, "tags": {"source": "turistautak.hu", "source:date": "2013-01-29", "tourism": "viewpoint", "url": "http://turistautak.hu/poi.php?id=150215"}}, {"type": "node", "id": 3468026271, "lat": 47.4810234, "lon": 18.4003708, "tags": {"source": "turistautak.hu", "source:date": "2013-01-29", "tourism": "viewpoint", "url": "http://turistautak.hu/poi.php?id=150214"}}, {"type": "node", "id": 3468026305, "lat": 47.504653, "lon": 18.404477, "tags": {"source": "turistautak.hu", "source:date": "2013-01-15", "tourism": "viewpoint", "url": "http://turistautak.hu/poi.php?id=50191"}}, {"type": "node", "id": 3468026335, "lat": 47.513372, "lon": 18.41124, "tags": {"source": "turistautak.hu", "source:date": "2013-01-15", "tourism": "viewpoint", "url": "http://turistautak.hu/poi.php?id=50197"}}, {"type": "node", "id": 3468026376, "lat": 47.602679, "lon": 18.481299, "tags": {"source": "turistautak.hu", "source:date": "2013-03-30", "tourism": "viewpoint", "url": "http://turistautak.hu/poi.php?id=133329"}}, {"type": "node", "id": 3468026427, "lat": 47.680943, "lon": 18.50441, "tags": {"ele": "450", "source": "turistautak.hu", "source:date": "2012-04-29", "tourism": "viewpoint", "url": "http://turistautak.hu/poi.php?id=137869"}}, {"type": "node", "id": 3474939354, "lat": 47.346918, "lon": 18.315787, "tags": {"source": "turistautak.hu", "source:date": "2011-09-03", "tourism": "viewpoint", "url": "http://turistautak.hu/poi.php?id=18110"}}, {"type": "node", "id": 3474939360, "lat": 47.349578, "lon": 18.299696, "tags": {"ele": "333", "name": "Kopasz-dombi kil\u00e1t\u00e1s", "source": "turistautak.hu", "source:date": "2013-01-14", "tourism": "viewpoint", "url": "http://turistautak.hu/poi.php?id=62211"}}, {"type": "node", "id": 3474939498, "lat": 47.380366, "lon": 18.240717, "tags": {"source": "turistautak.hu", "source:date": "2013-01-14", "tourism": "viewpoint", "url": "http://turistautak.hu/poi.php?id=78311"}}, {"type": "node", "id": 3474939502, "lat": 47.388863, "lon": 18.239241, "tags": {"source": "turistautak.hu", "source:date": "2013-01-14", "tourism": "viewpoint", "url": "http://turistautak.hu/poi.php?id=138088"}}, {"type": "node", "id": 3474948991, "lat": 47.377096, "lon": 18.440224, "tags": {"source": "turistautak.hu", "source:date": "2013-01-15", "tourism": "viewpoint", "url": "http://turistautak.hu/poi.php?id=126584"}}, {"type": "node", "id": 3474949000, "lat": 47.38828, "lon": 18.439755, "tags": {"source": "turistautak.hu", "source:date": "2011-10-20", "tourism": "viewpoint", "url": "http://turistautak.hu/poi.php?id=126582"}}, {"type": "node", "id": 3474949001, "lat": 47.38845, "lon": 18.387955, "tags": {"source": "turistautak.hu", "source:date": "2013-01-15", "tourism": "viewpoint", "url": "http://turistautak.hu/poi.php?id=47598"}}, {"type": "node", "id": 3474949005, "lat": 47.39056, "lon": 18.390622, "tags": {"source": "turistautak.hu", "source:date": "2013-01-15", "tourism": "viewpoint", "url": "http://turistautak.hu/poi.php?id=47600"}}, {"type": "node", "id": 3474949012, "lat": 47.39611, "lon": 18.438436, "tags": {"source": "turistautak.hu", "source:date": "2013-01-15", "tourism": "viewpoint", "url": "http://turistautak.hu/poi.php?id=70508"}}, {"type": "node", "id": 3474949066, "lat": 47.436033, "lon": 18.43135, "tags": {"description": "Kil\u00e1t\u00e1s a Z\u00d6LD turistajelz\u00e9s k\u00f6zel\u00e9ben.", "source": "survey", "survey:date": "2019-06-08", "tourism": "viewpoint", "url": "http://turistautak.hu/poi.php?id=164803"}}, {"type": "node", "id": 3474949091, "lat": 47.460085, "lon": 18.468552, "tags": {"source": "turistautak.hu", "source:date": "2013-01-15", "tourism": "viewpoint", "url": "http://turistautak.hu/poi.php?id=92067"}}, {"type": "node", "id": 3577649084, "lat": 47.4598866, "lon": 18.4280801, "tags": {"is_in": "V\u00e9rtes-hegys\u00e9g", "tourism": "viewpoint"}}, {"type": "node", "id": 3577649085, "lat": 47.459773, "lon": 18.4299141, "tags": {"is_in": "V\u00e9rtes-hegys\u00e9g", "tourism": "viewpoint"}}, {"type": "node", "id": 3659478696, "lat": 47.4918711, "lon": 18.4737563, "tags": {"tourism": "viewpoint"}}, {"type": "node", "id": 3853272512, "lat": 47.6921193, "lon": 18.4429741, "tags": {"tourism": "viewpoint"}}, {"type": "node", "id": 3853954950, "lat": 47.6532991, "lon": 18.3073208, "tags": {"amenity": "hunting_stand", "man_made": "tower", "shelter": "yes", "tourism": "viewpoint", "tower:type": "observation"}}, {"type": "node", "id": 3924254220, "lat": 47.5179402, "lon": 18.449837, "tags": {"man_made": "tower", "name": "K\u00f6rtv\u00e9lyesi-kil\u00e1t\u00f3", "source": "survey", "survey:date": "2020-02-08", "tourism": "viewpoint", "tower:type": "observation", "wikidata": "Q110254252"}}, {"type": "node", "id": 3925250059, "lat": 47.6836411, "lon": 18.2790633, "tags": {"man_made": "tower", "name": "Erzs\u00e9bet-kil\u00e1t\u00f3, Nasz\u00e1ly", "tourism": "viewpoint", "tower:type": "observation"}}, {"type": "node", "id": 4017013643, "lat": 47.5119659, "lon": 18.4895445, "tags": {"tourism": "viewpoint"}}, {"type": "node", "id": 4251097612, "lat": 47.401248, "lon": 18.3542987, "tags": {"ele": "325", "source": "survey", "survey:date": "2016-06-18", "tourism": "viewpoint"}}, {"type": "node", "id": 4427867893, "lat": 47.7093598, "lon": 18.3383779, "tags": {"man_made": "tower", "name": "D\u00e1vid-kil\u00e1t\u00f3", "survey:date": "2018-10-13", "tourism": "viewpoint", "tower:type": "observation"}}, {"type": "node", "id": 4427881968, "lat": 47.7115835, "lon": 18.3350768, "tags": {"name": "K\u0151pite kil\u00e1t\u00f3pont", "tourism": "viewpoint"}}, {"type": "node", "id": 4548405861, "lat": 47.5048115, "lon": 18.4232318, "tags": {"tourism": "viewpoint"}}, {"type": "node", "id": 4572055091, "lat": 47.644012, "lon": 18.386207, "tags": {"tourism": "viewpoint"}}, {"type": "node", "id": 4677936170, "lat": 47.7053704, "lon": 18.3766406, "tags": {"tourism": "viewpoint"}}, {"type": "node", "id": 4728832233, "lat": 47.5895875, "lon": 18.4072108, "tags": {"tourism": "viewpoint"}}, {"type": "node", "id": 4728832234, "lat": 47.5913102, "lon": 18.4070293, "tags": {"tourism": "viewpoint"}}, {"type": "node", "id": 4798991525, "lat": 47.3566603, "lon": 18.3361148, "tags": {"tourism": "viewpoint"}}, {"type": "node", "id": 5212394221, "lat": 47.3783995, "lon": 18.2419959, "tags": {"tourism": "viewpoint"}}, {"type": "node", "id": 5225328191, "lat": 47.3736666, "lon": 18.3854573, "tags": {"tourism": "viewpoint"}}, {"type": "node", "id": 5324280976, "lat": 47.4802616, "lon": 18.4663761, "tags": {"source": "survey", "survey:date": "2018-01-06", "tourism": "viewpoint"}}, {"type": "node", "id": 5345598235, "lat": 47.3798233, "lon": 18.0305379, "tags": {"tourism": "viewpoint"}}, {"type": "node", "id": 5674802621, "lat": 47.3833434, "lon": 18.4093648, "tags": {"name": "Bauxit b\u00e1nya kil\u00e1t\u00f3 pont", "tourism": "viewpoint"}}, {"type": "node", "id": 6017660049, "lat": 47.7237595, "lon": 18.497738, "tags": {"name": "Melegesi kil\u00e1t\u00f3pont", "tourism": "viewpoint"}}, {"type": "node", "id": 6080129485, "lat": 47.724749, "lon": 18.3790233, "tags": {"name": "Hilltop kil\u00e1t\u00f3", "tourism": "viewpoint"}}, {"type": "node", "id": 6171992759, "lat": 47.4881167, "lon": 18.5289971, "tags": {"direction": "135-270", "tourism": "viewpoint"}}, {"type": "node", "id": 6258710854, "lat": 47.3760001, "lon": 18.3392179, "tags": {"tourism": "viewpoint"}}, {"type": "node", "id": 6373398988, "lat": 47.7006704, "lon": 18.4409764, "tags": {"tourism": "viewpoint"}}, {"type": "node", "id": 6457260418, "lat": 47.6174875, "lon": 18.4565586}, {"type": "node", "id": 6596754865, "lat": 47.442677, "lon": 18.3557228, "tags": {"tourism": "viewpoint"}}, {"type": "node", "id": 6603180549, "lat": 47.6665548, "lon": 18.3068691, "tags": {"tourism": "viewpoint"}}, {"type": "node", "id": 6627799454, "lat": 47.7141717, "lon": 18.5238617, "tags": {"name": "Sz\u00e9p kil\u00e1t\u00e1s", "tourism": "viewpoint"}}, {"type": "node", "id": 6627810849, "lat": 47.7098883, "lon": 18.5055333, "tags": {"name": "Sz\u00e9p kil\u00e1t\u00e1s", "tourism": "viewpoint"}}, {"type": "node", "id": 6681441682, "lat": 47.3768511, "lon": 18.3846706, "tags": {"direction": "45-225", "tourism": "viewpoint"}}, {"type": "node", "id": 6681479596, "lat": 47.3740203, "lon": 18.3850193, "tags": {"direction": "160-290", "tourism": "viewpoint"}}, {"type": "node", "id": 7196195829, "lat": 47.5489835, "lon": 18.453311, "tags": {"source": "survey", "survey:date": "2020-02-08", "tourism": "viewpoint"}}, {"type": "node", "id": 7312264209, "lat": 47.4886181, "lon": 18.4522031}, {"type": "node", "id": 7312264210, "lat": 47.4886157, "lon": 18.4521964}, {"type": "node", "id": 7312264211, "lat": 47.4886118, "lon": 18.4521912}, {"type": "node", "id": 7312264212, "lat": 47.488607, "lon": 18.4521881}, {"type": "node", "id": 7312264213, "lat": 47.4886019, "lon": 18.4521875}, {"type": "node", "id": 7312264214, "lat": 47.4885968, "lon": 18.4521893}, {"type": "node", "id": 7312264215, "lat": 47.4885924, "lon": 18.4521935}, {"type": "node", "id": 7312264216, "lat": 47.4885892, "lon": 18.4521996}, {"type": "node", "id": 7312264217, "lat": 47.4885876, "lon": 18.4522069}, {"type": "node", "id": 7312264218, "lat": 47.4885876, "lon": 18.4522145}, {"type": "node", "id": 7312264219, "lat": 47.4885892, "lon": 18.4522218}, {"type": "node", "id": 7312264220, "lat": 47.4885924, "lon": 18.4522279}, {"type": "node", "id": 7312264221, "lat": 47.4885968, "lon": 18.4522321}, {"type": "node", "id": 7312264222, "lat": 47.4886019, "lon": 18.452234}, {"type": "node", "id": 7312264223, "lat": 47.488607, "lon": 18.4522333}, {"type": "node", "id": 7312264224, "lat": 47.4886118, "lon": 18.4522302}, {"type": "node", "id": 7312264225, "lat": 47.4886157, "lon": 18.452225}, {"type": "node", "id": 7312264226, "lat": 47.4886181, "lon": 18.4522183}, {"type": "node", "id": 7312264227, "lat": 47.488619, "lon": 18.4522107}, {"type": "node", "id": 7395313900, "lat": 47.3626483, "lon": 18.321054, "tags": {"direction": "180-292", "tourism": "viewpoint"}}, {"type": "node", "id": 7554647613, "lat": 47.3867214, "lon": 18.3863727, "tags": {"tourism": "viewpoint"}}, {"type": "node", "id": 7597981605, "lat": 47.4394216, "lon": 18.422471, "tags": {"access": "public", "addr:city": "G\u00e1nt", "addr:country": "HU", "addr:district": "Bicskei J\u00e1r\u00e1s", "addr:hamlet": "V\u00e9rteskozma", "addr:province": "Fej\u00e9r Megye", "alt_name": "H\u00e9tfeny\u0151", "dark_sky": "yes", "description": "6,74 magnit\u00fad\u00f3 az \u00e9gbolt szabad szemes hat\u00e1rf\u00e9nyess\u00e9ge", "direction": "0-360", "ele": "358", "fee": "no", "leisure": "star_gazing", "name": "amat\u0151rcsillag\u00e1sz \u00e9szlel\u0151hely V\u00e9rteskozma (6,9mn darksky)", "ref": "21.47 mag./arc sec2; 6,9 magnit\u00fad\u00f3; Bortle class 4", "surface": "grass", "surveillance": "astronomy", "surveillance:type": "viewpoint", "tourism": "viewpoint", "type": "astronomy", "url": "https://www.lightpollutionmap.info/#zoom=15.11&lat=47.4394&lon=18.4234&layers=0BFFFFFFTFFFFFFFFFF&state=eyJtYXJrZXJzIjp7Im1hcmtlcm15TG9jYXRpb24iOlsyMTM4MjE0LDU5NTkzODhdfX0=", "url:darksky": "fenyszennyezes.hu", "url:egkep": "http://egkep.com/?djvt", "url:mcse": "https://www.mcse.hu/eszlelohelyek/", "website": "http://umap.openstreetmap.fr/hu/map/csillag-terkep_441074#8/47.186/19.303"}}, {"type": "node", "id": 7600554008, "lat": 47.6999505, "lon": 18.3233949, "tags": {"source": "survey", "survey:date": "2020-06-07", "tourism": "viewpoint"}}, {"type": "node", "id": 7687148566, "lat": 47.69922, "lon": 18.4451133, "tags": {"name": "Sz\u00e9p kil\u00e1t\u00e1s", "tourism": "viewpoint"}}, {"type": "node", "id": 8247645334, "lat": 47.5783438, "lon": 18.3985683, "tags": {"direction": "135-315", "tourism": "viewpoint"}}, {"type": "node", "id": 8270413800, "lat": 47.5862849, "lon": 18.4090358, "tags": {"tourism": "viewpoint"}}, {"type": "node", "id": 8306253219, "lat": 47.5078661, "lon": 18.5126883, "tags": {"name": "Sz\u00e9p kil\u00e1t\u00e1s", "tourism": "viewpoint"}}, {"type": "node", "id": 8308706959, "lat": 47.5130638, "lon": 18.5065569, "tags": {"name": "Sz\u00e9p kil\u00e1t\u00e1s", "tourism": "viewpoint"}}, {"type": "node", "id": 8308744783, "lat": 47.514215, "lon": 18.5048008, "tags": {"name": "Sz\u00e9p kil\u00e1t\u00e1s", "tourism": "viewpoint"}}, {"type": "node", "id": 8308756598, "lat": 47.5030897, "lon": 18.5143547, "tags": {"name": "Sz\u00e9p kil\u00e1t\u00e1s", "tourism": "viewpoint"}}, {"type": "node", "id": 8521987583, "lat": 47.6049785, "lon": 18.4716792, "tags": {"tourism": "viewpoint"}}, {"type": "node", "id": 8688086659, "lat": 47.6080353, "lon": 18.4744337, "tags": {"direction": "NE-SSW", "source": "survey", "survey:date": "2021-07-10", "tourism": "viewpoint"}}, {"type": "node", "id": 8688126058, "lat": 47.608278, "lon": 18.4745576, "tags": {"direction": "NE-SSW", "source": "survey", "survey:date": "2021-07-10", "tourism": "viewpoint"}}, {"type": "node", "id": 8747417504, "lat": 47.5044282, "lon": 18.514967, "tags": {"direction": "45", "name": "Sz\u00e9p kil\u00e1t\u00e1s", "tourism": "viewpoint"}}, {"type": "node", "id": 8911668061, "lat": 47.6061328, "lon": 18.4733789, "tags": {"source": "survey", "survey:date": "2021-07-10", "tourism": "viewpoint"}}, {"type": "node", "id": 8911668062, "lat": 47.6058865, "lon": 18.4732886, "tags": {"direction": "NE-SSW", "source": "survey", "survey:date": "2021-07-10", "tourism": "viewpoint"}}, {"type": "node", "id": 9233857520, "lat": 47.6996018, "lon": 18.4908663, "tags": {"tourism": "viewpoint"}}, {"type": "node", "id": 9272780024, "lat": 47.4780065, "lon": 18.4685151, "tags": {"source": "survey", "survey:date": "2021-11-21", "tourism": "viewpoint"}}, {"type": "node", "id": 9590899676, "lat": 47.6174618, "lon": 18.4565114}, {"type": "node", "id": 9590899679, "lat": 47.6174098, "lon": 18.4565656}, {"type": "node", "id": 9590899680, "lat": 47.6174452, "lon": 18.4564808}, {"type": "node", "id": 9605988375, "lat": 47.5902595, "lon": 18.4069976, "tags": {"tourism": "viewpoint"}}, {"type": "node", "id": 10050241552, "lat": 47.3706886, "lon": 18.2519862, "tags": {"source": "survey", "survey:date": "2022-09-24", "tourism": "viewpoint"}}, {"type": "node", "id": 10159474880, "lat": 47.5012041, "lon": 18.2841739, "tags": {"name": "Becs\u00fcletkassz\u00e1s kil\u00e1t\u00f3", "tourism": "viewpoint"}}, {"type": "node", "id": 10245683519, "lat": 47.3552461, "lon": 18.2877329, "tags": {"tourism": "viewpoint"}}, {"type": "way", "id": 302573009, "nodes": [3068220379, 3068220380, 3068220381, 3068220382, 3068220379], "tags": {"amenity": "place_of_worship", "building": "yes", "denomination": "catholic", "description": "A templom elpusztult, csak ez a torony maradt meg", "man_made": "tower", "name": "Nepomuki Szent J\u00e1nos templom tornya", "religion": "christian", "tourism": "viewpoint", "tower:type": "bell_tower", "url": "http://muemlekem.hu/muemlek/show/11935"}}, {"type": "way", "id": 783028056, "nodes": [7312264227, 7312264226, 7312264225, 7312264224, 7312264223, 7312264222, 7312264221, 7312264220, 7312264219, 7312264218, 7312264217, 7312264216, 7312264215, 7312264214, 7312264213, 7312264212, 7312264211, 7312264210, 7312264209, 7312264227], "tags": {"building": "yes", "description": "64-4011 sz\u00e1m\u00fa alapponton \u00e9p\u00fclt vasbeton geod\u00e9ziai m\u00e9r\u0151torony.", "ele": "745", "height": "26", "man_made": "tower", "mapillary": "1153909085106557", "material": "concrete", "name": "K\u00f6rtv\u00e9lyes (m\u00e9r\u0151torony)", "operator": "F\u00f6mi", "start_date": "1984", "structure": "tube", "tourism": "viewpoint", "tower:type": "observation"}}, {"type": "way", "id": 1041810021, "nodes": [6457260418, 9590899676, 9590899680, 9590899679, 6457260418], "tags": {"accuracy": "0.5", "alt_name": "4TON\u00d3 Kil\u00e1t\u00f3", "ele": "310", "height": "12", "man_made": "tower", "name": "V\u00e9rtestolnai kil\u00e1t\u00f3", "source": "survey", "survey:date": "2022-03-19", "tourism": "viewpoint", "tower:construction": "lattice", "tower:type": "observation"}}]}