{"version": 0.6, "generator": "Overpass API 0.7.59 e21c39fe", "osm3s": {"timestamp_osm_base": "2023-03-01T08:42:56Z", "copyright": "The data included in this document is from www.openstreetmap.org. The data is made available under ODbL."}, "elements": [{"type": "node", "id": 1601125698, "lat": 47.582579, "lon": 21.1496676, "tags": {"tourism": "artwork", "wheelchair": "yes"}}, {"type": "node", "id": 2187002426, "lat": 47.6730635, "lon": 21.5067503, "tags": {"artwork_type": "statue", "name": "Bocskai Istv\u00e1n szobra", "tourism": "artwork"}}, {"type": "node", "id": 2514926723, "lat": 47.5324502, "lon": 21.6221052, "tags": {"addr:city": "Debrecen", "addr:street": "D\u00e9ri t\u00e9r", "artist_name": "Medgyessy Ferenc", "artwork_type": "statue", "name": "Debreceni V\u00e9nusz", "tourism": "artwork"}}, {"type": "node", "id": 2514926726, "lat": 47.5324514, "lon": 21.6222334, "tags": {"addr:city": "Debrecen", "addr:street": "D\u00e9ri t\u00e9r", "artist_name": "Medgyessy Ferenc", "artwork_type": "statue", "name": "T\u00e1ncosn\u0151", "tourism": "artwork"}}, {"type": "node", "id": 2514926752, "lat": 47.5327781, "lon": 21.622099, "tags": {"addr:city": "Debrecen", "addr:street": "D\u00e9ri t\u00e9r", "artist_name": "Medgyessy Ferenc", "artwork_type": "statue", "name": "Tudom\u00e1ny", "tourism": "artwork"}}, {"type": "node", "id": 2514926755, "lat": 47.5327781, "lon": 21.6222106, "tags": {"addr:city": "Debrecen", "addr:street": "D\u00e9ri t\u00e9r", "artist_name": "Medgyessy Ferenc", "artwork_type": "statue", "name": "M\u0171v\u00e9szet", "tourism": "artwork"}}, {"type": "node", "id": 2514926758, "lat": 47.5328131, "lon": 21.6219903, "tags": {"addr:city": "Debrecen", "addr:street": "D\u00e9ri t\u00e9r", "artist_name": "Medgyessy Ferenc", "artwork_type": "statue", "name": "R\u00e9g\u00e9szet", "tourism": "artwork"}}, {"type": "node", "id": 2514926761, "lat": 47.5328131, "lon": 21.6223071, "tags": {"addr:city": "Debrecen", "addr:street": "D\u00e9ri t\u00e9r", "artist_name": "Medgyessy Ferenc", "artwork_type": "statue", "name": "N\u00e9prajz", "tourism": "artwork"}}, {"type": "node", "id": 2517799705, "lat": 47.5295262, "lon": 21.6268708, "tags": {"artwork_type": "statue", "tourism": "artwork", "wheelchair": "yes"}}, {"type": "node", "id": 2914199505, "lat": 47.5319573, "lon": 21.6239672, "tags": {"tourism": "artwork"}}, {"type": "node", "id": 2969934885, "lat": 47.540391, "lon": 21.625462, "tags": {"artwork_type": "statue", "tourism": "artwork", "wheelchair": "no"}}, {"type": "node", "id": 3043865298, "lat": 47.5818415, "lon": 21.1499334, "tags": {"name": "H\u00e1rom p\u00e1sztor szobor", "tourism": "artwork", "wheelchair": "no"}}, {"type": "node", "id": 3178854793, "lat": 47.5531076, "lon": 21.6217577, "tags": {"addr:city": "Debrecen", "artwork_type": "statue", "tourism": "artwork", "wheelchair": "no"}}, {"type": "node", "id": 3178890261, "lat": 47.5500145, "lon": 21.6287702, "tags": {"tourism": "artwork", "wheelchair": "no"}}, {"type": "node", "id": 3181173961, "lat": 47.5235314, "lon": 21.6271207, "tags": {"addr:city": "Debrecen", "addr:street": "Pet\u0151fi t\u00e9r", "artwork_type": "statue", "name": "Pet\u0151fi S\u00e1ndor", "tourism": "artwork", "wheelchair": "no"}}, {"type": "node", "id": 3182989267, "lat": 47.5531082, "lon": 21.621429, "tags": {"addr:city": "Debrecen", "artwork_type": "statue", "tourism": "artwork", "wheelchair": "no"}}, {"type": "node", "id": 3183014387, "lat": 47.5525634, "lon": 21.6214263, "tags": {"addr:city": "Debrecen", "artwork_type": "statue", "tourism": "artwork", "wheelchair": "no"}}, {"type": "node", "id": 3183019861, "lat": 47.5528983, "lon": 21.6217375, "tags": {"addr:city": "Debrecen", "artwork_type": "statue", "tourism": "artwork", "wheelchair": "no"}}, {"type": "node", "id": 3183019961, "lat": 47.5529019, "lon": 21.6214451, "tags": {"addr:city": "Debrecen", "artwork_type": "statue", "tourism": "artwork", "wheelchair": "no"}}, {"type": "node", "id": 3183021462, "lat": 47.552567, "lon": 21.621767, "tags": {"addr:city": "Debrecen", "artwork_type": "statue", "tourism": "artwork", "wheelchair": "no"}}, {"type": "node", "id": 3183029361, "lat": 47.5340538, "lon": 21.6260827, "tags": {"addr:city": "Debrecen", "addr:street": "P\u00e9terfia utca", "artwork_type": "statue", "name": "K\u00f6lcsey Ferenc", "tourism": "artwork", "wheelchair": "yes"}}, {"type": "node", "id": 3184115463, "lat": 47.5325453, "lon": 21.6224853, "tags": {"addr:city": "Debrecen", "addr:street": "D\u00e9ri t\u00e9r", "artist_name": "Debreczeni Tivadar", "artwork_type": "statue", "name": "Mereng\u0151", "tourism": "artwork"}}, {"type": "node", "id": 3184401498, "lat": 47.5307253, "lon": 21.6243634, "tags": {"addr:city": "Debrecen", "addr:street": "Piac utca", "name": "F\u0151nix szobor", "tourism": "artwork", "wheelchair": "no"}}, {"type": "node", "id": 3184444962, "lat": 47.534262, "lon": 21.6226575, "tags": {"addr:city": "Debrecen", "tourism": "artwork", "wheelchair": "no"}}, {"type": "node", "id": 3189987615, "lat": 47.5218469, "lon": 21.6240231, "tags": {"artwork_type": "statue", "tourism": "artwork"}}, {"type": "node", "id": 3437026986, "lat": 47.5331776, "lon": 21.6256956, "tags": {"artwork_type": "statue", "memorial": "statue", "name": "Csokonai Vit\u00e9z Mih\u00e1ly", "source": "turistautak.hu", "source:date": "2014-11-08", "tourism": "artwork", "url": "http://turistautak.hu/poi.php?id=22573"}}, {"type": "node", "id": 3479922447, "lat": 47.4495178, "lon": 21.4008613, "tags": {"artwork_type": "statue", "name": "Harangok", "source": "turistautak.hu", "source:date": "2011-05-03", "toilets:wheelchair": "no", "tourism": "artwork", "url": "http://turistautak.hu/poi.php?id=104314", "wheelchair": "yes"}}, {"type": "node", "id": 3873158777, "lat": 47.6725648, "lon": 21.5059658, "tags": {"artist_name": "Kiss Istv\u00e1n", "artwork_type": "statue", "name": "T\u00e1ncol\u00f3 hajd\u00fak", "tourism": "artwork", "wheelchair": "yes"}}, {"type": "node", "id": 3894662870, "lat": 47.5510111, "lon": 21.6308664, "tags": {"artwork_type": "statue", "tourism": "artwork"}}, {"type": "node", "id": 4784747801, "lat": 47.5556783, "lon": 21.6186558, "tags": {"artwork_type": "statue", "name": "Buz\u00e1nszky Jen\u0151", "tourism": "artwork"}}, {"type": "node", "id": 5764526167, "lat": 47.5499782, "lon": 21.6091485, "tags": {"tourism": "artwork"}}, {"type": "node", "id": 5864894207, "lat": 47.6701054, "lon": 21.5106263, "tags": {"artist_name": "G\u00e1ch Istv\u00e1n", "artwork_type": "statue", "description": "G\u00e1ch Istv\u00e1n k\u00e9talakos bronzszobra egy t\u00f6bb mint h\u00e1rom m\u00e9ter magas talapzaton \u00e1ll. A m\u0171v\u00e9sz maga is harcolt a h\u00e1bor\u00faban, \u00e9s csak 1920-ban t\u00e9rt haza a hadifogs\u00e1gb\u00f3l. Az eml\u00e9km\u0171 \u00e1ll\u00edt\u00e1s\u00e1nak gondolata m\u00e1r 1914-ben felmer\u00fclt. (forr\u00e1s: Kotricz T\u00fcnde)", "name": "I. vil\u00e1gh\u00e1bor\u00fas eml\u00e9km\u0171", "tourism": "artwork", "website": "https://www.kozterkep.hu/~/5120/I_vilaghaborus_emlekmu_Hajduboszormeny_1927.html"}}, {"type": "node", "id": 5864897878, "lat": 47.6701123, "lon": 21.5116115, "tags": {"artist_name": "Kosina L\u00e1szl\u00f3", "artwork_type": "statue", "description": "A K\u00e1lvin t\u00e9ri templom k\u00f6zel\u00e9ben kapott helyet Kosina L\u00e1szl\u00f3 \u0150seink c\u00edm\u0171 szobra. 2008 szeptember\u00e9ben d\u00f6nt\u00f6tt \u00fagy a b\u00f6sz\u00f6rm\u00e9nyi k\u00e9pvisel\u0151 test\u00fclet, hogy szobrot \u00e1ll\u00edtanak a hajd\u00fak B\u00f6sz\u00f6rm\u00e9nybe telep\u00edt\u00e9s\u00e9nek 400. \u00e9vfordul\u00f3j\u00e1ra.(forr\u00e1s: Gyurk\u00f3n\u00e9 Edit)", "name": "\u0150seink", "tourism": "artwork"}}, {"type": "node", "id": 6080935574, "lat": 47.4488847, "lon": 21.3996613, "tags": {"artwork_type": "installation", "image": "https://d1cuyjsrcm0gby.cloudfront.net/SKM_eXudzBkB1EvA8io1eQ/thumb-2048.jpg", "mapillary": "376130417067134", "name": "Hajd\u00faszoboszl\u00f3", "tourism": "artwork"}}, {"type": "node", "id": 7429012641, "lat": 47.6735233, "lon": 21.5067707}, {"type": "node", "id": 7429012642, "lat": 47.6735443, "lon": 21.5068126}, {"type": "node", "id": 7429012643, "lat": 47.6733076, "lon": 21.5070725}, {"type": "node", "id": 7429012644, "lat": 47.6732931, "lon": 21.5070217}, {"type": "node", "id": 7429012645, "lat": 47.6729222, "lon": 21.5073452}, {"type": "node", "id": 7429012646, "lat": 47.6729268, "lon": 21.5073362}, {"type": "node", "id": 7429012647, "lat": 47.672933, "lon": 21.5073299}, {"type": "node", "id": 7429012648, "lat": 47.6729634, "lon": 21.5073802}, {"type": "node", "id": 7429012649, "lat": 47.6729581, "lon": 21.5073893}, {"type": "node", "id": 7429012650, "lat": 47.672951, "lon": 21.5073951}, {"type": "node", "id": 7429012651, "lat": 47.6729403, "lon": 21.5073268}, {"type": "node", "id": 7429012652, "lat": 47.6729479, "lon": 21.5073272}, {"type": "node", "id": 7429012653, "lat": 47.6729555, "lon": 21.507332}, {"type": "node", "id": 7429012654, "lat": 47.6729608, "lon": 21.5073383}, {"type": "node", "id": 7429012655, "lat": 47.6729649, "lon": 21.5073477}, {"type": "node", "id": 7429012656, "lat": 47.6729668, "lon": 21.5073586}, {"type": "node", "id": 7429012657, "lat": 47.6729663, "lon": 21.5073698}, {"type": "node", "id": 7429012658, "lat": 47.672943, "lon": 21.5073971}, {"type": "node", "id": 7429012659, "lat": 47.672935, "lon": 21.507395}, {"type": "node", "id": 7429012660, "lat": 47.672928, "lon": 21.507389}, {"type": "node", "id": 7429012661, "lat": 47.6729227, "lon": 21.5073799}, {"type": "node", "id": 7429012662, "lat": 47.6729198, "lon": 21.5073686}, {"type": "node", "id": 7429012663, "lat": 47.6729196, "lon": 21.5073566}, {"type": "node", "id": 7439233071, "lat": 47.5533574, "lon": 21.611843, "tags": {"tourism": "artwork"}}, {"type": "node", "id": 7486585357, "lat": 47.669692, "lon": 21.509277}, {"type": "node", "id": 7486585358, "lat": 47.6697121, "lon": 21.5093351}, {"type": "node", "id": 7486585359, "lat": 47.6697683, "lon": 21.5092924}, {"type": "node", "id": 7486585360, "lat": 47.6697482, "lon": 21.5092342}, {"type": "node", "id": 7486585361, "lat": 47.6700897, "lon": 21.5105869}, {"type": "node", "id": 7486585362, "lat": 47.6700861, "lon": 21.5106509}, {"type": "node", "id": 7486585363, "lat": 47.6701214, "lon": 21.5106552}, {"type": "node", "id": 7486585364, "lat": 47.670125, "lon": 21.5105912}, {"type": "node", "id": 7486585365, "lat": 47.6700952, "lon": 21.5115871}, {"type": "node", "id": 7486585366, "lat": 47.670094, "lon": 21.5116304}, {"type": "node", "id": 7486585367, "lat": 47.670122, "lon": 21.5116321}, {"type": "node", "id": 7486585368, "lat": 47.6701232, "lon": 21.5115888}, {"type": "node", "id": 8063278071, "lat": 47.5524033, "lon": 21.6253502, "tags": {"artwork_type": "statue", "material": "wood", "name": "Vadludak", "tourism": "artwork"}}, {"type": "node", "id": 8063278072, "lat": 47.5526997, "lon": 21.6244654, "tags": {"artwork_type": "statue", "material": "wood", "name": "Lev\u00e9l, rovarok", "tourism": "artwork"}}, {"type": "way", "id": 794298696, "nodes": [7429012641, 7429012642, 7429012643, 7429012644, 7429012641], "tags": {"name": "testv\u00e9rv\u00e1rosok", "tourism": "artwork"}}, {"type": "way", "id": 794298697, "nodes": [7429012658, 7429012659, 7429012660, 7429012661, 7429012662, 7429012663, 7429012645, 7429012646, 7429012647, 7429012651, 7429012652, 7429012653, 7429012654, 7429012655, 7429012656, 7429012657, 7429012648, 7429012649, 7429012650, 7429012658], "tags": {"name": "Hajd\u00fab\u00f6sz\u00f6rm\u00e9ny v\u00e1ros lenyomata", "tourism": "artwork"}}, {"type": "way", "id": 800470661, "nodes": [7486585357, 7486585358, 7486585359, 7486585360, 7486585357], "tags": {"area": "yes", "artwork_type": "statue", "tourism": "artwork"}}, {"type": "way", "id": 800470662, "nodes": [7486585361, 7486585362, 7486585363, 7486585364, 7486585361], "tags": {"area": "yes", "artwork_type": "statue", "tourism": "artwork"}}, {"type": "way", "id": 800470663, "nodes": [7486585365, 7486585366, 7486585367, 7486585368, 7486585365], "tags": {"area": "yes", "artwork_type": "statue", "tourism": "artwork"}}]}