{"version": 0.6, "generator": "Overpass API 0.7.59 e21c39fe", "osm3s": {"timestamp_osm_base": "2023-02-28T18:01:23Z", "copyright": "The data included in this document is from www.openstreetmap.org. The data is made available under ODbL."}, "elements": [{"type": "node", "id": 142270674, "lat": 39.3757487, "lon": 3.2393747, "tags": {"description": "Plataforma de observaci\u00f3n en Cala D", "highway": "turning_circle", "tourism": "viewpoint"}}, {"type": "node", "id": 296901567, "lat": 39.5945515, "lon": 3.087614, "tags": {"tourism": "viewpoint"}}, {"type": "node", "id": 365951178, "lat": 39.604556, "lon": 3.363817, "tags": {"tourism": "viewpoint"}}, {"type": "node", "id": 420433251, "lat": 39.3513581, "lon": 3.1891825, "tags": {"tourism": "viewpoint", "wheelchair": "no"}}, {"type": "node", "id": 600277665, "lat": 39.3138488, "lon": 3.1207393, "tags": {"tourism": "viewpoint"}}, {"type": "node", "id": 678898204, "lat": 39.5165829, "lon": 3.3148361, "tags": {"tourism": "viewpoint", "wheelchair": "no"}}, {"type": "node", "id": 678898257, "lat": 39.5181094, "lon": 3.3166546, "tags": {"tourism": "viewpoint"}}, {"type": "node", "id": 679412355, "lat": 39.5191235, "lon": 2.9292094, "tags": {"tourism": "viewpoint"}}, {"type": "node", "id": 682297706, "lat": 39.4151023, "lon": 3.2672791, "tags": {"name": "mirador de la Cova Foradada", "tourism": "viewpoint"}}, {"type": "node", "id": 682373640, "lat": 39.3511597, "lon": 3.1877062, "tags": {"tourism": "viewpoint"}}, {"type": "node", "id": 841139607, "lat": 39.3259981, "lon": 3.1441947, "tags": {"name": "Mirador des Pont\u00e0s", "name:ca": "Mirador des Pont\u00e0s", "tourism": "viewpoint"}}, {"type": "node", "id": 841161538, "lat": 39.3268687, "lon": 3.1564442, "tags": {"tourism": "viewpoint", "wheelchair": "limited"}}, {"type": "node", "id": 930298015, "lat": 39.5383101, "lon": 3.3396481, "tags": {"name": "Punta des Pagell", "tourism": "viewpoint"}}, {"type": "node", "id": 959465881, "lat": 39.5798378, "lon": 3.3961655}, {"type": "node", "id": 959465884, "lat": 39.5799554, "lon": 3.3961462}, {"type": "node", "id": 959465886, "lat": 39.5799225, "lon": 3.3961152}, {"type": "node", "id": 959465888, "lat": 39.5798854, "lon": 3.3960803}, {"type": "node", "id": 959465890, "lat": 39.5799078, "lon": 3.3962313}, {"type": "node", "id": 1142642172, "lat": 39.5335793, "lon": 3.3372128, "tags": {"tourism": "viewpoint"}}, {"type": "node", "id": 1282042688, "lat": 39.4540966, "lon": 3.1885746, "tags": {"name": "Crist Rei", "name:ca": "Crist Rei", "toilets:wheelchair": "no", "tourism": "viewpoint", "wheelchair": "limited"}}, {"type": "node", "id": 1351154925, "lat": 39.4203316, "lon": 3.27548, "tags": {"tourism": "viewpoint"}}, {"type": "node", "id": 1351154945, "lat": 39.4155742, "lon": 3.2708174, "tags": {"tourism": "viewpoint"}}, {"type": "node", "id": 1351154953, "lat": 39.4284136, "lon": 3.2724494, "tags": {"tourism": "viewpoint"}}, {"type": "node", "id": 1415006811, "lat": 39.3272176, "lon": 3.1503358, "tags": {"tourism": "viewpoint"}}, {"type": "node", "id": 1415006830, "lat": 39.3278815, "lon": 3.1529268, "tags": {"tourism": "viewpoint"}}, {"type": "node", "id": 1639175563, "lat": 39.5948697, "lon": 3.0879155, "tags": {"tourism": "viewpoint"}}, {"type": "node", "id": 1787712729, "lat": 39.3149742, "lon": 3.1275395, "tags": {"designation": "gemauerter Sitzplatz", "tourism": "viewpoint"}}, {"type": "node", "id": 2275806096, "lat": 39.5193903, "lon": 2.9287985, "tags": {"tourism": "viewpoint"}}, {"type": "node", "id": 2442703023, "lat": 39.3897284, "lon": 3.1495149, "tags": {"tourism": "viewpoint"}}, {"type": "node", "id": 2442703134, "lat": 39.3894743, "lon": 3.1487826, "tags": {"tourism": "viewpoint"}}, {"type": "node", "id": 2442958079, "lat": 39.3131673, "lon": 3.1194031, "tags": {"tourism": "viewpoint"}}, {"type": "node", "id": 3384265461, "lat": 39.4345857, "lon": 3.2763802, "tags": {"tourism": "viewpoint"}}, {"type": "node", "id": 3384265466, "lat": 39.4347698, "lon": 3.2765565, "tags": {"tourism": "viewpoint"}}, {"type": "node", "id": 3384265473, "lat": 39.4350037, "lon": 3.2766086, "tags": {"tourism": "viewpoint"}}, {"type": "node", "id": 3680775825, "lat": 39.599157, "lon": 2.9262035, "tags": {"name": "Baixos de Pina", "name:ca": "Baixos de Pina", "tourism": "viewpoint"}}, {"type": "node", "id": 4211513990, "lat": 39.3904177, "lon": 3.2493972, "tags": {"tourism": "viewpoint"}}, {"type": "node", "id": 4212125991, "lat": 39.3126913, "lon": 3.1179106, "tags": {"tourism": "viewpoint"}}, {"type": "node", "id": 4212165589, "lat": 39.3505214, "lon": 3.1909154, "tags": {"tourism": "viewpoint"}}, {"type": "node", "id": 4212165689, "lat": 39.3131798, "lon": 3.122606, "tags": {"tourism": "viewpoint"}}, {"type": "node", "id": 4300591704, "lat": 39.5271434, "lon": 2.9325507, "tags": {"name": "Morro d'en Moll", "tourism": "viewpoint"}}, {"type": "node", "id": 4366226112, "lat": 39.3491869, "lon": 3.187133, "tags": {"tourism": "viewpoint"}}, {"type": "node", "id": 4370948318, "lat": 39.5057417, "lon": 3.2551525, "tags": {"name": "Aquest Angel Proteceix Cas Manescal", "tourism": "viewpoint"}}, {"type": "node", "id": 4788440279, "lat": 39.5936747, "lon": 3.0857979, "tags": {"tourism": "viewpoint"}}, {"type": "node", "id": 5198340522, "lat": 39.344005, "lon": 3.1895068, "tags": {"tourism": "viewpoint"}}, {"type": "node", "id": 5333623026, "lat": 39.3279141, "lon": 3.1453115, "tags": {"name:ru": "\u041f\u0430\u0440\u043a\u043e\u0432\u043a\u0430 \u0434\u043b\u044f \u0430\u0432\u0442\u043e", "tourism": "viewpoint"}}, {"type": "node", "id": 5403453905, "lat": 39.4128229, "lon": 3.2641233, "tags": {"tourism": "viewpoint"}}, {"type": "node", "id": 5633633433, "lat": 39.5687777, "lon": 3.3722659, "tags": {"tourism": "viewpoint"}}, {"type": "node", "id": 5780439809, "lat": 39.3280255, "lon": 3.1736667, "tags": {"tourism": "viewpoint"}}, {"type": "node", "id": 5825543961, "lat": 39.5272963, "lon": 2.9252194, "tags": {"tourism": "viewpoint"}}, {"type": "node", "id": 6539531887, "lat": 39.4556122, "lon": 3.1860024, "tags": {"tourism": "viewpoint"}}, {"type": "node", "id": 6968842885, "lat": 39.3529734, "lon": 2.9726559, "tags": {"name": "Platja des Freu", "name:ca": "Platja des Freu", "tourism": "viewpoint"}}, {"type": "node", "id": 8157891462, "lat": 39.3669143, "lon": 3.2337846, "tags": {"tourism": "viewpoint"}}, {"type": "node", "id": 8157891463, "lat": 39.3668594, "lon": 3.2340001, "tags": {"tourism": "viewpoint"}}, {"type": "node", "id": 8157891464, "lat": 39.3666944, "lon": 3.233935, "tags": {"tourism": "viewpoint"}}, {"type": "node", "id": 9000982618, "lat": 39.5819849, "lon": 3.4005252, "tags": {"tourism": "viewpoint"}}, {"type": "node", "id": 9064058871, "lat": 39.3313257, "lon": 3.1702832, "tags": {"tourism": "viewpoint"}}, {"type": "node", "id": 9550689642, "lat": 39.3294344, "lon": 3.1724337, "tags": {"tourism": "viewpoint"}}, {"type": "node", "id": 9952459930, "lat": 39.4575099, "lon": 3.1847411, "tags": {"tourism": "viewpoint"}}, {"type": "node", "id": 10303338077, "lat": 39.5173024, "lon": 2.9176766, "tags": {"tourism": "viewpoint"}}, {"type": "node", "id": 10303338085, "lat": 39.5273027, "lon": 2.9285861, "tags": {"tourism": "viewpoint"}}, {"type": "way", "id": 82427806, "nodes": [959465888, 959465886, 959465884, 959465890, 959465881, 959465888], "tags": {"building": "yes", "fee": "no", "historic": "castle", "name": "Castell de la Punta de n'Amer", "name:ca": "Castell de la Punta de n'Amer", "tourism": "viewpoint", "wheelchair": "limited", "wikidata": "Q1048680", "wikipedia": "ca:Castell de la Punta de n'Amer"}}]}