{"version": 0.6, "generator": "Overpass API 0.7.59 e21c39fe", "osm3s": {"timestamp_osm_base": "2023-03-01T09:12:24Z", "copyright": "The data included in this document is from www.openstreetmap.org. The data is made available under ODbL."}, "elements": [{"type": "node", "id": 1085803923, "lat": 45.9907361, "lon": 18.6908238, "tags": {"tourism": "museum"}}, {"type": "node", "id": 1204463936, "lat": 45.9497019, "lon": 18.7106452, "tags": {"contact:phone": "+36 69 384 208", "fee": "yes", "name": "Feh\u00e9r G\u00f3lya M\u00fazeum", "opening_hours": "Sep-Apr: Tu-Sa 10:00-16:00; May-Aug: Tu-Su 08:00-16:00", "tourism": "museum", "website": "http://www.fehergolyamuzeum.hu/"}}, {"type": "node", "id": 1377307746, "lat": 45.9440205, "lon": 18.8939534, "tags": {"name": "Karapancsa szivatty\u00fatelep", "tourism": "museum"}}, {"type": "node", "id": 2989293767, "lat": 46.0391143, "lon": 19.033478}, {"type": "node", "id": 2989293768, "lat": 46.0391524, "lon": 19.0335891}, {"type": "node", "id": 2989293769, "lat": 46.0392329, "lon": 19.0333937}, {"type": "node", "id": 2989293770, "lat": 46.0392709, "lon": 19.0335048}, {"type": "node", "id": 3004785420, "lat": 45.9426509, "lon": 18.8656901}, {"type": "node", "id": 3004785421, "lat": 45.9426832, "lon": 18.8654787}, {"type": "node", "id": 3004785422, "lat": 45.9427546, "lon": 18.8657228}, {"type": "node", "id": 3004785423, "lat": 45.9427624, "lon": 18.8656717}, {"type": "node", "id": 3004785424, "lat": 45.9427808, "lon": 18.8655539}, {"type": "node", "id": 3004785425, "lat": 45.9427825, "lon": 18.8656781}, {"type": "node", "id": 3004785426, "lat": 45.9427873, "lon": 18.8655115}, {"type": "node", "id": 3004785427, "lat": 45.9428005, "lon": 18.8655602}, {"type": "node", "id": 3004846644, "lat": 45.9913168, "lon": 18.6879247, "tags": {"addr:city": "Moh\u00e1cs", "addr:country": "HU", "addr:housenumber": "17-19", "addr:postcode": "7700", "addr:street": "E\u00f6tv\u00f6s utca", "email": "busoudvar@gmail.com", "name": "Bus\u00f3udvar M\u00fazeum", "phone": "+36 20 222 9339", "tourism": "museum"}}, {"type": "node", "id": 3052574419, "lat": 46.1242235, "lon": 19.1604336, "tags": {"addr:city": "B\u00e1csbokod", "addr:housenumber": "3", "addr:postcode": "6453", "addr:street": "H\u0151s\u00f6k tere", "name": "Falum\u00fazeum", "tourism": "museum"}}, {"type": "node", "id": 3122075913, "lat": 45.8506688, "lon": 18.8609658}, {"type": "node", "id": 3122075914, "lat": 45.8505216, "lon": 18.8610362}, {"type": "node", "id": 3122075915, "lat": 45.8504861, "lon": 18.8610159}, {"type": "node", "id": 3122075916, "lat": 45.8504816, "lon": 18.8610332}, {"type": "node", "id": 3122075917, "lat": 45.8505148, "lon": 18.8610524}, {"type": "node", "id": 3122075918, "lat": 45.85051, "lon": 18.8610724}, {"type": "node", "id": 3122075919, "lat": 45.8504768, "lon": 18.8610576}, {"type": "node", "id": 3122075920, "lat": 45.8504723, "lon": 18.8610749}, {"type": "node", "id": 3122075921, "lat": 45.8505062, "lon": 18.8610922}, {"type": "node", "id": 3122075922, "lat": 45.8505506, "lon": 18.8613104}, {"type": "node", "id": 3122075923, "lat": 45.8505385, "lon": 18.861362}, {"type": "node", "id": 3122075924, "lat": 45.8505495, "lon": 18.8613671}, {"type": "node", "id": 3122075925, "lat": 45.8505611, "lon": 18.8613183}, {"type": "node", "id": 3122075926, "lat": 45.8505772, "lon": 18.8613265}, {"type": "node", "id": 3122075927, "lat": 45.8505647, "lon": 18.8613742}, {"type": "node", "id": 3122075928, "lat": 45.8505771, "lon": 18.8613798}, {"type": "node", "id": 3122077329, "lat": 45.8505889, "lon": 18.8613359}, {"type": "node", "id": 3122077330, "lat": 45.8507477, "lon": 18.8612662}, {"type": "node", "id": 3122077331, "lat": 45.8507792, "lon": 18.8612837}, {"type": "node", "id": 3122077332, "lat": 45.8507841, "lon": 18.8612679}, {"type": "node", "id": 3122077333, "lat": 45.8507526, "lon": 18.8612438}, {"type": "node", "id": 3122077334, "lat": 45.8507579, "lon": 18.8612248}, {"type": "node", "id": 3122077335, "lat": 45.8507893, "lon": 18.8612472}, {"type": "node", "id": 3122077336, "lat": 45.8507944, "lon": 18.8612313}, {"type": "node", "id": 3122077337, "lat": 45.8507538, "lon": 18.8611944}, {"type": "node", "id": 3122077338, "lat": 45.8507061, "lon": 18.8610053}, {"type": "node", "id": 3122077339, "lat": 45.850722, "lon": 18.860951}, {"type": "node", "id": 3122077340, "lat": 45.8507108, "lon": 18.8609423}, {"type": "node", "id": 3122077341, "lat": 45.8506982, "lon": 18.8609808}, {"type": "node", "id": 3122077342, "lat": 45.8506843, "lon": 18.8609715}, {"type": "node", "id": 3122077343, "lat": 45.8506979, "lon": 18.8609303}, {"type": "node", "id": 3122077345, "lat": 45.8506846, "lon": 18.8609193}, {"type": "node", "id": 3156434823, "lat": 46.0408671, "lon": 18.6769457}, {"type": "node", "id": 3156434824, "lat": 46.0409413, "lon": 18.6768776}, {"type": "node", "id": 3156434825, "lat": 46.0409792, "lon": 18.6771991}, {"type": "node", "id": 3156434827, "lat": 46.0410534, "lon": 18.6771311}, {"type": "node", "id": 3158215298, "lat": 45.9935615, "lon": 18.6917134}, {"type": "node", "id": 3158215300, "lat": 45.9935816, "lon": 18.6917942}, {"type": "node", "id": 3158215308, "lat": 45.9937283, "lon": 18.6917227}, {"type": "node", "id": 3158215310, "lat": 45.9937308, "lon": 18.6917735}, {"type": "node", "id": 3158215312, "lat": 45.993734, "lon": 18.6918831}, {"type": "node", "id": 3158215314, "lat": 45.9937396, "lon": 18.6917677}, {"type": "node", "id": 3158215318, "lat": 45.9937668, "lon": 18.6918704}, {"type": "node", "id": 3158215320, "lat": 45.9937685, "lon": 18.6919351}, {"type": "node", "id": 3158215324, "lat": 45.9937781, "lon": 18.6920297}, {"type": "node", "id": 3158215325, "lat": 45.9937805, "lon": 18.6919293}, {"type": "node", "id": 3158215327, "lat": 45.9937925, "lon": 18.6920217}, {"type": "node", "id": 3158215328, "lat": 45.9937965, "lon": 18.6923726}, {"type": "node", "id": 3158215331, "lat": 45.9938013, "lon": 18.6920909}, {"type": "node", "id": 3158215334, "lat": 45.9938086, "lon": 18.6920782}, {"type": "node", "id": 3158215335, "lat": 45.9938102, "lon": 18.6915934}, {"type": "node", "id": 3158215338, "lat": 45.99383, "lon": 18.6921819}, {"type": "node", "id": 3158215340, "lat": 45.9938414, "lon": 18.6921647}, {"type": "node", "id": 3158215341, "lat": 45.9938532, "lon": 18.692222}, {"type": "node", "id": 3158215342, "lat": 45.9938591, "lon": 18.6925192}, {"type": "node", "id": 3158215345, "lat": 45.9939553, "lon": 18.6921233}, {"type": "node", "id": 3158215346, "lat": 45.9939617, "lon": 18.6921129}, {"type": "node", "id": 3158215347, "lat": 45.9940179, "lon": 18.6922318}, {"type": "node", "id": 3462181538, "lat": 46.125252, "lon": 18.766883, "tags": {"name": "T\u00e1jh\u00e1z", "source": "turistautak.hu", "source:date": "2011-09-08", "tourism": "museum", "url": "http://turistautak.hu/poi.php?id=36862"}}, {"type": "node", "id": 3464291494, "lat": 46.084167, "lon": 18.760383, "tags": {"description": "Helyt\u00f6rt\u00e9neti m\u00fazeum.", "name": "Helyt\u00f6rt\u00e9neti M\u00fazeum", "source": "turistautak.hu", "source:date": "2011-09-08", "tourism": "museum", "url": "http://turistautak.hu/poi.php?id=1296"}}, {"type": "node", "id": 3464291538, "lat": 45.993783, "lon": 18.679433, "tags": {"description": "Innen indul a moh\u00e1csi b\u00fas\u00f3j\u00e1r\u00e1s felvonul\u00e1sa. A maskar\u00e1kat - amikor nincsenek haszn\u00e1latban - b\u00e1rki megn\u00e9zheti.", "name": "Moh\u00e1csi Bus\u00f3 Klub (Bus\u00f3 M\u00fazeum)", "source": "turistautak.hu", "source:date": "2013-09-17", "tourism": "museum", "url": "http://turistautak.hu/poi.php?id=84780"}}, {"type": "node", "id": 3487697991, "lat": 46.143017, "lon": 18.8794829, "tags": {"name": "Falum\u00fazeum", "source": "turistautak.hu", "source:date": "2011-05-24", "tourism": "museum", "url": "http://turistautak.hu/poi.php?id=118738"}}, {"type": "node", "id": 3802010918, "lat": 45.8542398, "lon": 18.8476884}, {"type": "node", "id": 3802010939, "lat": 45.8543114, "lon": 18.847827}, {"type": "node", "id": 3802010940, "lat": 45.8542676, "lon": 18.8477165}, {"type": "node", "id": 3802010941, "lat": 45.854255, "lon": 18.8477268}, {"type": "node", "id": 3802010942, "lat": 45.8541782, "lon": 18.8477388}, {"type": "node", "id": 3802010943, "lat": 45.8542372, "lon": 18.8478877}, {"type": "node", "id": 5233546685, "lat": 45.9421953, "lon": 18.646716}, {"type": "node", "id": 5233546686, "lat": 45.94224, "lon": 18.6471237}, {"type": "node", "id": 5233546687, "lat": 45.9425314, "lon": 18.6470575}, {"type": "node", "id": 5233546688, "lat": 45.9424867, "lon": 18.6466498}, {"type": "node", "id": 6331789546, "lat": 46.1202646, "lon": 18.6420578, "tags": {"name": "Bukovinai sz\u00e9kely t\u00e1jh\u00e1z", "tourism": "museum"}}, {"type": "node", "id": 7795117011, "lat": 46.1295294, "lon": 18.7904102, "tags": {"addr:city": "B\u00e1ta", "addr:housenumber": "275", "addr:postcode": "7149", "addr:street": "F\u0151 utca", "museum": "art", "name": "Husz\u00e1kn\u00e9 Czencz Marietta eml\u00e9kszoba", "opening_hours": "Turista inform\u00e1ci\u00f3 F\u0151 utca 159. alatt", "tourism": "museum"}}, {"type": "node", "id": 7795117012, "lat": 46.1294898, "lon": 18.7905088, "tags": {"addr:city": "B\u00e1ta", "addr:housenumber": "275", "addr:postcode": "7149", "addr:street": "F\u0151 utca", "museum": "art", "name": "Czencz J\u00e1nos Eml\u00e9km\u00fazeum", "opening_hours": "Turista inform\u00e1ci\u00f3 F\u0151 utca 159. alatt", "tourism": "museum"}}, {"type": "node", "id": 7803465366, "lat": 46.1287179, "lon": 18.7911077}, {"type": "node", "id": 7803465367, "lat": 46.128753, "lon": 18.7911537}, {"type": "node", "id": 7803465368, "lat": 46.1287798, "lon": 18.7910094}, {"type": "node", "id": 7803465369, "lat": 46.1286827, "lon": 18.7912654}, {"type": "node", "id": 7803465370, "lat": 46.1287516, "lon": 18.7913557}, {"type": "node", "id": 7803465371, "lat": 46.1288838, "lon": 18.7911456}, {"type": "node", "id": 9177110635, "lat": 45.8439008, "lon": 18.9420154, "tags": {"addr:city": "Bezdan", "addr:housenumber": "bb", "addr:postcode": "21000", "addr:street": "\u0421\u043e\u043c\u0431\u043e\u0440\u0441\u043a\u0438 \u043f\u0443\u0442", "description": "Museum of perfume bottles", "email": "muzej.parfemskih.bocica.pudar@gmail.com", "museum": "person", "name": "Muzej parfemskih bo\u010dica Pudar", "tourism": "museum", "wikidata": "Q97192850", "wikipedia": "sr:Muzej parfemskih bo\u010dica Pudar"}}, {"type": "way", "id": 295224182, "nodes": [2989293769, 2989293770, 2989293768, 2989293767, 2989293769], "tags": {"addr:city": "Gara", "addr:housenumber": "18", "addr:postcode": "6522", "addr:street": "Kossuth Lajos utca", "building": "yes", "name": "Falum\u00fazeum", "tourism": "museum"}}, {"type": "way", "id": 296669462, "nodes": [3004785421, 3004785420, 3004785422, 3004785423, 3004785425, 3004785427, 3004785424, 3004785426, 3004785421], "tags": {"building": "yes", "historic": "castle", "name": "Kiskast\u00e9ly", "start_date": "1891", "tourism": "museum"}}, {"type": "way", "id": 307146959, "nodes": [3122077345, 3122075913, 3122075914, 3122075915, 3122075916, 3122075917, 3122075918, 3122075919, 3122075920, 3122075921, 3122075922, 3122075923, 3122075924, 3122075925, 3122075926, 3122075927, 3122075928, 3122077329, 3122077330, 3122077331, 3122077332, 3122077333, 3122077334, 3122077335, 3122077336, 3122077337, 3122077338, 3122077339, 3122077340, 3122077341, 3122077342, 3122077343, 3122077345], "tags": {"building": "yes", "name": "M\u0443\u0437\u0435\u0458 \u0411\u0430\u0442\u0438\u043d\u0441\u043a\u0435 \u0431\u0438\u0442\u043a\u0435", "name:en": "Museum of the Batina Battle WW2", "name:sr-Latn": "Muzej Batinske bitke", "tourism": "museum"}}, {"type": "way", "id": 310246302, "nodes": [3156434825, 3156434823, 3156434824, 3156434827, 3156434825], "tags": {"building": "yes", "historic": "yes", "man_made": "watermill", "name": "Szent Mikl\u00f3s v\u00edzimalom", "tourism": "museum"}}, {"type": "way", "id": 310401036, "nodes": [3158215342, 3158215347, 3158215346, 3158215345, 3158215335, 3158215298, 3158215300, 3158215308, 3158215314, 3158215310, 3158215312, 3158215318, 3158215325, 3158215320, 3158215324, 3158215327, 3158215334, 3158215331, 3158215338, 3158215340, 3158215341, 3158215328, 3158215342], "tags": {"addr:city": "Moh\u00e1cs", "addr:country": "HU", "addr:housenumber": "9", "addr:postcode": "7700", "addr:street": "Kisfaludy utca", "alt_name": "Kanizsai Dorottya N\u00e9prajzi \u00e9s Helyt\u00f6rt\u00e9neti M\u00fazeum", "building": "yes", "name": "Kanizsai Dorottya M\u00fazeum", "tourism": "museum"}}, {"type": "way", "id": 376818189, "nodes": [3802010939, 3802010940, 3802010941, 3802010918, 3802010942, 3802010943, 3802010939], "tags": {"addr:city": "Batina", "addr:housenumber": "67a", "addr:postcode": "31306", "addr:street": "Planina istok", "building": "yes", "name": "Spomen soba Batinska bitka", "tourism": "museum"}}, {"type": "way", "id": 541162756, "nodes": [5233546688, 5233546687, 5233546686, 5233546685, 5233546688], "tags": {"addr:city": "Moh\u00e1cs-S\u00e1torhely", "addr:country": "HU", "addr:postcode": "7785", "addr:province": "Baranya Megye", "architect": "Vad\u00e1sz Gy\u00f6rgy", "architect:wikipedia": "hu:Vad\u00e1sz Gy\u00f6rgy", "building": "public", "email": "info@mohacsiemlekhely.hu", "name": "Moh\u00e1csi Nemzeti Eml\u00e9khely", "operator": "Duna-Dr\u00e1va Nemzeti Park Igazgat\u00f3s\u00e1g", "phone": "+36 69 382 130", "tourism": "museum", "url": "http://www.mohacs.hu/hu/info/emlekhely/tortenelmi_emlekhely.html", "website": "http://www.mohacsiemlekhely.hu/"}}, {"type": "way", "id": 836052801, "nodes": [7803465371, 7803465370, 7803465369, 7803465367, 7803465366, 7803465368, 7803465371], "tags": {"building": "yes", "name": "Fekete G\u00f3lya H\u00e1z", "tourism": "museum"}}]}