{"version": 0.6, "generator": "Overpass API 0.7.59 e21c39fe", "osm3s": {"timestamp_osm_base": "2023-03-01T08:52:03Z", "copyright": "The data included in this document is from www.openstreetmap.org. The data is made available under ODbL."}, "elements": [{"type": "node", "id": 1485961186, "lat": 47.0283104, "lon": 18.0154444}, {"type": "node", "id": 1485961211, "lat": 47.0284912, "lon": 18.0153578}, {"type": "node", "id": 1878357569, "lat": 47.0282206, "lon": 18.0154863}, {"type": "node", "id": 1878357586, "lat": 47.0288692, "lon": 18.01519}, {"type": "node", "id": 1920354055, "lat": 47.2007569, "lon": 18.1410402}, {"type": "node", "id": 1920354133, "lat": 47.2006903, "lon": 18.1408637}, {"type": "node", "id": 1920354139, "lat": 47.2005172, "lon": 18.141236}, {"type": "node", "id": 1920354160, "lat": 47.2004506, "lon": 18.1410595}, {"type": "node", "id": 2989910340, "lat": 46.9931334, "lon": 17.9581572}, {"type": "node", "id": 2989910357, "lat": 46.9931912, "lon": 17.9583404}, {"type": "node", "id": 2989910360, "lat": 46.9932152, "lon": 17.9581018}, {"type": "node", "id": 2989910374, "lat": 46.9932729, "lon": 17.958285}, {"type": "node", "id": 3731489520, "lat": 47.0278287, "lon": 18.0183727, "tags": {"name": "Szoborpark", "tourism": "gallery"}}, {"type": "node", "id": 4126600452, "lat": 47.1939975, "lon": 18.409414, "tags": {"name": "K\u00e9pcsarnok", "tourism": "gallery"}}, {"type": "node", "id": 4170281669, "lat": 47.192721, "lon": 18.4079557, "tags": {"addr:city": "Sz\u00e9kesfeh\u00e9rv\u00e1r", "addr:housenumber": "1", "addr:postcode": "8000", "addr:street": "Bart\u00f3k B\u00e9la t\u00e9r", "name": "Cs\u00f3k Istv\u00e1n K\u00e9pt\u00e1r", "tourism": "gallery"}}, {"type": "node", "id": 6536758081, "lat": 47.0282297, "lon": 18.0154821}, {"type": "way", "id": 177385958, "nodes": [6536758081, 1485961186, 1485961211, 1878357586], "tags": {"fee": "no", "highway": "footway", "inscription": "1975", "layer": "-1", "lit": "yes", "name": "Vas\u00fatARTj\u00e1r\u00f3", "opening_hours": "24/7", "start_date": "1975", "surface": "concrete", "tourism": "gallery", "tunnel": "yes"}}, {"type": "way", "id": 181623477, "nodes": [1920354139, 1920354160, 1920354133, 1920354055, 1920354139], "tags": {"addr:city": "V\u00e1rpalota", "addr:housenumber": "3", "addr:postcode": "8100", "addr:street": "Szent Istv\u00e1n \u00fatja", "building": "synagogue", "name": "Nagy Gyula Gal\u00e9ria", "note": "Az egykori zsinag\u00f3ga \u00e9p\u00fclete", "tourism": "gallery"}}, {"type": "way", "id": 295286913, "nodes": [2989910374, 2989910357, 2989910340, 2989910360, 2989910374], "tags": {"addr:city": "Lovas", "addr:country": "HU", "addr:housenumber": "12", "addr:postcode": "8228", "addr:street": "F\u0151 utca", "building": "yes", "name": "Lovasi Nagy Gyula Gal\u00e9ria", "opening_hours": "Sa-Su 14:00-17:00", "source": "survey", "tourism": "gallery"}}, {"type": "way", "id": 696116328, "nodes": [1878357569, 6536758081], "tags": {"fee": "no", "highway": "footway", "layer": "-1", "lit": "yes", "name": "Vas\u00fatARTj\u00e1r\u00f3", "opening_hours": "24/7", "surface": "concrete", "tourism": "gallery", "tunnel": "no"}}]}