{"version": 0.6, "generator": "Overpass API 0.7.59 e21c39fe", "osm3s": {"timestamp_osm_base": "2023-03-01T09:21:26Z", "copyright": "The data included in this document is from www.openstreetmap.org. The data is made available under ODbL."}, "elements": [{"type": "node", "id": 1350159661, "lat": 47.5918682, "lon": 17.3503187, "tags": {"name": "Falum\u00fazeum", "tourism": "museum"}}, {"type": "node", "id": 1836942776, "lat": 47.6886979, "lon": 17.6319425, "tags": {"name": "Borsos Mikl\u00f3s Eml\u00e9kh\u00e1z", "name:en": "Borsos Mikl\u00f3s Memorial House", "tourism": "museum"}}, {"type": "node", "id": 2212017925, "lat": 47.6904076, "lon": 17.6396136}, {"type": "node", "id": 2959967747, "lat": 47.4647689, "lon": 17.4922109}, {"type": "node", "id": 2959967748, "lat": 47.4647784, "lon": 17.4923875}, {"type": "node", "id": 2959967749, "lat": 47.4647281, "lon": 17.4923934}, {"type": "node", "id": 2959967750, "lat": 47.4647186, "lon": 17.4922169}, {"type": "node", "id": 2986901064, "lat": 47.3560293, "lon": 17.884659}, {"type": "node", "id": 2986901067, "lat": 47.3560321, "lon": 17.8843117}, {"type": "node", "id": 2986901078, "lat": 47.3560892, "lon": 17.88466}, {"type": "node", "id": 2986901079, "lat": 47.356092, "lon": 17.8843128}, {"type": "node", "id": 2995091567, "lat": 47.6877317, "lon": 17.6342405, "tags": {"addr:city": "Gy\u0151r", "addr:housenumber": "9", "addr:postcode": "9022", "addr:street": "Sz\u00e9chenyi t\u00e9r", "name": "Sz\u00e9ch\u00e9nyi Patikam\u00fazeum", "phone": "+36 96 550 348", "tourism": "museum", "website": "http://www.bencespatika.hu/", "wikidata": "Q1301890", "wikipedia": "hu:Sz\u00e9ch\u00e9nyi Patikam\u00fazeum"}}, {"type": "node", "id": 3006920251, "lat": 47.4543549, "lon": 17.3122845}, {"type": "node", "id": 3006920263, "lat": 47.4543918, "lon": 17.3124234}, {"type": "node", "id": 3006920282, "lat": 47.454514, "lon": 17.3121921}, {"type": "node", "id": 3006920291, "lat": 47.4545509, "lon": 17.312331}, {"type": "node", "id": 3328439903, "lat": 47.38594, "lon": 17.5970904, "tags": {"artist_name": "Fellner Jakab szobr\u00e1sz", "historic": "memorial", "inscription": "E h\u00e1zban sz\u00fcletett VAJDA P\u00c9TER a term\u00e9szet \u00e9s f\u00fcggetlens\u00e9g dalnoka 1808. janu\u00e1r 20-\u00e1n. Eml\u00e9k\u00e9nek a P\u00e1pai J\u00f3kai K\u00f6r 1898.", "material": "stone", "memorial": "plaque", "name": "Vajda P\u00e9ter k\u00f6lt\u0151 sz\u00fcl\u0151h\u00e1za", "start_date": "1898"}}, {"type": "node", "id": 3328440561, "lat": 47.3859062, "lon": 17.597049}, {"type": "node", "id": 3328440562, "lat": 47.3859586, "lon": 17.597113}, {"type": "node", "id": 3328440563, "lat": 47.3860359, "lon": 17.5968173}, {"type": "node", "id": 3328440564, "lat": 47.3860883, "lon": 17.5968813}, {"type": "node", "id": 3441412032, "lat": 47.535545, "lon": 17.639947, "tags": {"fixme": "resurvey (source was old)", "name": "T\u00e1jh\u00e1z", "source": "turistautak.hu", "source:date": "2008-09-14", "tourism": "museum", "url": "http://turistautak.hu/poi.php?id=55011"}}, {"type": "node", "id": 3458274148, "lat": 47.3283884, "lon": 17.4697579, "tags": {"addr:city": "P\u00e1pa", "addr:housenumber": "12", "addr:postcode": "8500", "addr:street": "M\u00e1rcius 15. t\u00e9r", "contact:email": "kekfesto.papa@museum.hu", "contact:phone": "+36 89 324 390", "contact:website": "http://www.kekfestomuzeum.hu/", "dog": "yes", "mapillary": "1593013094236253", "name": "K\u00e9kfest\u0151 M\u00fazeum", "name:en": "Blue Dye Museum", "note": "Indigoprint Museum", "source": "turistautak.hu", "source:date": "2010-01-18", "tourism": "museum", "url": "http://turistautak.hu/poi.php?id=12682"}}, {"type": "node", "id": 3458274339, "lat": 47.329223, "lon": 17.465333, "tags": {"name": "Pet\u0151fi H\u00e1z", "source": "turistautak.hu", "source:date": "2010-05-05", "tourism": "museum", "url": "http://turistautak.hu/poi.php?id=12685"}}, {"type": "node", "id": 3458274493, "lat": 47.412725, "lon": 17.734553, "tags": {"description": "Jelenleg Evang\u00e9likus Gy\u00fclekezeti H\u00e1z - Tatay S\u00e1ndor 1910-1991.", "name": "Tatay S\u00e1ndor \u00edr\u00f3 sz\u00fcl\u0151h\u00e1za", "source": "turistautak.hu", "source:date": "2012-03-29", "tourism": "museum", "url": "http://turistautak.hu/poi.php?id=103254"}}, {"type": "node", "id": 3458274513, "lat": 47.3306829, "lon": 17.4651287, "tags": {"name": "Zichy H\u00e1z", "source": "turistautak.hu", "source:date": "2013-09-17", "tourism": "museum", "url": "http://turistautak.hu/poi.php?id=12684"}}, {"type": "node", "id": 3465105379, "lat": 47.5518679, "lon": 17.76766, "tags": {"name": "Illatm\u00fazeum", "source": "turistautak.hu", "source:date": "2015-01-30", "tourism": "museum", "url": "http://turistautak.hu/poi.php?id=164216"}}, {"type": "node", "id": 3471727201, "lat": 47.57721, "lon": 17.429381, "tags": {"fixme": "resurvey (source was old)", "name": "Falum\u00fazeum", "source": "turistautak.hu", "source:date": "2008-12-15", "tourism": "museum", "url": "http://turistautak.hu/poi.php?id=56278"}}, {"type": "node", "id": 3471727264, "lat": 47.5275477, "lon": 17.5948549, "tags": {"name": "T\u00e1jh\u00e1z", "tourism": "museum"}}, {"type": "node", "id": 3473676732, "lat": 47.6877618, "lon": 17.6309474, "tags": {"name": "Lapidarium - Xantus J\u00e1nos M\u00fazeum", "tourism": "museum"}}, {"type": "node", "id": 3473677638, "lat": 47.6887696, "lon": 17.6345472, "tags": {"addr:city": "Gy\u0151r", "addr:conscriptionnumber": "6870", "addr:housenumber": "5", "addr:postcode": "9022", "addr:street": "Sz\u00e9chenyi t\u00e9r", "contact:email": "xantus@gymsmuzeum.hu", "contact:fax": "+36 96 310 731", "contact:phone": "+36 96 310 588", "description": "Xantus J\u00e1nos Henry-karab\u00e9lya (Old Schatterhand)", "name": "Xantus J\u00e1nos M\u00fazeum", "opening_hours": "closed", "source": "turistautak.hu", "source:date": "2011-11-18", "tourism": "museum", "url": "http://turistautak.hu/poi.php?id=30946", "url:2": "http://romer.hu/latogatoinknak/kiallitohelyeink/", "website": "http://www.museum.hu/muzeum/337/Romer_Floris_Muveszeti_es_Torteneti_Muzeum_-_Apatur-haz/info", "wikidata": "Q1465975", "wikipedia": "hu:X\u00e1ntus J\u00e1nos M\u00fazeum"}}, {"type": "node", "id": 3764151120, "lat": 47.6888675, "lon": 17.6358817, "tags": {"addr:city": "Gy\u0151r", "addr:housenumber": "3", "addr:postcode": "9022", "addr:street": "Nefelejcs utca", "name": "Magyar Ispita : V\u00e1czy P\u00e9ter-gy\u0171jtem\u00e9ny", "note": "http://romer.hu/latogatoinknak/kiallitohelyeink/", "tourism": "museum", "wheelchair": "no"}}, {"type": "node", "id": 3979418566, "lat": 47.7015281, "lon": 17.7369083}, {"type": "node", "id": 3979418567, "lat": 47.7013764, "lon": 17.736645}, {"type": "node", "id": 3979418568, "lat": 47.7013317, "lon": 17.7367001}, {"type": "node", "id": 3979418569, "lat": 47.7014887, "lon": 17.7369628}, {"type": "node", "id": 4135368889, "lat": 47.3284259, "lon": 17.4697072, "tags": {"name": "Papa", "tourism": "museum"}}, {"type": "node", "id": 4936445321, "lat": 47.6903151, "lon": 17.6400967}, {"type": "node", "id": 4936445326, "lat": 47.6902024, "lon": 17.6397723}, {"type": "node", "id": 4936445334, "lat": 47.6903579, "lon": 17.6399729}, {"type": "node", "id": 4936445339, "lat": 47.6902712, "lon": 17.6397191}, {"type": "node", "id": 4936445349, "lat": 47.6903738, "lon": 17.6400508}, {"type": "node", "id": 4936445367, "lat": 47.6905205, "lon": 17.639936}, {"type": "node", "id": 4936445375, "lat": 47.6904207, "lon": 17.6399262}, {"type": "node", "id": 4936445384, "lat": 47.6903344, "lon": 17.639671}, {"type": "node", "id": 5382929876, "lat": 47.5926269, "lon": 17.3506397, "tags": {"addr:city": "B\u00e1gyogszov\u00e1t", "addr:housenumber": "94", "addr:postcode": "9145", "addr:street": "Szabads\u00e1g utca", "name": "T\u00e1jh\u00e1z", "phone": "+36 20 488 0521", "tourism": "museum"}}, {"type": "node", "id": 5784910654, "lat": 47.68895, "lon": 17.6299353, "tags": {"fee": "no", "name": "Apor Vilmos ki\u00e1ll\u00edt\u00e1s", "tourism": "museum"}}, {"type": "node", "id": 5789570805, "lat": 47.5490348, "lon": 17.7558974, "tags": {"name": "Ap\u00e1ts\u00e1gi M\u00fazeum", "tourism": "museum"}}, {"type": "node", "id": 6359204125, "lat": 47.5144725, "lon": 17.8307381}, {"type": "node", "id": 6359204126, "lat": 47.5142642, "lon": 17.8302205}, {"type": "node", "id": 6359204127, "lat": 47.51417, "lon": 17.8303358}, {"type": "node", "id": 6359204128, "lat": 47.5139255, "lon": 17.8309111}, {"type": "node", "id": 6359204129, "lat": 47.51317, "lon": 17.8311043}, {"type": "node", "id": 6359204130, "lat": 47.5131084, "lon": 17.8304377}, {"type": "node", "id": 8995435535, "lat": 47.3436265, "lon": 17.6818594, "tags": {"amenity": "townhall", "name": "N\u00e9prajzi H\u00e1z", "name:de": "Dorfmuseum", "tourism": "museum"}}, {"type": "node", "id": 9498209318, "lat": 47.5481026, "lon": 17.7561984, "tags": {"museum": "history", "name": "\u00c9ld \u00e1t a t\u00f6rt\u00e9nelmet!", "opening_hours": "Tu-Su 09:00-17:00", "opening_hours:covid19": "open", "tourism": "museum"}}, {"type": "node", "id": 9575511634, "lat": 47.6892781, "lon": 17.6321223, "tags": {"name": "Szent L\u00e1szl\u00f3 L\u00e1togat\u00f3k\u00f6zpont", "tourism": "museum", "website": "http://www.kaptalandomb.hu/"}}, {"type": "node", "id": 10652872347, "lat": 47.4655844, "lon": 17.4500629, "tags": {"name": "Helyt\u00f6rt\u00e9netigy\u0171jtem\u00e9ny", "tourism": "museum"}}, {"type": "way", "id": 292441268, "nodes": [2959967747, 2959967748, 2959967749, 2959967750, 2959967747], "tags": {"addr:city": "Gyarmat", "addr:housenumber": "12", "addr:postcode": "9126", "addr:street": "Pince utca", "building": "yes", "name": "T\u00e1jh\u00e1z", "tourism": "museum", "website": "https://www.gyarmat.hu/latnivalok2/tajhaz3"}}, {"type": "way", "id": 295029988, "nodes": [2986901067, 2986901079, 2986901078, 2986901064, 2986901067], "tags": {"building": "yes", "name": "Falum\u00fazeum", "source": "Bing", "tourism": "museum"}}, {"type": "way", "id": 296883941, "nodes": [3006920282, 3006920251, 3006920263, 3006920291, 3006920282], "tags": {"addr:city": "Szany", "addr:country": "HU", "addr:housenumber": "12", "addr:postcode": "9317", "addr:street": "Damjanich utca", "building": "yes", "name": "T\u00e9gla \u00e9s Cser\u00e9p M\u00fazeum", "operator": "Rugli Dezs\u0151", "phone": "+36 96 287 355", "tourism": "museum", "website": "http://www.ruglitegla.hu/"}}, {"type": "way", "id": 326224070, "nodes": [3328440561, 3328440563, 3328440564, 3328440562, 3328439903, 3328440561], "tags": {"building": "yes", "name": "Vajda P\u00e9ter k\u00f6lt\u0151 sz\u00fcl\u0151h\u00e1za", "tourism": "museum"}}, {"type": "way", "id": 395056819, "nodes": [3979418566, 3979418567, 3979418568, 3979418569, 3979418566], "tags": {"addr:city": "Gy\u0151r", "addr:housenumber": "22", "addr:postcode": "9011", "addr:street": "\u0150si utca", "addr:suburb": "Gy\u0151rszentiv\u00e1n", "building": "yes", "name": "Kincseh\u00e1z-T\u00e1jh\u00e1z", "tourism": "museum"}}, {"type": "way", "id": 503313003, "nodes": [4936445384, 2212017925, 4936445367, 4936445349, 4936445321, 4936445326, 4936445339, 4936445334, 4936445375, 4936445384], "tags": {"addr:city": "Gy\u0151r", "addr:housenumber": "7", "addr:postcode": "9022", "addr:street": "Kiss J\u00e1nos utca", "building": "yes", "tourism": "museum"}}, {"type": "way", "id": 679117829, "nodes": [6359204130, 6359204129, 6359204128, 6359204125, 6359204126, 6359204127, 6359204130], "tags": {"name": "Skanzen", "tourism": "museum"}}]}