{"version": 0.6, "generator": "Overpass API 0.7.59 e21c39fe", "osm3s": {"timestamp_osm_base": "2023-02-28T18:17:32Z", "copyright": "The data included in this document is from www.openstreetmap.org. The data is made available under ODbL."}, "elements": [{"type": "node", "id": 26751679, "lat": 39.797647, "lon": 2.6914234, "tags": {"addr:city": "Porto de Soller", "name": "Museu de la Mar", "name:ca": "Museu de la Mar", "opening_hours": "May-Sep: Tu-Sa 10:00-15:00;Su 10:00-14:00; May-Sep: Su 10:00-14:00; Oct-Apr: Tu-Sa 10:00-15:00; Oct-Apr: Su 10:00-14:00", "tourism": "museum", "website": "http://a-soller.tiscalibiz.com/museudelamar/presentacio/c_index.html", "wikidata": "Q17043323", "wikipedia": "ca:Museu de la Mar (Port de S\u00f3ller)"}}, {"type": "node", "id": 268923760, "lat": 39.6212427, "lon": 2.7468095, "tags": {"name": "Museu del fang", "name:ca": "Museu del fang", "tourism": "museum"}}, {"type": "node", "id": 668558216, "lat": 39.7511228, "lon": 2.6293839}, {"type": "node", "id": 668558217, "lat": 39.7512559, "lon": 2.6293066}, {"type": "node", "id": 668558218, "lat": 39.751013, "lon": 2.6290906}, {"type": "node", "id": 668558219, "lat": 39.7511482, "lon": 2.6291405}, {"type": "node", "id": 668558220, "lat": 39.7511875, "lon": 2.6292483}, {"type": "node", "id": 668558221, "lat": 39.7512272, "lon": 2.629227}, {"type": "node", "id": 668558223, "lat": 39.751376, "lon": 2.628871}, {"type": "node", "id": 668558224, "lat": 39.7513591, "lon": 2.6291617}, {"type": "node", "id": 668558225, "lat": 39.7513217, "lon": 2.6290439}, {"type": "node", "id": 668558226, "lat": 39.7514591, "lon": 2.629174}, {"type": "node", "id": 685534931, "lat": 39.7641742, "lon": 2.7093066, "tags": {"name": "Museu Balear de Ci\u00e8ncies Naturals", "name:ca": "Museu Balear de Ci\u00e8ncies Naturals", "opening_hours": "Tu-Sa 10:00-18:00; Su 10:00-14:00", "tourism": "museum", "website": "www.museucienciesnaturals.org", "wikidata": "Q17043315", "wikipedia": "ca:Museu Balear de Ci\u00e8ncies Naturals"}}, {"type": "node", "id": 1107334462, "lat": 39.7665559, "lon": 2.7136067, "tags": {"name": "Casal de Cultura", "tourism": "museum"}}, {"type": "node", "id": 1141912785, "lat": 39.7533227, "lon": 2.6473984, "tags": {"name": "Robert Graves", "tourism": "museum", "website": "http://www.lacasaderobertgraves.com"}}, {"type": "node", "id": 1167810713, "lat": 39.7104912, "lon": 2.6256036, "tags": {"name": "Casa natal de Santa Catalina Thom\u00e0s", "tourism": "museum", "wikidata": "Q111850852"}}, {"type": "node", "id": 1167810715, "lat": 39.7100094, "lon": 2.6222395, "tags": {"name": "Coll Bardolet", "name:ca": "Coll Bardolet", "tourism": "museum"}}, {"type": "node", "id": 1169667799, "lat": 39.7465574, "lon": 2.6479489, "tags": {"name": "Museu Arqueol\u00f2gic", "name:ca": "Museu Arqueol\u00f2gic", "name:es": "museo arqueol\u00f3gico", "tourism": "museum"}}, {"type": "node", "id": 1712596833, "lat": 39.822813, "lon": 2.8844187, "tags": {"level": "1", "opening_hours": "summer 10:00-18:00", "tourism": "museum"}}, {"type": "node", "id": 2213848459, "lat": 39.7826272, "lon": 2.7420016}, {"type": "node", "id": 2213848467, "lat": 39.7826634, "lon": 2.7419549}, {"type": "node", "id": 2213848471, "lat": 39.7826691, "lon": 2.7420651}, {"type": "node", "id": 2213848472, "lat": 39.7826732, "lon": 2.7418851}, {"type": "node", "id": 2213848473, "lat": 39.782674, "lon": 2.7420594}, {"type": "node", "id": 2213848474, "lat": 39.7826802, "lon": 2.7420778}, {"type": "node", "id": 2213848481, "lat": 39.7827087, "lon": 2.7421104}, {"type": "node", "id": 2213848484, "lat": 39.7827131, "lon": 2.7418379}, {"type": "node", "id": 2213848493, "lat": 39.7827481, "lon": 2.7420772}, {"type": "node", "id": 2213848498, "lat": 39.7827676, "lon": 2.7420487}, {"type": "node", "id": 2213848510, "lat": 39.7828137, "lon": 2.741982}, {"type": "node", "id": 2213848511, "lat": 39.7828151, "lon": 2.7419874}, {"type": "node", "id": 3091744863, "lat": 39.6473591, "lon": 2.7782216}, {"type": "node", "id": 3091746265, "lat": 39.6472716, "lon": 2.778331}, {"type": "node", "id": 3091746268, "lat": 39.647202, "lon": 2.7781933}, {"type": "node", "id": 3091746270, "lat": 39.6472947, "lon": 2.7781021}, {"type": "node", "id": 3423477705, "lat": 39.7152934, "lon": 2.9070794}, {"type": "node", "id": 3423477709, "lat": 39.7153764, "lon": 2.9069594}, {"type": "node", "id": 3423477727, "lat": 39.7156513, "lon": 2.9072812, "tags": {"entrance": "yes"}}, {"type": "node", "id": 3423477755, "lat": 39.7158338, "lon": 2.907712}, {"type": "node", "id": 3423477763, "lat": 39.7159169, "lon": 2.907592}, {"type": "node", "id": 3739699850, "lat": 39.6865625, "lon": 2.8452788, "tags": {"name": "Lloren\u00e7 Villalonga", "name:ca": "Museu Lloren\u00e7 Villalonga", "tourism": "museum", "wikidata": "Q17578639"}}, {"type": "node", "id": 3840569239, "lat": 39.7092137, "lon": 2.6224681, "tags": {"fee": "yes", "name": "Frederic Chopin", "name:ca": "Frederic Chopin", "opening_hours": "Mo-Su 10:00-17:30", "tourism": "museum"}}, {"type": "node", "id": 4271575114, "lat": 39.7512287, "lon": 2.6290924, "tags": {"entrance": "yes"}}, {"type": "node", "id": 4271575116, "lat": 39.7511733, "lon": 2.6292176, "tags": {"entrance": "main"}}, {"type": "node", "id": 4321956104, "lat": 39.7678639, "lon": 2.7180228}, {"type": "node", "id": 4321956105, "lat": 39.7678972, "lon": 2.7181882}, {"type": "node", "id": 4321956106, "lat": 39.7677381, "lon": 2.7182469}, {"type": "node", "id": 4321956107, "lat": 39.7676926, "lon": 2.7180486}, {"type": "node", "id": 4321956108, "lat": 39.7677347, "lon": 2.7180323}, {"type": "node", "id": 4321956109, "lat": 39.7677444, "lon": 2.7180744}, {"type": "node", "id": 5661619852, "lat": 39.7514299, "lon": 2.6290275}, {"type": "node", "id": 5661619853, "lat": 39.7514124, "lon": 2.6290382}, {"type": "node", "id": 5661619854, "lat": 39.7513567, "lon": 2.6292381}, {"type": "node", "id": 5661619855, "lat": 39.7513381, "lon": 2.6291791}, {"type": "node", "id": 6113562590, "lat": 39.7087643, "lon": 2.6216096, "tags": {"fee": "yes", "name": "Cartoixa de Valldemossa", "name:ca": "Cartoixa de Valldemossa", "name:de": "Kartause von Valldemossa", "name:en": "Valldemossa Charterhouse", "name:es": "Cartuja de Valldemosa", "name:it": "Certosa di Valldemossa", "opening_hours": "Mo-Fr 10:00-17:00; Sa 10:00-16:00", "tourism": "museum", "website": "https://www.cartoixadevalldemossa.com/", "wikipedia": "es:Cartuja de Valldemosa"}}, {"type": "node", "id": 6694661509, "lat": 39.7510799, "lon": 2.6292692, "tags": {"entrance": "yes"}}, {"type": "node", "id": 6906768287, "lat": 39.6690968, "lon": 2.5585552, "tags": {"addr:postcode": "07190", "addr:street": "Ctra Banyalbufar, Km 1.5", "name": "La Granja", "name:ca": "La Granja", "opening_hours": "Mo-Su 10:00-18:00", "phone": "+34 971 61 00 32", "tourism": "museum", "website": "http://lagranja.net"}}, {"type": "node", "id": 7994798520, "lat": 39.782642, "lon": 2.741922}, {"type": "node", "id": 7994798521, "lat": 39.7827536, "lon": 2.7421707}, {"type": "node", "id": 7994798522, "lat": 39.7827707, "lon": 2.7421473}, {"type": "node", "id": 7994798523, "lat": 39.7827793, "lon": 2.7421247}, {"type": "node", "id": 7994798524, "lat": 39.7827658, "lon": 2.7421405}, {"type": "node", "id": 7994798525, "lat": 39.7826964, "lon": 2.7421277}, {"type": "node", "id": 8922419841, "lat": 39.7155636, "lon": 2.9073957, "tags": {"entrance": "yes"}}, {"type": "node", "id": 9763646623, "lat": 39.7209556, "lon": 2.9045872, "tags": {"addr:city": "Inca", "addr:housenumber": "59", "addr:postcode": "07300", "addr:street": "carrer d'Antoni Torrandell", "email": "ameib@dgpice.caib.es", "museum": "history", "name": "Arxiu i Museu d'educaci\u00f3 de les Illes Balears", "name:ca": "Arxiu i Museu d'educaci\u00f3 de les Illes Balears", "operator": "Conselleria d'Educaci\u00f3 i Formaci\u00f3 Professional, Govern de les Illes Balears", "operator:type": "government", "phone": "+34 971 504 279", "ref": "07509017", "source": "knowledge;Conselleria d'Educaci\u00f3 i Formaci\u00f3 Professional;Registro Estatal de Centros Docentes no Universitarios", "source:date": "2021-09-21", "source:file": "https://www.caib.es/govern/rest/arxiu/4879690", "source:name": "Llistat de centres educatius de les Illes Balears", "source:ref": "Registro Estatal de Centros Docentes no Universitarios", "subject": "education", "tourism": "museum"}}, {"type": "way", "id": 52646678, "nodes": [668558226, 5661619853, 5661619852, 668558223, 668558218, 6694661509, 668558216, 668558217, 668558221, 668558220, 4271575116, 668558219, 4271575114, 668558225, 668558224, 5661619855, 5661619854, 668558226], "tags": {"addr:housename": "Son Marroig", "addr:housenumber": "Cr, 13", "addr:postcode": "07179", "addr:street": "Diseminado Valldemossa", "building": "house", "fee": "yes", "name": "Son Marroig", "name:ca": "Son Marroig", "opening_hours": "Mo-Sa 09:30-14:00, 15:30-18:00", "phone": "+34 971 63 91 58", "tourism": "museum", "website": "http://sonmarroig.com", "wikidata": "Q2300784", "wikipedia": "ca:Son Marroig"}}, {"type": "way", "id": 211382398, "nodes": [2213848511, 2213848510, 2213848484, 2213848472, 7994798520, 2213848467, 2213848459, 2213848473, 2213848471, 2213848474, 2213848481, 7994798525, 7994798521, 7994798522, 7994798524, 7994798523, 2213848493, 2213848498, 2213848511], "tags": {"building": "yes", "name": "Can Xoroi", "tourism": "museum"}}, {"type": "way", "id": 304606737, "nodes": [3091744863, 3091746265, 3091746268, 3091746270, 3091744863], "tags": {"building": "yes", "fee": "no", "height": "8.5", "name": "Ca s'Apotecari", "name:ca": "Ca s'Apotecari", "operator": "Ajuntament de Santa Maria del Cam\u00ed", "operator:type": "government", "smoking": "outside", "tourism": "museum", "wikidata": "Q31074672", "wikipedia": "ca:Ca s'Apotecari"}}, {"type": "way", "id": 335231238, "nodes": [3423477709, 3423477727, 3423477763, 3423477755, 8922419841, 3423477705, 3423477709], "tags": {"addr:city": "inca", "addr:housenumber": "223", "addr:postcode": "07300", "addr:street": "Carrer del General Luque", "building": "yes", "fee": "no", "museum": "local", "name": "Museu del Cal\u00e7at i de la ind\u00fastria", "name:ca": "Museu del Cal\u00e7at i de la ind\u00fastria", "operator": "Ajuntament d'Inca", "source": "survey;Bing WMS", "tourism": "museum", "website": "https://museu.incaciutat.com/"}}, {"type": "way", "id": 433456325, "nodes": [4321956104, 4321956105, 4321956106, 4321956107, 4321956108, 4321956109, 4321956104], "tags": {"alt_name": "Can Magraner", "building": "yes", "heritage": "3", "heritage:operator": "Consell de Mallorca", "historic": "manor", "name": "Ca'n Prunera", "name:ca": "Can Prunera", "tourism": "museum", "wikidata": "Q1031852", "wikipedia": "ca:Can Prunera"}}]}