{"version": 0.6, "generator": "Overpass API 0.7.59 e21c39fe", "osm3s": {"timestamp_osm_base": "2023-03-01T09:09:24Z", "copyright": "The data included in this document is from www.openstreetmap.org. The data is made available under ODbL."}, "elements": [{"type": "node", "id": 390977823, "lat": 47.0919816, "lon": 18.4167197}, {"type": "node", "id": 390977825, "lat": 47.0927651, "lon": 18.4205966}, {"type": "node", "id": 390977827, "lat": 47.0897881, "lon": 18.4252678}, {"type": "node", "id": 390977828, "lat": 47.0878027, "lon": 18.42212}, {"type": "node", "id": 973648874, "lat": 47.1942983, "lon": 18.4101195, "tags": {"addr:city": "Sz\u00e9kesfeh\u00e9rv\u00e1r", "addr:housenumber": "3", "addr:postcode": "8000", "addr:street": "Orsz\u00e1gz\u00e1szl\u00f3 t\u00e9r", "name": "Szent Istv\u00e1n Kir\u00e1ly M\u00fazeum", "phone": "+36 22 315 583", "tourism": "museum", "website": "https://szikm.hu/"}}, {"type": "node", "id": 1491912355, "lat": 47.0702727, "lon": 18.1688077, "tags": {"name": "T\u00e1jh\u00e1z", "tourism": "museum"}}, {"type": "node", "id": 1538555028, "lat": 47.1990394, "lon": 18.1378345, "tags": {"addr:city": "V\u00e1rpalota", "addr:conscriptionnumber": "185/32, 185/33", "addr:housenumber": "1", "addr:postcode": "8100", "addr:street": "Gr\u00f3f Apponyi Albert liget", "charge": "feln\u0151tt:1200Ft; gyermek(7-25)nyugd\u00edjas:600Ft; k\u00fclhoni magyarok:0Ft; Minden h\u00f3 3.h\u00e9tv\u00e9g\u00e9j\u00e9n d\u00edjtalan:18\u00e9ven aluli gyermek \u00e9s max.2f\u0151 hozz\u00e1tartoz\u00f3ja; Nemzeti \u00fcnnepeken d\u00edjtalan", "email": "trianonmuzeum@trianonmuzeum.hu;titkarsag@trianonmuzeum.hu", "fee": "yes", "name": "Trianon M\u00fazeum", "opening_hours": "Tu-Th 10:00-16:00; Fr-Su 09:00-17:00", "phone": "+36 88 372 721", "tourism": "museum", "website": "http://www.trianonmuzeum.hu/", "wikidata": "Q1323925", "wikipedia": "hu:Trianon M\u00fazeum"}}, {"type": "node", "id": 1538555081, "lat": 47.2009925, "lon": 18.1391905, "tags": {"addr:postcode": "8100", "addr:street": "Thury Gy\u00f6rgy t\u00e9r", "level": "2", "name": "Vegy\u00e9szeti M\u00fazeum", "operator": "Magyar M\u0171szaki \u00e9s K\u00f6zleked\u00e9si M\u00fazeum", "tourism": "museum"}}, {"type": "node", "id": 1577736062, "lat": 47.2034676, "lon": 18.1404361, "tags": {"addr:postcode": "8100", "addr:street": "J\u00f3kai M\u00f3r utca", "name": "T\u00e1jh\u00e1z", "tourism": "museum"}}, {"type": "node", "id": 2212830680, "lat": 47.1930097, "lon": 18.4611839}, {"type": "node", "id": 2212830693, "lat": 47.1932632, "lon": 18.460706}, {"type": "node", "id": 2212830697, "lat": 47.1929353, "lon": 18.4610101}, {"type": "node", "id": 2212830706, "lat": 47.1933376, "lon": 18.4608798}, {"type": "node", "id": 2223411626, "lat": 47.1834721, "lon": 18.4202249}, {"type": "node", "id": 2223411628, "lat": 47.1837397, "lon": 18.420001}, {"type": "node", "id": 2223411639, "lat": 47.1838471, "lon": 18.4202789}, {"type": "node", "id": 2223411642, "lat": 47.1835796, "lon": 18.4205028}, {"type": "node", "id": 2287912759, "lat": 47.1912509, "lon": 18.4088884, "tags": {"addr:postcode": "8000", "addr:street": "J\u00f3kai utca", "name": "Hetedh\u00e9t J\u00e1t\u00e9km\u00fazeum", "name:en": "Toy Museum", "name:it": "Toy", "tourism": "museum"}}, {"type": "node", "id": 2309312213, "lat": 47.2041708, "lon": 18.2560734, "tags": {"addr:postcode": "8041", "addr:street": "F\u0151 t\u00e9r", "name": "Falum\u00fazeum", "tourism": "museum"}}, {"type": "node", "id": 2310018536, "lat": 47.1902245, "lon": 18.4109238, "tags": {"addr:city": "Sz\u00e9kesfeh\u00e9rv\u00e1r", "addr:street": "H\u0151s\u00f6k tere", "name": "\u00d3ram\u00fazeum", "tourism": "museum"}}, {"type": "node", "id": 2310019935, "lat": 47.1931408, "lon": 18.4609416, "tags": {"addr:postcode": "8000", "addr:street": "Zombori \u00fat", "name": "Magyar M\u0171szaki \u00e9s K\u00f6zleked\u00e9si M\u00fazeum Alum\u00edniumpari M\u00fazeuma", "tourism": "museum"}}, {"type": "node", "id": 2310042617, "lat": 47.1979924, "lon": 18.4072331, "tags": {"addr:postcode": "8000", "addr:street": "Malom utca", "name": "Hely\u0151rs\u00e9gt\u00f6rt\u00e9neti Eml\u00e9kgy\u0171jtem\u00e9ny", "tourism": "museum"}}, {"type": "node", "id": 2310044929, "lat": 47.1914676, "lon": 18.4095505, "tags": {"addr:postcode": "8000", "addr:street": "V\u00e1rosh\u00e1z t\u00e9r", "name": "Sz\u00e9kesfeh\u00e9rv\u00e1ri Egyh\u00e1zmegyei M\u00fazeum", "name:it": "Sz\u00e9kesfeh\u00e9rv\u00e1ri Egyh\u00e1zmegyei", "tourism": "museum"}}, {"type": "node", "id": 2310063472, "lat": 47.1927981, "lon": 18.4089577, "tags": {"addr:postcode": "8000", "addr:street": "F\u0151 utca", "name": "Szent Istv\u00e1n Kir\u00e1ly M\u00fazeum", "tourism": "museum"}}, {"type": "node", "id": 2310063473, "lat": 47.1930023, "lon": 18.4092393, "tags": {"addr:city": "Sz\u00e9kesfeh\u00e9rv\u00e1r", "addr:postcode": "8000", "addr:street": "F\u0151 utca", "name": "Fekete Sas Patikam\u00fazeum", "tourism": "museum", "wikidata": "Q1533548", "wikipedia": "hu:Fekete Sas Patikam\u00fazeum"}}, {"type": "node", "id": 2341971228, "lat": 46.9941354, "lon": 17.9711173}, {"type": "node", "id": 2341971229, "lat": 46.9941662, "lon": 17.9712155}, {"type": "node", "id": 2341971230, "lat": 46.9942612, "lon": 17.9710325}, {"type": "node", "id": 2341971232, "lat": 46.994292, "lon": 17.9711307}, {"type": "node", "id": 2406651594, "lat": 46.9958094, "lon": 18.2447529, "tags": {"name": "Falum\u00fazeum", "tourism": "museum"}}, {"type": "node", "id": 2624813935, "lat": 46.994265, "lon": 17.9710444}, {"type": "node", "id": 3239684338, "lat": 47.2597433, "lon": 18.0341679, "tags": {"addr:city": "T\u00e9s", "addr:country": "HU", "addr:housenumber": "20", "addr:postcode": "8109", "addr:street": "T\u00e1ncsics Mih\u00e1ly utca", "fee": "yes", "name": "Kov\u00e1csm\u00fazeum", "opening_hours": "Tu-Su 09:00-16:00", "phone": "+36 88 469 007", "tourism": "museum", "url": "http://www.tes.hu/turizmus/10-turizmus-programok/19-tesi-szelmalmok", "website": "http://www.museum.hu/muzeum/1110/Tesi_Szelmalmok_es_Kovacsmuhely"}}, {"type": "node", "id": 3280501597, "lat": 47.0875933, "lon": 18.4237987}, {"type": "node", "id": 3280501601, "lat": 47.0877176, "lon": 18.424367}, {"type": "node", "id": 3280501606, "lat": 47.0885651, "lon": 18.424922}, {"type": "node", "id": 3280501615, "lat": 47.0889807, "lon": 18.4186939}, {"type": "node", "id": 3280501627, "lat": 47.0893051, "lon": 18.419505}, {"type": "node", "id": 3280501714, "lat": 47.0905571, "lon": 18.4257654}, {"type": "node", "id": 3280501715, "lat": 47.090635, "lon": 18.4169308}, {"type": "node", "id": 3280501800, "lat": 47.0910919, "lon": 18.4175393}, {"type": "node", "id": 3280502053, "lat": 47.0920636, "lon": 18.4184092}, {"type": "node", "id": 3280502074, "lat": 47.0925179, "lon": 18.4180123}, {"type": "node", "id": 3280502075, "lat": 47.0925351, "lon": 18.4190342}, {"type": "node", "id": 3280502076, "lat": 47.0926329, "lon": 18.422252}, {"type": "node", "id": 3306009416, "lat": 47.1922799, "lon": 18.4084204, "tags": {"addr:city": "Sz\u00e9kesfeh\u00e9rv\u00e1r", "addr:housenumber": "10", "addr:postcode": "8000", "addr:street": "Oskola utca", "name": "De\u00e1k Gy\u0171jtem\u00e9ny \u2013 V\u00e1rosi K\u00e9pt\u00e1r", "tourism": "museum", "wikidata": "Q904812", "wikipedia": "hu:V\u00e1rosi K\u00e9pt\u00e1r \u2013 De\u00e1k Gy\u0171jtem\u00e9ny"}}, {"type": "node", "id": 3343698080, "lat": 47.2113619, "lon": 18.451061, "tags": {"is_in": "\u00d6reghegy", "name": "Festm\u00e9nyek-Paintings", "name:en": "Paintings", "source": "survey", "tourism": "museum"}}, {"type": "node", "id": 3362955233, "lat": 47.2541007, "lon": 18.3469037}, {"type": "node", "id": 3362955234, "lat": 47.2541407, "lon": 18.3469557}, {"type": "node", "id": 3362955235, "lat": 47.2541686, "lon": 18.3468013}, {"type": "node", "id": 3362955237, "lat": 47.2542072, "lon": 18.3468563}, {"type": "node", "id": 3459826787, "lat": 47.0283233, "lon": 18.5232551, "tags": {"name": "Templom- M\u00fazeum", "source": "turistautak.hu", "source:date": "2012-01-01", "tourism": "museum", "url": "http://turistautak.hu/poi.php?id=23011"}}, {"type": "node", "id": 3459826789, "lat": 47.246177, "lon": 18.195965, "tags": {"name": "T\u00e1jh\u00e1z", "source": "turistautak.hu", "source:date": "2012-03-29", "tourism": "museum", "url": "http://turistautak.hu/poi.php?id=40902"}}, {"type": "node", "id": 3463077436, "lat": 47.1855719, "lon": 18.4058446, "tags": {"addr:city": "Sz\u00e9kesfeh\u00e9rv\u00e1r", "addr:housenumber": "17", "addr:postcode": "8000", "addr:street": "Sziget utca", "contact:website": "http://www.bellaitaliamuzeum.hu/", "name": "Bella Italia M\u00fazeum", "source": "turistautak.hu", "source:date": "2011-06-25", "tourism": "museum", "url": "http://turistautak.hu/poi.php?id=7024"}}, {"type": "node", "id": 3463077442, "lat": 47.1899032, "lon": 18.4104022, "tags": {"addr:postcode": "8000", "addr:street": "Arany J\u00e1nos utca", "contact:website": "https://szikm.hu/kiallitohelyek/budenz-haz", "description": "Ybl-gy\u0171jtem\u00e9ny 8000 Sz\u00e9kesfeh\u00e9rv\u00e1r, Arany J\u00e1nos u. 12.", "name": "Budenz-h\u00e1z", "operator": "Szent Istv\u00e1n Kir\u00e1ly M\u00fazeum", "source": "turistautak.hu", "source:date": "2011-06-25", "tourism": "museum", "url": "http://turistautak.hu/poi.php?id=7036"}}, {"type": "node", "id": 3463077487, "lat": 47.191883, "lon": 18.411667, "tags": {"addr:postcode": "8000", "addr:street": "Koron\u00e1z\u00f3 t\u00e9r", "name": "Romkert", "name:it": "K\u00f6z\u00e9pkori Romkert", "source": "turistautak.hu", "source:date": "2011-06-25", "tourism": "museum", "url": "http://turistautak.hu/poi.php?id=4818", "wheelchair": "no"}}, {"type": "node", "id": 3463077620, "lat": 47.1904201, "lon": 18.4016464, "tags": {"addr:postcode": "8000", "addr:street": "R\u00e1c utca", "description": "Palotav\u00e1rosi Skanzen Palotav\u00e1rosi eml\u00e9kek, Sz\u00e9kesfeh\u00e9rv\u00e1r-Palotav\u00e1ros t\u00f6rt\u00e9nete \u00e9s n\u00e9prajza 8000 Sz\u00e9kesfeh\u00e9rv\u00e1r, R\u00e1c u. 11. <A HREF=\"http://www.szikm.hu/\">Szent Istv\u00e1n Kir\u00e1ly M\u00fazeum</A>", "name": "Palotav\u00e1rosi Skanzen", "source": "turistautak.hu", "source:date": "2011-06-25", "tourism": "museum", "url": "http://turistautak.hu/poi.php?id=7119"}}, {"type": "node", "id": 3463077650, "lat": 47.1903481, "lon": 18.4017406, "tags": {"addr:postcode": "8000", "addr:street": "R\u00e1c utca", "description": "Tejipari Eml\u00e9kt\u00e1r - Tejipari T\u00f6rt\u00e9neti Gy\u0171jtem\u00e9ny 8000 Sz\u00e9kesfeh\u00e9rv\u00e1r, R\u00e1c u. 19.", "name": "Tejipari Eml\u00e9kt\u00e1r", "source": "turistautak.hu", "source:date": "2011-06-25", "tourism": "museum", "url": "http://turistautak.hu/poi.php?id=7118"}}, {"type": "node", "id": 3463077654, "lat": 47.2046, "lon": 18.429133, "tags": {"addr:postcode": "8000", "addr:street": "Szent Fl\u00f3ri\u00e1n k\u00f6r\u00fat", "description": "T\u0171zolt\u00f3 M\u00fazeum 8000 Sz\u00e9kesfeh\u00e9rv\u00e1r, Szent Fl\u00f3ri\u00e1n krt. 2.", "name": "T\u0171zolt\u00f3 M\u00fazeum", "source": "turistautak.hu", "source:date": "2011-06-25", "tourism": "museum", "url": "http://turistautak.hu/poi.php?id=7441"}}, {"type": "node", "id": 3463077796, "lat": 47.18945, "lon": 18.410017, "tags": {"addr:postcode": "8000", "addr:street": "Megyeh\u00e1z utca", "description": "Szent Istv\u00e1n Kir\u00e1ly M\u00fazeum, \u00daj Magyar K\u00e9pt\u00e1r Szent Istv\u00e1n Kir\u00e1ly M\u00fazeum, Feh\u00e9rv\u00e1ri Babah\u00e1z 8000 Sz\u00e9kesfeh\u00e9rv\u00e1r, Megyeh\u00e1z u. 17. <A HREF=\"http://www.szikm.hu/\">Szent Istv\u00e1n Kir\u00e1ly M\u00fazeum</A>", "name": "\u00daj Magyar K\u00e9pt\u00e1r, Feh\u00e9rv\u00e1ri Babah\u00e1z", "source": "turistautak.hu", "source:date": "2011-06-25", "tourism": "museum", "url": "http://turistautak.hu/poi.php?id=7023"}}, {"type": "node", "id": 3470010700, "lat": 47.01465, "lon": 17.9531, "tags": {"name": "Faluh\u00e1z", "source": "turistautak.hu", "source:date": "2011-05-26", "tourism": "museum", "url": "http://turistautak.hu/poi.php?id=50821"}}, {"type": "node", "id": 3471746475, "lat": 47.204938, "lon": 18.134952, "tags": {"name": "Helyt\u00f6rt\u00e9neti M\u00fazeum", "source": "turistautak.hu", "source:date": "2011-06-25", "tourism": "museum", "url": "http://turistautak.hu/poi.php?id=40905"}}, {"type": "node", "id": 3487705471, "lat": 47.0503876, "lon": 18.2478079, "tags": {"description": "F\u00fcle egyik nevezetess\u00e9ge a s\u00e1rr\u00e9ti t\u00e1jh\u00e1z.", "name": "S\u00e1rr\u00e9ti T\u00e1jh\u00e1z", "source": "turistautak.hu", "source:date": "2011-06-25", "tourism": "museum", "url": "http://turistautak.hu/poi.php?id=39557"}}, {"type": "node", "id": 3741159444, "lat": 47.0893153, "lon": 18.418372}, {"type": "node", "id": 3741159447, "lat": 47.0894063, "lon": 18.4193783}, {"type": "node", "id": 3741159451, "lat": 47.0895951, "lon": 18.4192351}, {"type": "node", "id": 3741159455, "lat": 47.0898481, "lon": 18.4180987}, {"type": "node", "id": 3741159480, "lat": 47.0913395, "lon": 18.4173164}, {"type": "node", "id": 4126661289, "lat": 47.1895729, "lon": 18.4099474, "tags": {"addr:postcode": "8000", "addr:street": "Megyeh\u00e1z utca", "name": "V\u00e1rost\u00f6rt\u00e9neti M\u00fazeum Sz\u00e9kesfeh\u00e9rv\u00e1r", "tourism": "museum"}}, {"type": "node", "id": 4772020392, "lat": 47.2595463, "lon": 18.0339764}, {"type": "node", "id": 4772020393, "lat": 47.2595153, "lon": 18.0340407}, {"type": "node", "id": 4772020394, "lat": 47.2595504, "lon": 18.0340773}, {"type": "node", "id": 4772020395, "lat": 47.2595813, "lon": 18.0340129}, {"type": "node", "id": 4772020634, "lat": 47.25971, "lon": 18.0341822}, {"type": "node", "id": 4772020635, "lat": 47.2596868, "lon": 18.034152}, {"type": "node", "id": 4772020636, "lat": 47.2597885, "lon": 18.0339821}, {"type": "node", "id": 4772020637, "lat": 47.2598104, "lon": 18.0340161}, {"type": "node", "id": 4803433461, "lat": 47.0197172, "lon": 18.2132826}, {"type": "node", "id": 4803433462, "lat": 47.0197684, "lon": 18.2134063}, {"type": "node", "id": 4803433463, "lat": 47.0195907, "lon": 18.2135787}, {"type": "node", "id": 4803433464, "lat": 47.0195395, "lon": 18.2134505}, {"type": "node", "id": 4897768202, "lat": 47.0889041, "lon": 18.4215322}, {"type": "node", "id": 4897768203, "lat": 47.0892201, "lon": 18.4209448}, {"type": "node", "id": 4897768204, "lat": 47.0892456, "lon": 18.4209743}, {"type": "node", "id": 4897768205, "lat": 47.0895579, "lon": 18.4207249}, {"type": "node", "id": 4897768206, "lat": 47.0896072, "lon": 18.4208482}, {"type": "node", "id": 4897768207, "lat": 47.0893881, "lon": 18.4210199}, {"type": "node", "id": 4897768208, "lat": 47.089441, "lon": 18.4211312}, {"type": "node", "id": 4897768209, "lat": 47.0892474, "lon": 18.4212989}, {"type": "node", "id": 4897768210, "lat": 47.0891963, "lon": 18.4212506}, {"type": "node", "id": 4897768211, "lat": 47.0889991, "lon": 18.4216288}, {"type": "node", "id": 5007757529, "lat": 47.2011682, "lon": 18.1392963, "tags": {"addr:postcode": "8100", "addr:street": "Thury Gy\u00f6rgy t\u00e9r", "level": "0", "name": "V\u00e1r- \u00e9s Helyt\u00f6rt\u00e9neti Ki\u00e1ll\u00edt\u00e1s", "operator": "Thury V\u00e1r Nonprofit Kft.", "tourism": "museum"}}, {"type": "node", "id": 5007757795, "lat": 47.2010657, "lon": 18.1386551, "tags": {"addr:postcode": "8100", "addr:street": "Thury Gy\u00f6rgy t\u00e9r", "level": "0", "name": "B\u00e1ny\u00e1szati M\u00fazeum", "tourism": "museum"}}, {"type": "node", "id": 6509954508, "lat": 47.2108249, "lon": 18.4517634, "tags": {"addr:city": "Sz\u00e9kesfeh\u00e9rv\u00e1r", "addr:housenumber": "54", "addr:postcode": "8000", "addr:street": "M\u00e1riav\u00f6lgy utca", "architect": "Bory Jen\u0151", "architect:wikipedia": "hu:Bory Jen\u0151", "castle_type": "stately", "contact:phone": "+36 22 305 570", "facebook": "https://hu-hu.facebook.com/pages/category/Castle/Bory-v%C3%A1r-217718298279673/", "historic": "castle", "is_in": "\u00d6reghegy", "name": "Bory-v\u00e1r M\u00fazeum", "opening_hours": "Mo-Su 09:00-17:00", "operator": "Bory-v\u00e1r M\u00fazeum Alap\u00edtv\u00e1ny Sz\u00e9kesfeh\u00e9rv\u00e1r", "tourism": "museum", "url": "https://turizmus.szekesfehervar.hu/latnivalok/bory-var", "website": "http://bory-var.hu/", "wikidata": "Q848109", "wikipedia": "hu:Bory-v\u00e1r"}}, {"type": "node", "id": 6800276704, "lat": 47.0284046, "lon": 18.5232253}, {"type": "node", "id": 6800276705, "lat": 47.0282785, "lon": 18.523346}, {"type": "node", "id": 6800276706, "lat": 47.0282474, "lon": 18.5232816}, {"type": "node", "id": 6800276707, "lat": 47.0283717, "lon": 18.5231582}, {"type": "node", "id": 8017280932, "lat": 47.2869229, "lon": 18.2658872, "tags": {"description": "Vezet\u00e9sek a kast\u00e9lyban", "tourism": "museum"}}, {"type": "node", "id": 8939311818, "lat": 47.1955597, "lon": 18.4381479, "tags": {"name": "M\u00fazeum", "tourism": "museum"}}, {"type": "node", "id": 9122794753, "lat": 47.0144142, "lon": 17.9532983, "tags": {"name": "Civilh\u00e1z Helyt\u00f6rt\u00e9neti Gy\u0171jtem\u00e9ny", "tourism": "museum"}}, {"type": "node", "id": 9656593708, "lat": 47.1343246, "lon": 18.241539, "tags": {"tourism": "museum"}}, {"type": "node", "id": 9879770941, "lat": 47.0892532, "lon": 18.4209682, "tags": {"access": "yes", "entrance": "main"}}, {"type": "way", "id": 34107587, "nodes": [390977828, 3280501627, 3280501615, 3741159444]}, {"type": "way", "id": 211260593, "nodes": [2212830680, 2212830697, 2212830693, 2212830706, 2212830680], "tags": {"addr:city": "Sz\u00e9kesfeh\u00e9rv\u00e1r", "addr:housenumber": "12", "addr:postcode": "8000", "addr:street": "Zombori \u00fat", "building": "yes", "name": "Magyar M\u0171szaki \u00e9s K\u00f6zleked\u00e9si M\u00fazeum Aluminiumipari M\u00fazeuma", "tourism": "museum"}}, {"type": "way", "id": 212498147, "nodes": [2223411642, 2223411626, 2223411628, 2223411639, 2223411642], "tags": {"addr:city": "Sz\u00e9kesfeh\u00e9rv\u00e1r", "addr:housenumber": "2", "addr:postcode": "8000", "addr:street": "Kaszap Istv\u00e1n utca", "building": "yes", "name": "VOKE", "operator": "M\u00c1V", "tourism": "museum"}}, {"type": "way", "id": 225419011, "nodes": [2341971230, 2341971228, 2341971229, 2341971232, 2624813935, 2341971230], "tags": {"building": "house", "name": "T\u00f6r\u00f6k-h\u00e1z", "tourism": "museum"}}, {"type": "way", "id": 329414572, "nodes": [3362955235, 3362955233, 3362955234, 3362955237, 3362955235], "tags": {"addr:city": "S\u00e1rkeresztes", "addr:country": "HU", "addr:housenumber": "47", "addr:postcode": "8051", "addr:street": "Kossuth utca", "building": "yes", "name": "Helyt\u00f6rt\u00e9neti Gy\u0171jtem\u00e9ny", "tourism": "museum"}}, {"type": "way", "id": 370413552, "nodes": [3741159480, 390977823]}, {"type": "way", "id": 370413557, "nodes": [3280501597, 390977828]}, {"type": "way", "id": 370413607, "nodes": [3280501714, 390977827, 3280501606, 3280501601, 3280501597]}, {"type": "way", "id": 370413624, "nodes": [3741159444, 3741159447, 3741159451, 3741159455, 3280501715, 3280501800, 3741159480]}, {"type": "way", "id": 370413625, "nodes": [390977823, 3280502074, 3280502053, 3280502075, 390977825, 3280502076, 3280501714]}, {"type": "way", "id": 484450089, "nodes": [4772020395, 4772020394, 4772020393, 4772020392, 4772020395], "tags": {"building": "yes", "tourism": "museum"}}, {"type": "way", "id": 484450100, "nodes": [4772020637, 4772020634, 4772020635, 4772020636, 4772020637], "tags": {"addr:city": "T\u00e9s", "addr:country": "HU", "addr:street": "T\u00e1ncsics Mih\u00e1ly utca", "building": "public", "building:levels": "1", "height": "3", "name": "T\u00e9si kov\u00e1csm\u00fazeum", "tourism": "museum", "website": "http://www.museum.hu/muzeum/1110/Tesi_Szelmalmok_es_Kovacsmuhely"}}, {"type": "way", "id": 487959719, "nodes": [4803433461, 4803433462, 4803433463, 4803433464, 4803433461], "tags": {"addr:city": "Balatonf\u0151kaj\u00e1r", "addr:housenumber": "4", "addr:postcode": "8164", "addr:street": "T\u00e1ncsics Mih\u00e1ly utca", "building": "yes", "email": "falumuzeum8164@gmail.com", "name": "Falum\u00fazeum", "opening_hours": "Sa-Su 10:00-12:00, 14:00-16:00", "tourism": "museum"}}, {"type": "way", "id": 498327648, "nodes": [4897768211, 4897768210, 4897768209, 4897768208, 4897768207, 4897768206, 4897768205, 9879770941, 4897768204, 4897768203, 4897768202, 4897768211], "tags": {"building": "public", "name": "Gorsium l\u00e1togat\u00f3k\u00f6zpont", "operator": "Szent Istv\u00e1n Kir\u00e1ly M\u00fazeum, Sz\u00e9kesfeh\u00e9rv\u00e1r", "tourism": "museum"}}, {"type": "way", "id": 725176493, "nodes": [6800276704, 6800276705, 6800276706, 6800276707, 6800276704], "tags": {"building": "yes", "tourism": "museum"}}, {"type": "relation", "id": 5503554, "members": [{"type": "way", "ref": 370413607, "role": "outer"}, {"type": "way", "ref": 370413625, "role": "outer"}, {"type": "way", "ref": 370413552, "role": "outer"}, {"type": "way", "ref": 370413624, "role": "outer"}, {"type": "way", "ref": 34107587, "role": "outer"}, {"type": "way", "ref": 370413557, "role": "outer"}], "tags": {"alt_name": "Gorsium-Herculia, r\u00f3mai kori romv\u00e1ros", "archaeological_site": "settlement", "description": "Felt\u00e1rta: Marosi Arnold (1939), Radn\u00f3ti Alad\u00e1r (1954), Fitz Jen\u0151 (1958). Helyre\u00e1ll\u00edt\u00e1s: Dr. Hajn\u00f3czi Gyula Kossuth- \u00e9s Ybl Mikl\u00f3s-d\u00edjas \u00e9p\u00edt\u00e9sz, Papp Imre, Istv\u00e1nfi Gyula \u00e9p\u00edt\u00e9szek.", "historic": "archaeological_site", "name": "Gorsium", "operator": "Szent Istv\u00e1n Kir\u00e1ly M\u00fazeum, Sz\u00e9kesfeh\u00e9rv\u00e1r", "site_type": "settlement", "source": "landsat", "tourism": "museum", "type": "multipolygon", "website": "http://www.gorsium.org/", "wheelchair": "yes", "wikipedia": "hu:Gorsium"}}]}