{"version": 0.6, "generator": "Overpass API 0.7.59 e21c39fe", "osm3s": {"timestamp_osm_base": "2023-03-01T08:37:51Z", "copyright": "The data included in this document is from www.openstreetmap.org. The data is made available under ODbL."}, "elements": [{"type": "node", "id": 721402456, "lat": 47.8000779, "lon": 18.723726}, {"type": "node", "id": 721408756, "lat": 47.8000643, "lon": 18.7237248}, {"type": "node", "id": 721424085, "lat": 47.8000671, "lon": 18.7236512}, {"type": "node", "id": 721426365, "lat": 47.8000807, "lon": 18.7236525}, {"type": "node", "id": 1363008614, "lat": 47.7776342, "lon": 19.1274388, "tags": {"artwork_type": "installation", "source": "survey", "source:wheelchair": "jarhato.hu", "tourism": "artwork", "wheelchair": "yes", "wheelchair:description": "J\u00e1rhat\u00f3. Elad\u00f3t\u00e9r j\u00f3l bej\u00e1rhat\u00f3, automata ajt\u00f3 bel\u00fcl, alacsony t\u00e1rgyal\u00f3 pultok. Kaputelefon van 150 cm magasan, alacsonyabban szerelt okos cseng\u0151 c\u00e9lszer\u0171bb lenne.", "wheelchair:entrance_width": "95"}}, {"type": "node", "id": 1459370831, "lat": 47.8000261, "lon": 18.7350139, "tags": {"artist_name": "Melocco Mikl\u00f3s", "artwork_type": "sculpture", "name": "Istv\u00e1n megkoron\u00e1z\u00e1sa", "name:de": "Kr\u00f6nung von Hl. Stephan", "name:en": "Coronation of Saint Stephen", "tourism": "artwork"}}, {"type": "node", "id": 1579816409, "lat": 47.7971224, "lon": 18.7197629, "tags": {"artwork_type": "sculpture", "tourism": "artwork"}}, {"type": "node", "id": 2965970544, "lat": 47.8072921, "lon": 19.0107434, "tags": {"alt_name": "Kisoroszi ker\u00e9k", "artist_name": "Menas\u00e1gi P\u00e9ter", "artwork_type": "sculpture", "name": "\u00d6rv\u00e9ny", "start_date": "2003", "tourism": "artwork"}}, {"type": "node", "id": 2965993867, "lat": 47.8072015, "lon": 19.0098412, "tags": {"artist_name": "N\u00e9meth J\u00f3zsef", "name": "Szilva-triptychon", "start_date": "2005", "tourism": "artwork"}}, {"type": "node", "id": 3039911012, "lat": 47.7746693, "lon": 19.1279355, "tags": {"name": "Kors\u00f3t tart\u00f3 n\u0151", "tourism": "artwork"}}, {"type": "node", "id": 3068213731, "lat": 47.7746299, "lon": 19.1308088, "tags": {"name": "lovas szobor", "source": "survey", "tourism": "artwork"}}, {"type": "node", "id": 3068471807, "lat": 47.7809354, "lon": 19.1301672, "tags": {"artwork_type": "sculpture", "name": "B\u00e9ke", "tourism": "artwork"}}, {"type": "node", "id": 3439051101, "lat": 47.81594, "lon": 18.86559, "tags": {"artwork_type": "sculpture", "name": "Bar\u00e1ts\u00e1g-oszlop", "source": "turistautak.hu", "source:date": "2012-09-26", "tourism": "artwork", "url": "http://turistautak.hu/poi.php?id=138976"}}, {"type": "node", "id": 3439051311, "lat": 47.86552, "lon": 18.87263, "tags": {"artwork_type": "statue", "description": "\"J\u00e9zus szive te gondot viselsz r\u00e1nk 1993\"", "name": "Szobortart\u00f3 f\u00fclke", "source": "turistautak.hu", "source:date": "2013-10-19", "tourism": "artwork", "url": "http://turistautak.hu/poi.php?id=160752"}}, {"type": "node", "id": 3439051323, "lat": 47.827637, "lon": 18.901305, "tags": {"artwork_type": "statue", "name": "Sz\u0171zanya", "source": "turistautak.hu", "source:date": "2014-10-16", "tourism": "artwork", "url": "http://turistautak.hu/poi.php?id=3622"}}, {"type": "node", "id": 3439051343, "lat": 47.826358, "lon": 19.0117933, "tags": {"artwork_type": "statue", "name": "Ulmi skatulya", "source": "turistautak.hu", "source:date": "2013-06-22", "tourism": "artwork", "url": "http://turistautak.hu/poi.php?id=31827"}}, {"type": "node", "id": 3439051506, "lat": 47.789003, "lon": 18.958982, "tags": {"artwork_type": "statue", "source": "turistautak.hu", "source:date": "2011-06-28", "tourism": "artwork", "url": "http://turistautak.hu/poi.php?id=88320"}}, {"type": "node", "id": 3454414982, "lat": 47.758183, "lon": 18.539717, "tags": {"artwork_type": "statue", "name": "Szenth\u00e1roms\u00e1g-szobor", "source": "turistautak.hu", "source:date": "2011-05-08", "tourism": "artwork", "url": "http://turistautak.hu/poi.php?id=8161"}}, {"type": "node", "id": 3454425939, "lat": 47.7846487, "lon": 18.8745051, "tags": {"artwork_type": "statue", "source": "turistautak.hu", "source:date": "2013-08-13", "tourism": "artwork", "url": "http://turistautak.hu/poi.php?id=157853"}}, {"type": "node", "id": 3456376436, "lat": 47.780523, "lon": 19.133203, "tags": {"artwork_type": "statue", "source": "turistautak.hu", "source:date": "2013-08-22", "tourism": "artwork", "url": "http://turistautak.hu/poi.php?id=158235"}}, {"type": "node", "id": 3459930138, "lat": 48.0507571, "lon": 19.0512425, "tags": {"artwork_type": "statue", "description": "A sz\u00ednezett k\u0151szobrok miatt k\u00fcl\u00f6nleges, barokk st\u00edlus\u00fa Szenth\u00e1roms\u00e1g-oszlopot 1762-ben helyezt\u00e9k el a telep\u00fcl\u00e9sen.", "name": "Szenth\u00e1roms\u00e1g-oszlop", "source": "turistautak.hu", "source:date": "2013-06-22", "tourism": "artwork", "url": "http://turistautak.hu/poi.php?id=77306"}}, {"type": "node", "id": 3524476282, "lat": 47.7683332, "lon": 18.982241, "tags": {"artwork_type": "statue", "is_in": "Telg\u00e1rthy-r\u00e9t; Ap\u00e1tk\u00fati-v\u00f6lgy; Pilis-hegys\u00e9g", "name": "896 - 1996", "tourism": "artwork"}}, {"type": "node", "id": 3900154717, "lat": 47.8299138, "lon": 19.0403987, "tags": {"artwork_type": "sculpture", "material": "wood", "name": "H\u00e1trafele nyilaz\u00f3 lovas", "source": "survey 2021-09-13", "tourism": "artwork"}}, {"type": "node", "id": 4320880276, "lat": 47.8010452, "lon": 18.7399476, "tags": {"artist_name": "Vigh Tam\u00e1s", "artwork_type": "sculpture", "name": "Lovagl\u00f3 l\u00e1ny", "name:en": "Equestrian girl", "start_date": "1974", "tourism": "artwork", "website": "https://www.kozterkep.hu/~/3025/lovaglo_lany_esztergom_vigh_tamas_1974.html"}}, {"type": "node", "id": 4320880277, "lat": 47.7983172, "lon": 18.7379723, "tags": {"artist_name": "Vigh Tam\u00e1s", "artwork_type": "sculpture", "loc_name": "G\u00f6rdeszk\u00e1s", "loc_name:de": "Skateboarder", "loc_name:en": "Skateboarder", "name": "V\u00e1rosalap\u00edt\u00f3 vit\u00e9z szobra", "name:de": "Der Stadtgr\u00fcnder Held", "name:en": "The city founder hero", "tourism": "artwork"}}, {"type": "node", "id": 4320880286, "lat": 47.7944266, "lon": 18.7397041, "tags": {"artist_name": "Kligl S\u00e1ndor", "artwork_type": "statue", "name": "J\u00e1tsz\u00f3 gyermekek", "name:de": "Spielende Kinder", "name:en": "Playing children", "tourism": "artwork"}}, {"type": "node", "id": 4326846402, "lat": 47.7875487, "lon": 18.9679083, "tags": {"artist_name": "V\u00edgh Tam\u00e1s szobr\u00e1szm\u0171v\u00e9sz", "artwork_type": "sculpture", "image": "https://i.imgur.com/mgz4m94.jpg", "name": "\u00c9letfa", "tourism": "artwork", "website": "https://www.visegrad.hu/visegrad-millenniumi-emlekmuve"}}, {"type": "node", "id": 4453318306, "lat": 47.7945555, "lon": 18.733241, "tags": {"artist_name": "Szerv\u00e1tiusz Tibor", "artwork_type": "sculpture", "name": "H\u00eddoltalmaz\u00f3 Boldogasszony", "name:de": "Unsere Liebe Frau, die Br\u00fcckensch\u00fctzerin", "name:en": "Our Lady Protector of Bridges", "tourism": "artwork"}}, {"type": "node", "id": 4627566067, "lat": 47.7809078, "lon": 18.7480986, "tags": {"artwork_type": "statue", "name": "A b\u00e9ke angyala-szobor", "name:de": "Friedensengel", "name:en": "Angel of Peace", "tourism": "artwork"}}, {"type": "node", "id": 4801784233, "lat": 47.7925361, "lon": 18.598312, "tags": {"tourism": "artwork"}}, {"type": "node", "id": 4809600031, "lat": 47.7956283, "lon": 18.7398794, "tags": {"artist_name": "Holl\u00f3 Korn\u00e9l", "artwork_type": "statue", "name": "Anya \u00e9s gyermeke", "name:de": "Mutter und Kind", "name:en": "Mother and Child", "tourism": "artwork"}}, {"type": "node", "id": 4809600032, "lat": 47.7928062, "lon": 18.7456787, "tags": {"artist_name": "V\u00f6r\u00f6s B\u00e9la", "artwork_type": "statue", "name": "Haldokl\u00f3 fi\u00fa", "name:de": "Sterbender Junge", "name:en": "Dying boy", "tourism": "artwork"}}, {"type": "node", "id": 4993140288, "lat": 47.8288661, "lon": 18.7919131, "tags": {"artwork_type": "sculpture", "source": "survey", "tourism": "artwork"}}, {"type": "node", "id": 5481252025, "lat": 47.7998715, "lon": 18.7420458, "tags": {"tourism": "artwork"}}, {"type": "node", "id": 5512605854, "lat": 47.7852157, "lon": 19.1242177, "tags": {"artwork_type": "statue", "name": "F\u00f3ka", "tourism": "artwork"}}, {"type": "node", "id": 5697190335, "lat": 47.7874075, "lon": 18.9602747, "tags": {"artist_name": "Seregi Gy\u00f6rgy", "email": "seregi@seregi.hu", "is_in": "Dunakanyar", "name": "Millenniumi \u201eEml\u00e9kk\u00fat\u201d", "tourism": "artwork", "website": "https://www.seregi.hu"}}, {"type": "node", "id": 5839114060, "lat": 47.786962, "lon": 18.9565075, "tags": {"artist_name": "Zoller Csaba", "artwork_type": "sculpture", "name": "K\u00fck\u00fcll\u0151", "source": "survey 2018-08-17", "tourism": "artwork"}}, {"type": "node", "id": 6257333717, "lat": 47.7973787, "lon": 18.9819416, "tags": {"artwork_type": "sculpture", "denomination": "catholic", "is_in": "Pilis - Visegr\u00e1di-hegys\u00e9g", "material": "stone", "name": "Esperesi eml\u00e9kkereszt", "religion": "christian", "tourism": "artwork"}}, {"type": "node", "id": 6346800320, "lat": 47.8206525, "lon": 19.0403554, "tags": {"material": "wood", "tourism": "artwork"}}, {"type": "node", "id": 6376348374, "lat": 48.1231771, "lon": 18.6277914, "tags": {"artwork_type": "statue", "tourism": "artwork"}}, {"type": "node", "id": 6406067152, "lat": 47.7873552, "lon": 18.9705004, "tags": {"artwork_type": "bust", "mapillary": "940120510110201", "tourism": "artwork"}}, {"type": "node", "id": 6406067154, "lat": 47.7837058, "lon": 18.9696148, "tags": {"artwork_type": "statue", "mapillary": "1916676268487271", "material": "stone", "tourism": "artwork"}}, {"type": "node", "id": 6550730653, "lat": 47.8216983, "lon": 19.0344926, "tags": {"inscription": "A nevezetes Duna t\u00e1mfal", "memorial": "plaque", "support": "wall_mounted", "tourism": "artwork"}}, {"type": "node", "id": 7416900130, "lat": 47.7917046, "lon": 18.7402087}, {"type": "node", "id": 7416900131, "lat": 47.7917108, "lon": 18.740206}, {"type": "node", "id": 7416900132, "lat": 47.7917172, "lon": 18.7402065}, {"type": "node", "id": 7416900133, "lat": 47.7917232, "lon": 18.7402099}, {"type": "node", "id": 7416900134, "lat": 47.7917199, "lon": 18.7402635}, {"type": "node", "id": 7416900135, "lat": 47.7917133, "lon": 18.7402652}, {"type": "node", "id": 7416900136, "lat": 47.7917066, "lon": 18.7402636}, {"type": "node", "id": 7416900137, "lat": 47.7917007, "lon": 18.7402588}, {"type": "node", "id": 7416900138, "lat": 47.7917282, "lon": 18.740216}, {"type": "node", "id": 7416900139, "lat": 47.7917315, "lon": 18.7402241}, {"type": "node", "id": 7416900140, "lat": 47.791733, "lon": 18.7402335}, {"type": "node", "id": 7416900141, "lat": 47.7917324, "lon": 18.740243}, {"type": "node", "id": 7416900142, "lat": 47.7917298, "lon": 18.7402518}, {"type": "node", "id": 7416900143, "lat": 47.7917255, "lon": 18.7402588}, {"type": "node", "id": 7416900144, "lat": 47.7916963, "lon": 18.7402514}, {"type": "node", "id": 7416900145, "lat": 47.7916937, "lon": 18.7402421}, {"type": "node", "id": 7416900146, "lat": 47.7916933, "lon": 18.7402322}, {"type": "node", "id": 7416900147, "lat": 47.7916952, "lon": 18.7402226}, {"type": "node", "id": 7416900148, "lat": 47.7916991, "lon": 18.7402144}, {"type": "node", "id": 7418778260, "lat": 47.8033745, "lon": 18.740716, "tags": {"tourism": "artwork"}}, {"type": "node", "id": 7647069667, "lat": 47.8382713, "lon": 18.8315517, "tags": {"artwork_type": "statue", "memorial": "statue", "subject": "Nepomuki Szent J\u00e1nos", "subject:wikidata": "Q221522", "tourism": "artwork"}}, {"type": "node", "id": 7647167170, "lat": 47.8258843, "lon": 19.0137613, "tags": {"artwork_type": "statue", "mapillary": "792200371436664", "tourism": "artwork"}}, {"type": "node", "id": 7673769582, "lat": 47.7706455, "lon": 19.139189, "tags": {"artwork_type": "statue", "tourism": "artwork"}}, {"type": "node", "id": 7825978775, "lat": 47.8781965, "lon": 18.9322557, "tags": {"artwork_type": "statue", "material": "wood", "tourism": "artwork"}}, {"type": "node", "id": 8035375831, "lat": 47.773077, "lon": 19.1312476, "tags": {"artwork_type": "statue", "tourism": "artwork"}}, {"type": "node", "id": 8509526394, "lat": 47.7873394, "lon": 19.1330142, "tags": {"artwork_type": "stone", "name": "Lidl", "tourism": "artwork"}}, {"type": "node", "id": 8569418993, "lat": 47.771022, "lon": 19.1425819, "tags": {"artwork_type": "statue", "tourism": "artwork"}}, {"type": "node", "id": 8665043791, "lat": 47.7765883, "lon": 19.1312816, "tags": {"artwork_type": "statue", "tourism": "artwork"}}, {"type": "node", "id": 8691433065, "lat": 47.7958819, "lon": 18.7380475, "tags": {"artwork_type": "statue", "tourism": "artwork"}}, {"type": "node", "id": 8712691303, "lat": 47.7884564, "lon": 18.9609821, "tags": {"artwork_type": "statue", "description": "18.szd-i n\u00e9met telepesek j\u00f6ttek Rajna-Mainz vid\u00e9k\u00e9r\u0151l. Haj\u00f3ik protot\u00edpusa az ulmi skatulya. Fa tutaj tet\u0151vel, makett.", "historic": "memorial", "material": "wood", "memorial": "statue", "name": "Ulmi skatulya", "name:de": "Ulmer Schachtel", "tourism": "artwork", "url": "https://dunaiszigetek.blogspot.com/2013/01/ulmi-skatulyak.html", "wikidata": "Q2475383", "wikipedia": "de:Ulmer Schachtel"}}, {"type": "node", "id": 8719665902, "lat": 47.8305259, "lon": 19.0174319, "tags": {"tourism": "artwork"}}, {"type": "node", "id": 8913737347, "lat": 47.793609, "lon": 18.738066, "tags": {"artist_name": "G\u00fagyela Tam\u00e1s", "artwork_type": "statue", "description": "Egyel\u0151re az \u00e9p\u00fcletben a menti nagyteremben avatt\u00e1k f\u00f6l a szobrot. Tervezik kihelyezni k\u00f6zt\u00e9rre.", "name": "Rem\u00e9nyi K\u00e1roly", "source": "https://www.kemma.hu/kozelet/helyi-kozelet/szobor-orzi-a-hires-esztergomi-karnagy-emleket-4063871/", "start_date": "2021.07.12", "tourism": "artwork"}}, {"type": "node", "id": 8941418226, "lat": 48.0044464, "lon": 19.0899358, "tags": {"artwork_type": "statue", "name": "Nepomuki Szt. J\u00e1nos-szobor", "tourism": "artwork"}}, {"type": "node", "id": 8980249856, "lat": 47.9295313, "lon": 19.1381852, "tags": {"artist_name": "Kall\u00f3 Viktor", "artwork_type": "statue", "material": "limestone;copper", "name": "Felszabadul\u00e1si eml\u00e9km\u0171", "tourism": "artwork"}}, {"type": "node", "id": 9071464791, "lat": 47.8267421, "lon": 19.0066825, "tags": {"artwork_type": "statue", "tourism": "artwork"}}, {"type": "node", "id": 9085561624, "lat": 48.0208007, "lon": 18.8943668, "tags": {"artwork_type": "statue", "name": "Nepomuki", "tourism": "artwork"}}, {"type": "node", "id": 9085561632, "lat": 48.0349451, "lon": 18.9144042, "tags": {"artwork_type": "statue", "name": "szent h\u00e1roms\u00e1g", "tourism": "artwork"}}, {"type": "node", "id": 9121013050, "lat": 47.7939944, "lon": 18.7374235, "tags": {"name": "Aranyhalak", "tourism": "artwork"}}, {"type": "node", "id": 9326871198, "lat": 47.9943746, "lon": 18.6584564, "tags": {"artwork_type": "statue", "tourism": "artwork"}}, {"type": "node", "id": 9327559981, "lat": 48.007836, "lon": 18.6548765, "tags": {"artwork_type": "statue", "tourism": "artwork"}}, {"type": "node", "id": 9376180076, "lat": 47.9263996, "lon": 19.1357407, "tags": {"artwork_type": "statue", "material": "concrete", "name": "Els\u0151 vil\u00e1gh\u00e1bor\u00fas eml\u00e9km\u0171", "tourism": "artwork"}}, {"type": "node", "id": 9543449023, "lat": 47.9075278, "lon": 19.0491711, "tags": {"artwork_type": "statue", "inscription": "M\u00e1jus 16. 1856 - 1957", "name": "Nepomuki Szent J\u00e1nos", "name:en": "John of Nepomuk", "start_date": "1856", "tourism": "artwork", "wikimedia_commons": "File:N\u00f3gr\u00e1d, Nepomuki Szent J\u00e1nos-szobor 2020 01.jpg"}}, {"type": "node", "id": 9543449025, "lat": 47.907566, "lon": 19.0494373, "tags": {"artwork_type": "statue", "inscription": "1848-1948", "tourism": "artwork"}}, {"type": "node", "id": 9647023715, "lat": 47.7979242, "lon": 18.9977384, "tags": {"addr:city": "Visegr\u00e1d", "addr:postcode": "2025", "addr:street": "Panor\u00e1ma \u00fat", "addr:suburb": "Mogyor\u00f3hegy", "artist_name": "Makovecz Imre, Kossuth- \u00e9s Ybl Mikl\u00f3s-d\u00edjas \u00e9p\u00edt\u00e9sz, a Magyar M\u0171v\u00e9szeti Akad\u00e9mia alap\u00edt\u00f3ja, \u00f6r\u00f6k\u00f6s tiszteletbeli eln\u00f6ke", "artwork_type": "statue", "material": "wood", "name": "Nagy L\u00e1szl\u00f3 sz\u00e9ke (Makovecz)", "opening_hours": "24/7", "tourism": "artwork", "website": "https://makovecz.hu/utak/epuletek/nagy-laszlo-szeke-mogyorohegy-visegrad/"}}, {"type": "node", "id": 9680717097, "lat": 48.0636917, "lon": 19.0584015, "tags": {"artwork_type": "statue", "material": "stone", "name": "Pieta a sv. Anna", "source": "https://www.pamiatky.sk/nkp-a-po/register-po/?inNkp=7395", "tourism": "artwork"}}, {"type": "node", "id": 9724474428, "lat": 47.7794512, "lon": 19.1262103, "tags": {"alt_name": "Cs\u00fazlis", "artist:wikidata": "Q56525284", "artist_name": "Mihajlo Kolodko", "artist_name:hu": "Kolodko Mih\u00e1ly", "artwork_subject": "figurative", "artwork_type": "statue", "contact:email": "info@kolodkoart.com", "contact:facebook": "https://www.facebook.com/misha.kolodko", "contact:instagram": "kolodkomini", "contact:website": "http://kolodkoart.com/", "location": "wall", "material": "bronze", "name": "Barokksarok", "start_date": "2021-07-07", "tourism": "artwork", "url": "https://www.kozterkep.hu/43403/barokksarok"}}, {"type": "node", "id": 9724474429, "lat": 47.7823154, "lon": 19.132932, "tags": {"artist:wikidata": "Q56525284", "artist_name": "Mihajlo Kolodko", "artist_name:hu": "Kolodko Mih\u00e1ly", "artwork_subject": "figurative", "artwork_type": "statue", "contact:email": "info@kolodkoart.com", "contact:facebook": "https://www.facebook.com/misha.kolodko", "contact:instagram": "kolodkomini", "contact:website": "http://kolodkoart.com/", "material": "stone;bronze", "name": "Any\u00e1m ty\u00fakja", "name:en": "My Mother's Hen", "start_date": "2021-07-02", "tourism": "artwork", "url": "https://www.kozterkep.hu/43355/anyam-tyukja"}}, {"type": "node", "id": 9724474430, "lat": 47.7836609, "lon": 19.1220046, "tags": {"artist:wikidata": "Q56525284", "artist_name": "Mihajlo Kolodko", "artist_name:hu": "Kolodko Mih\u00e1ly", "artwork_subject": "figurative", "artwork_type": "statue", "contact:email": "info@kolodkoart.com", "contact:facebook": "https://www.facebook.com/misha.kolodko", "contact:instagram": "kolodkomini", "contact:website": "http://kolodkoart.com/", "material": "stone;bronze", "name": "M\u00e1ria Ter\u00e9zia ekszt\u00e1zisa", "name:en": "Ecstasy of Maria Theresa", "start_date": "2021-06-29", "tourism": "artwork", "url": "https://www.kozterkep.hu/43354/maria-terezia-eksztazisa"}}, {"type": "node", "id": 9887692312, "lat": 47.7857777, "lon": 18.7024495, "tags": {"artwork_type": "statue", "material": "bronze", "tourism": "artwork"}}, {"type": "node", "id": 9887693609, "lat": 47.7895535, "lon": 18.7129477, "tags": {"artwork_subject": "Mu\u017e a \u017eena", "artwork_type": "statue", "material": "metal", "tourism": "artwork"}}, {"type": "node", "id": 9908378147, "lat": 47.7768282, "lon": 19.1255259, "tags": {"artwork_type": "statue", "material": "metal", "name": "Szent Erzs\u00e9bet", "tourism": "artwork"}}, {"type": "node", "id": 9908378160, "lat": 47.8484173, "lon": 19.04973, "tags": {"artwork_type": "sculpture", "name": "Szeret az Isten", "tourism": "artwork"}}, {"type": "node", "id": 9933109639, "lat": 47.7864033, "lon": 18.9671835, "tags": {"artwork_type": "sculpture", "image": "https://i.imgur.com/N191sTB.jpg", "tourism": "artwork"}}, {"type": "node", "id": 9954880800, "lat": 47.8364803, "lon": 18.8347894, "tags": {"artwork_type": "sculpture", "name": "Ipolydam\u00e1sd", "note": "inscription Ipolydam\u00e1sd and statue of an apple", "tourism": "artwork"}}, {"type": "node", "id": 10035858946, "lat": 47.7994071, "lon": 18.7335608, "tags": {"artwork_type": "statue", "direction": "175", "material": "sandstone", "name": "M\u00e1ty\u00e1s kir\u00e1ly - homokszobra", "tourism": "artwork"}}, {"type": "node", "id": 10054091964, "lat": 47.769293, "lon": 19.139475, "tags": {"artist_name": "Bechert J\u00f3zsef", "artwork_type": "statue", "material": "stone", "name": "Szent Kamill", "start_date": "1758", "tourism": "artwork"}}, {"type": "node", "id": 10054091967, "lat": 47.7690522, "lon": 19.1395023, "tags": {"artwork_type": "statue", "name": "Szent Ven\u00e1nc", "tourism": "artwork"}}, {"type": "node", "id": 10054091968, "lat": 47.7693106, "lon": 19.1397175, "tags": {"artist_name": "Bechert J\u00f3zsef", "artwork_type": "statue", "name": "Szent Borb\u00e1la", "start_date": "1758", "tourism": "artwork"}}, {"type": "node", "id": 10054091973, "lat": 47.7690701, "lon": 19.1397529, "tags": {"artist_name": "Bechert J\u00f3zsef", "artwork_type": "statue", "material": "stone", "name": "Szent J\u00fad\u00e1s T\u00e1d\u00e9", "start_date": "1758", "tourism": "artwork"}}, {"type": "node", "id": 10054091977, "lat": 47.7691881, "lon": 19.1395237, "tags": {"artist_name": "Bechert J\u00f3zsef", "artwork_type": "statue", "material": "stone", "name": "Nepomuki Szent J\u00e1nos", "start_date": "1752", "tourism": "artwork"}}, {"type": "node", "id": 10054091978, "lat": 47.7691946, "lon": 19.1396913, "tags": {"artist_name": "Bechert J\u00f3zsef", "artwork_type": "statue", "material": "stone", "name": "Szent P\u00e9ter \u00e9s P\u00e1l", "start_date": "1758", "tourism": "artwork"}}, {"type": "node", "id": 10222927411, "lat": 47.7998214, "lon": 18.9934751, "tags": {"material": "wood", "tourism": "artwork"}}, {"type": "node", "id": 10224934140, "lat": 47.7835185, "lon": 18.9711326, "tags": {"artwork_type": "mural", "material": "stone", "tourism": "artwork"}}, {"type": "node", "id": 10241879253, "lat": 48.1295776, "lon": 18.9487448, "tags": {"artwork_type": "statue", "material": "stone", "name": "sv. J\u00e1n Nepomuck\u00fd", "tourism": "artwork"}}, {"type": "node", "id": 10241879254, "lat": 48.1255333, "lon": 18.9450002, "tags": {"artwork_type": "statue", "material": "stone", "name": "Najsv\u00e4tej\u0161ia Trojica", "religion": "christian", "tourism": "artwork"}}, {"type": "node", "id": 10252522941, "lat": 48.1553336, "lon": 18.8742212, "tags": {"artwork_type": "statue", "name": "sv. J\u00e1n Nepomuck\u00fd", "tourism": "artwork"}}, {"type": "node", "id": 10695986678, "lat": 47.8313925, "lon": 18.7269379, "tags": {"artwork_type": "statue", "material": "stone", "name:hu": "Nepomuki Szent J\u00e1nos", "start_date": "1880", "tourism": "artwork"}}, {"type": "way", "id": 58143901, "nodes": [721402456, 721408756, 721424085, 721426365, 721402456], "tags": {"area": "yes", "artwork_type": "statue", "import": "budovy201004", "material": "stone", "source": "kapor2", "tourism": "artwork"}}, {"type": "way", "id": 793194782, "nodes": [7416900144, 7416900145, 7416900146, 7416900147, 7416900148, 7416900130, 7416900131, 7416900132, 7416900133, 7416900138, 7416900139, 7416900140, 7416900141, 7416900142, 7416900143, 7416900134, 7416900135, 7416900136, 7416900137, 7416900144], "tags": {"area": "yes", "tourism": "artwork"}}]}