{"version": 0.6, "generator": "Overpass API 0.7.59 e21c39fe", "osm3s": {"timestamp_osm_base": "2023-03-01T08:51:03Z", "copyright": "The data included in this document is from www.openstreetmap.org. The data is made available under ODbL."}, "elements": [{"type": "node", "id": 2682697594, "lat": 47.229909, "lon": 16.6213263, "tags": {"artwork_type": "statue", "direction": "320", "height": "2", "material": "metal", "name": "Szombathelyi polg\u00e1rok", "tourism": "artwork", "website": "http://szombathely.varosom.hu/latnivalok/szobrok/Szombathelyi-polgarok-szobor.html"}}, {"type": "node", "id": 2935964401, "lat": 47.2329385, "lon": 16.6309144, "tags": {"alt_name": "Szent M\u00e1rton K\u00fatja", "artwork_type": "statue", "name": "Szent M\u00e1rton megkereszteli \u00e9desanyj\u00e1t", "tourism": "artwork"}}, {"type": "node", "id": 2973596882, "lat": 47.2306751, "lon": 16.6306566, "tags": {"artist_name": "Tornay Endre Andr\u00e1s", "artwork_type": "relief", "name": "Bercs\u00e9nyi Mikl\u00f3s", "tourism": "artwork"}}, {"type": "node", "id": 2973596883, "lat": 47.2280339, "lon": 16.6333836, "tags": {"artist_name": "Kir\u00e1ly S\u00e1ndor", "artwork_type": "painting", "name": "Falfestm\u00e9ny", "tourism": "artwork"}}, {"type": "node", "id": 2989885952, "lat": 47.2337625, "lon": 16.5999038, "tags": {"name": "Emberp\u00e1r", "note": "2015. tavasz\u00e1n \u00e1thelyezve", "tourism": "artwork"}}, {"type": "node", "id": 3035311058, "lat": 47.1980563, "lon": 16.4086553}, {"type": "node", "id": 3035311066, "lat": 47.1981036, "lon": 16.4085259}, {"type": "node", "id": 3035311079, "lat": 47.1982058, "lon": 16.4087737}, {"type": "node", "id": 3035311083, "lat": 47.1982531, "lon": 16.4086444}, {"type": "node", "id": 3048530315, "lat": 47.2336685, "lon": 16.6252975, "tags": {"artist_name": "Somogyi Tam\u00e1s", "name": "Szent M\u00e1rton l\u00fadjai", "tourism": "artwork"}}, {"type": "node", "id": 3158263918, "lat": 47.2404001, "lon": 16.6252368, "tags": {"artwork_type": "statue", "name": "Neumann J\u00e1nos", "tourism": "artwork"}}, {"type": "node", "id": 3177333066, "lat": 47.2316403, "lon": 16.6250054, "tags": {"artist_name": "Koller L\u00e1szl\u00f3", "artwork_type": "statue", "material": "steel", "name": "M\u00e1rton p\u00fcsp\u00f6k ruh\u00e1it egy koldusnak adja", "tourism": "artwork"}}, {"type": "node", "id": 3190621813, "lat": 47.2327201, "lon": 16.6025042, "tags": {"artwork_type": "statue", "material": "k\u0151", "tourism": "artwork"}}, {"type": "node", "id": 3191210322, "lat": 47.2302548, "lon": 16.6123599, "tags": {"artwork_type": "stone", "name": "Alma szobor", "tourism": "artwork"}}, {"type": "node", "id": 3194536725, "lat": 47.0087186, "lon": 16.6046798, "tags": {"artist_name": "Johann Martin Fischer", "artwork_type": "statue", "name": "M\u00e1ria Immaculata", "start_date": "1822", "tourism": "artwork"}}, {"type": "node", "id": 3194536745, "lat": 47.008829, "lon": 16.6041344, "tags": {"tourism": "artwork"}}, {"type": "node", "id": 3197264144, "lat": 47.0085481, "lon": 16.6064833, "tags": {"artwork_type": "statue", "description": "Olvas\u00f3 l\u00e1ny", "material": "stone", "name": "Olvas\u00f3 l\u00e1ny", "tourism": "artwork"}}, {"type": "node", "id": 3203011218, "lat": 47.2258709, "lon": 16.6050022, "tags": {"artist_name": "Koller L\u00e1szl\u00f3", "material": "metal", "name": "Szent M\u00e1rton el\u0171zet\u00e9se", "tourism": "artwork"}}, {"type": "node", "id": 3203019164, "lat": 47.2252572, "lon": 16.6044789, "tags": {"artist_name": "Somogyi Tam\u00e1s", "name": "M\u00e1rton, a hittanul\u00f3 \u00f6lt\u00f6ztet engem", "official_name": "Szent M\u00e1rton megosztja k\u00f6peny\u00e9t, Szent M\u00e1rton \u00e1lma", "tourism": "artwork"}}, {"type": "node", "id": 3203025985, "lat": 47.2288363, "lon": 16.6174051, "tags": {"artist_name": "Veres G\u00e1bor", "material": "metal", "name": "Quirinus cinguluma", "tourism": "artwork"}}, {"type": "node", "id": 3239898482, "lat": 47.0099361, "lon": 16.6087865, "tags": {"artist_name": "Johann Martin Fischer", "artwork_type": "statue", "description": "Rekonstru\u00e1lva:\nIlly\u00e9s Antal 2001", "material": "stone", "name": "Zephirus \u00e9s Flora", "name:fr": "Zephirus et Flora", "tourism": "artwork"}}, {"type": "node", "id": 3239898487, "lat": 47.0103193, "lon": 16.608536, "tags": {"artist_name": "Johann Martin Fischer", "artwork_type": "statue", "material": "stone", "name": "Vertumnus \u00e9s Pomona", "name:fr": "Vertumnus et Pomona", "tourism": "artwork"}}, {"type": "node", "id": 3269500469, "lat": 47.2292024, "lon": 16.6039801, "tags": {"tourism": "artwork"}}, {"type": "node", "id": 3284134896, "lat": 47.2368556, "lon": 16.622664, "tags": {"artwork_type": "statue", "name": "Pelik\u00e1n szobor", "tourism": "artwork"}}, {"type": "node", "id": 3286581359, "lat": 47.2307885, "lon": 16.6117796, "tags": {"artwork_type": "statue", "tourism": "artwork"}}, {"type": "node", "id": 3347767329, "lat": 47.2318346, "lon": 16.6204132, "tags": {"artist_name": "Navratil Ferenc", "artwork_type": "mural", "name": "Szombathely t\u00f6rt\u00e9nete (\u00f3ri\u00e1s falfestm\u00e9ny)", "start_date": "2000", "tourism": "artwork"}}, {"type": "node", "id": 3349627298, "lat": 47.2356479, "lon": 16.621618, "tags": {"artist_name": "P\u00e1rk\u00e1nyi P\u00e9ter", "artwork_type": "statue", "name": "\u00c1ldozati eml\u00e9km\u0171", "start_date": "1995", "tourism": "artwork"}}, {"type": "node", "id": 3349709366, "lat": 47.2351861, "lon": 16.6292226, "tags": {"artwork_type": "sculpture", "name": "N\u0151i portr\u00e9", "tourism": "artwork"}}, {"type": "node", "id": 3349715574, "lat": 47.2272208, "lon": 16.6222715, "tags": {"artist_name": "Tar Istv\u00e1n", "artwork_type": "sculpture", "name": "Guzsalyos n\u0151", "start_date": "1990", "tourism": "artwork"}}, {"type": "node", "id": 3349724751, "lat": 47.2308528, "lon": 16.6223716, "tags": {"artist_name": "Veres G\u00e1bor", "artwork_subject": "figurative", "artwork_type": "statue", "material": "metal", "name": "James Joyce", "source:website": "https://www.kozterkep.hu/5917/james-joyce", "start_date": "2004-06-16", "tourism": "artwork"}}, {"type": "node", "id": 3349837901, "lat": 47.2364864, "lon": 16.595242, "tags": {"artist_name": "N\u00e9meth Mih\u00e1ly", "artwork_type": "sculpture", "name": "Vasi paraszt", "start_date": "1973", "tourism": "artwork"}}, {"type": "node", "id": 3349837902, "lat": 47.229157, "lon": 16.6217772, "tags": {"artist_name": "Majth\u00e9nyi K\u00e1roly", "artwork_type": "sculpture", "fixme": "artist", "name": "\u00dcnnepi menet \u00cdzisz tisztelet\u00e9re", "tourism": "artwork"}}, {"type": "node", "id": 3377209566, "lat": 46.897203, "lon": 16.666665, "tags": {"name": "M\u00e1ria-szobor", "source": "turistautak.hu", "tourism": "artwork", "url": "http://turistautak.hu/poi.php?id=78452"}}, {"type": "node", "id": 3404491111, "lat": 47.1016463, "lon": 16.6943367, "tags": {"historic": "wayside_cross", "name": "M\u00e1ria szobor", "tourism": "artwork"}}, {"type": "node", "id": 3459862969, "lat": 46.9872473, "lon": 16.6566508, "tags": {"artwork_type": "statue", "name": "M\u00e1ria-szobor", "source": "turistautak.hu", "source:date": "2011-09-19", "tourism": "artwork", "url": "http://turistautak.hu/poi.php?id=7711"}}, {"type": "node", "id": 3459863003, "lat": 46.936157, "lon": 16.520267, "tags": {"artwork_type": "statue", "fixme": "resurvey (source was old)", "name": "Sz\u0171z M\u00e1ria-szobor", "source": "turistautak.hu", "source:date": "2008-12-11", "tourism": "artwork", "url": "http://turistautak.hu/poi.php?id=25141"}}, {"type": "node", "id": 3459863166, "lat": 46.99121, "lon": 16.70062, "tags": {"artwork_type": "statue", "source": "turistautak.hu", "source:date": "2011-09-19", "tourism": "artwork", "url": "http://turistautak.hu/poi.php?id=7717"}}, {"type": "node", "id": 3465190201, "lat": 46.948615, "lon": 16.278892, "tags": {"artwork_type": "statue", "name": "M\u00e1ria-szobor", "source": "turistautak.hu", "source:date": "2012-05-22", "tourism": "artwork", "url": "http://turistautak.hu/poi.php?id=27392"}}, {"type": "node", "id": 3468232459, "lat": 47.0622423, "lon": 16.3272692, "tags": {"alt_name": "Tropfensymbol", "artwork_type": "sculpture", "name": "gr\u00fcner Tropfen", "tourism": "artwork", "wheelchair": "limited"}}, {"type": "node", "id": 3474961047, "lat": 47.1934038, "lon": 16.4474228, "tags": {"artwork_type": "statue", "name": "Szoborcsoport", "source": "turistautak.hu", "source:date": "2011-09-06", "tourism": "artwork", "url": "http://turistautak.hu/poi.php?id=41790"}}, {"type": "node", "id": 3542091324, "lat": 47.2358834, "lon": 16.6329185, "tags": {"artwork_type": "sculpture", "material": "metal", "tourism": "artwork"}}, {"type": "node", "id": 3700076831, "lat": 47.1397333, "lon": 16.460591, "tags": {"name": "Kunstobjekt", "tourism": "artwork"}}, {"type": "node", "id": 4466205489, "lat": 47.0997262, "lon": 16.6753264, "tags": {"name": "M\u00e1ria oszlop", "tourism": "artwork"}}, {"type": "node", "id": 5320017725, "lat": 47.2309555, "lon": 16.6220746, "tags": {"artist_name": "ifj. Blask\u00f3 J\u00e1nos", "artwork_subject": "figurative", "artwork_type": "statue", "colour": "grey", "direction": "90", "height": "3", "material": "stone", "min_height": "1.4", "name": "Szerelmesp\u00e1r", "source:website": "https://www.kozterkep.hu/5926/faunok-szokokut", "start_date": "2006", "tourism": "artwork"}}, {"type": "node", "id": 5320017726, "lat": 47.2309185, "lon": 16.6221162, "tags": {"artist_name": "ifj. Blask\u00f3 J\u00e1nos", "artwork_subject": "figurative", "artwork_type": "statue", "colour": "gray", "direction": "30", "height": "4", "material": "stone", "min_height": "3", "name": "Faunok", "source:website": "https://www.kozterkep.hu/5926/faunok-szokokut", "start_date": "2006", "tourism": "artwork"}}, {"type": "node", "id": 5320017735, "lat": 47.2309288, "lon": 16.6213798}, {"type": "node", "id": 5320017736, "lat": 47.2309378, "lon": 16.6214365}, {"type": "node", "id": 5320017737, "lat": 47.2308982, "lon": 16.6214501}, {"type": "node", "id": 5320017738, "lat": 47.2308892, "lon": 16.6213935}, {"type": "node", "id": 5815515760, "lat": 47.0131102, "lon": 16.6125688, "tags": {"artwork_type": "stone", "material": "stone", "tourism": "artwork"}}, {"type": "node", "id": 5815516044, "lat": 47.0110323, "lon": 16.6099627, "tags": {"artwork_type": "stone", "tourism": "artwork"}}, {"type": "node", "id": 5848409826, "lat": 47.0083242, "lon": 16.6061362, "tags": {"tourism": "artwork"}}, {"type": "node", "id": 5898808829, "lat": 47.0100354, "lon": 16.6047936, "tags": {"artist_name": "Horv\u00e1th R\u00f3bert", "artwork_type": "statue", "name": "Millenniumi eml\u00e9km\u0171", "start_date": "2001", "tourism": "artwork", "website": "https://www.kozterkep.hu/~/5928/Millenniumi_emlekmu_Kormend_2001.html"}}, {"type": "node", "id": 5898808830, "lat": 47.0113581, "lon": 16.6058178, "tags": {"artist_name": "N\u00e9meth Dezs\u0151", "artwork_type": "carving", "name": "B\u00f6d\u00f6nhaj\u00f3", "start_date": "2006", "tourism": "artwork"}}, {"type": "node", "id": 5898808831, "lat": 47.0142237, "lon": 16.6019335, "tags": {"artist_name": "Szemereki Ter\u00e9z", "artwork_type": "statue", "name": "Csavart oszlop", "tourism": "artwork"}}, {"type": "node", "id": 5906900619, "lat": 47.0105583, "lon": 16.6018315, "tags": {"name": "Kosarasok", "tourism": "artwork"}}, {"type": "node", "id": 6071639486, "lat": 47.0066832, "lon": 16.6065103, "tags": {"artwork_type": "statue", "tourism": "artwork"}}, {"type": "node", "id": 6089949056, "lat": 47.0107169, "lon": 16.6061633, "tags": {"artist_name": "Johann Martin Fisher", "artwork_type": "statue", "name": "Kybel\u00e9 szobor", "tourism": "artwork"}}, {"type": "node", "id": 6195980016, "lat": 47.0024538, "lon": 16.5591501, "tags": {"artwork_type": "statue", "name": "Immaculata-szobor", "tourism": "artwork"}}, {"type": "node", "id": 6316879137, "lat": 46.9448805, "lon": 16.4219371, "tags": {"artwork_type": "statue", "tourism": "artwork"}}, {"type": "node", "id": 6434062132, "lat": 47.2308225, "lon": 16.6212948, "tags": {"artist_name": "J\u00e1nos Hudetz", "artwork_type": "statue", "colour": "#ff9950", "direction": "255", "height": "11", "length": "0.75", "material": "stone", "min_height": "9", "name": "Szenth\u00e1roms\u00e1g-szobor", "tourism": "artwork", "website": "http://szombathely.varosom.hu/latnivalok/szobrok/Szentharomsag-szobor-5.html", "width": "0.5"}}, {"type": "node", "id": 6463117237, "lat": 47.241531, "lon": 16.6138126, "tags": {"artwork_type": "statue", "colour": "black", "height": "1.5", "material": "metal", "tourism": "artwork"}}, {"type": "node", "id": 6492388541, "lat": 47.0361002, "lon": 16.6504699, "tags": {"tourism": "artwork"}}, {"type": "node", "id": 6508705264, "lat": 46.9121032, "lon": 16.7211763, "tags": {"name": "Faragott fa", "tourism": "artwork"}}, {"type": "node", "id": 6535928180, "lat": 47.0136488, "lon": 16.6110343, "tags": {"name": "Egykori szobor talapzata", "tourism": "artwork"}}, {"type": "node", "id": 7064461785, "lat": 47.2133875, "lon": 16.444543, "tags": {"artwork_type": "statue", "name": "Szenth\u00e1roms\u00e1g-szobor", "start_date": "1905", "tourism": "artwork"}}, {"type": "node", "id": 7071969185, "lat": 47.26421, "lon": 16.4937575, "tags": {"artist_name": "Hencz J\u00e1nos", "artwork_type": "statue", "name": "Danaida", "source": "kozterkep.hu", "start_date": "2007", "tourism": "artwork"}}, {"type": "node", "id": 7640192838, "lat": 46.9606534, "lon": 16.5696745, "tags": {"artwork_type": "sculpture", "memorial": "stone", "tourism": "artwork"}}, {"type": "node", "id": 7640192843, "lat": 46.9595118, "lon": 16.5691036, "tags": {"artwork_type": "statue", "material": "wood", "name": "F\u00e9rfi torz\u00f3", "tourism": "artwork", "website": "https://www.kozterkep.hu/22983/ferfi-torzo#"}}, {"type": "node", "id": 7640192855, "lat": 46.9601513, "lon": 16.5692695, "tags": {"artwork_type": "statue", "tourism": "artwork"}}, {"type": "node", "id": 7640192856, "lat": 46.960034, "lon": 16.5690519, "tags": {"artwork_type": "statue", "material": "wood", "name": "N\u0151i alak", "tourism": "artwork", "website": "https://www.kozterkep.hu/22845/noi-alak"}}, {"type": "node", "id": 7658092985, "lat": 47.0857156, "lon": 16.6824066, "tags": {"name": "M\u00e1ria szobor", "tourism": "artwork"}}, {"type": "node", "id": 7734828925, "lat": 46.8883976, "lon": 16.5362724, "tags": {"artwork_type": "statue", "tourism": "artwork"}}, {"type": "node", "id": 7976306721, "lat": 47.240566, "lon": 16.4217501, "tags": {"alt_name": "Dreifaltigkeitss\u00e4ule", "artwork_type": "sculpture", "denomination": "catholic", "heritage": "2", "heritage:operator": "bda", "historic": "memorial", "image": "https://commons.wikimedia.org/wiki/File:Schandorf_-_Throne_of_Mercy_(01).jpg", "name": "Gnadenstuhl", "on_the_list:wikidata": "Q38128598", "on_the_list:wikipedia": "de:Liste der denkmalgesch\u00fctzten Objekte in Schandorf#objektid-8508", "ref:at:bda": "8508", "religion": "christian", "tourism": "artwork"}}, {"type": "node", "id": 8179696214, "lat": 47.0109276, "lon": 16.597251, "tags": {"artwork_type": "sculpture", "tourism": "artwork"}}, {"type": "node", "id": 8396600431, "lat": 47.1748306, "lon": 16.3581361, "tags": {"artwork_subject": "religious", "artwork_type": "statue", "heritage": "2", "heritage:operator": "bda", "name": "Johannes Nepomuk", "ref:at:bda": "7617", "subject:wikidata": "Q221522", "tourism": "artwork", "wikidata": "Q38103552"}}, {"type": "node", "id": 8399144824, "lat": 47.1298556, "lon": 16.4683944, "tags": {"artwork_subject": "religious", "artwork_type": "statue", "heritage": "2", "heritage:operator": "bda", "name": "Hl. Johannes Nepomuk", "ref:at:bda": "27819", "tourism": "artwork", "wikidata": "Q37939127"}}, {"type": "node", "id": 8402751106, "lat": 47.0614332, "lon": 16.3231341, "tags": {"artwork_subject": "religious", "artwork_type": "statue", "heritage": "2", "heritage:operator": "bda", "name": "Figurenbildstock hl. Johannes Nepomuk", "ref:at:bda": "28739", "tourism": "artwork", "wikidata": "Q37944147"}}, {"type": "node", "id": 8586077242, "lat": 47.008501, "lon": 16.6070497, "tags": {"artwork_type": "statue", "name": "Hercules", "tourism": "artwork"}}, {"type": "node", "id": 8586077243, "lat": 47.0085116, "lon": 16.6070912, "tags": {"artwork_type": "statue", "name": "Hercules", "tourism": "artwork"}}, {"type": "node", "id": 8709894302, "lat": 47.0199495, "lon": 16.6165054, "tags": {"name": "K\u00f6rmend c\u00edmer", "tourism": "artwork"}}, {"type": "node", "id": 8709894303, "lat": 47.0199033, "lon": 16.6167139, "tags": {"name": "K\u00f6rmend c\u00edmer", "tourism": "artwork"}}, {"type": "node", "id": 8709894304, "lat": 47.0197529, "lon": 16.616667, "tags": {"name": "K\u00f6rmend c\u00edmer", "tourism": "artwork"}}, {"type": "node", "id": 8721474818, "lat": 47.0078205, "lon": 16.6083955, "tags": {"artwork_type": "bust", "name": "K\u00f6lcsey Ferenc", "tourism": "artwork"}}, {"type": "node", "id": 9734937582, "lat": 47.2414262, "lon": 16.6091361, "tags": {"artwork_type": "statue", "name": "Derkovits szt\u00e9le", "tourism": "artwork"}}, {"type": "node", "id": 10151991038, "lat": 47.0075069, "lon": 16.2012304, "tags": {"artwork_type": "sculpture", "name": "Flaschen", "tourism": "artwork"}}, {"type": "node", "id": 10151991040, "lat": 47.0244856, "lon": 16.2221932, "tags": {"artwork_type": "sculpture", "name": "Trichter", "tourism": "artwork"}}, {"type": "node", "id": 10152161950, "lat": 47.0208579, "lon": 16.2283918, "tags": {"artwork_type": "sculpture", "name": "G\u00e4hrung", "tourism": "artwork"}}, {"type": "node", "id": 10152161951, "lat": 47.019588, "lon": 16.2283221, "tags": {"artwork_type": "sculpture", "name": "Bachanten", "tourism": "artwork"}}, {"type": "node", "id": 10218130256, "lat": 47.0218362, "lon": 16.2072614, "tags": {"artwork_type": "sculpture", "name": "Auge", "tourism": "artwork"}}, {"type": "node", "id": 10218130258, "lat": 47.0213242, "lon": 16.2037343, "tags": {"artwork_type": "sculpture", "name": "Filter", "tourism": "artwork"}}, {"type": "node", "id": 10218130260, "lat": 47.0138852, "lon": 16.1999148, "tags": {"artwork_type": "sculpture", "name": "Schnitt", "tourism": "artwork"}}, {"type": "node", "id": 10218130261, "lat": 47.0094977, "lon": 16.1993556, "tags": {"artwork_type": "sculpture", "name": "Traube", "tourism": "artwork"}}, {"type": "node", "id": 10300976329, "lat": 47.2309963, "lon": 16.6225433, "tags": {"artist_name": "Budai Istv\u00e1n", "artwork_type": "sculpture", "material": "metal", "name": "Szombathely", "start_date": "2016", "tourism": "artwork"}}, {"type": "node", "id": 10300976330, "lat": 47.230084, "lon": 16.6200702, "tags": {"artwork_type": "bust", "name": "Gr\u00f3f Batthy\u00e1ny Lajos", "tourism": "artwork"}}, {"type": "way", "id": 299529035, "nodes": [3035311083, 3035311079, 3035311058, 3035311066, 3035311083], "tags": {"addr:city": "Hannersdorf", "addr:country": "AT", "addr:housenumber": "103", "addr:place": "Burg", "addr:postcode": "7474", "at_bev:addr_date": "2020-10-01", "building": "yes", "name": "Gerencser", "tourism": "artwork"}}, {"type": "way", "id": 550841852, "nodes": [5320017735, 5320017736, 5320017737, 5320017738, 5320017735], "tags": {"artist_name": "T. Tak\u00e1cs Tibor", "artwork_type": "mosaic", "layer": "2", "name": "A v\u00e1rostorony eml\u00e9k\u00e9re", "tourism": "artwork", "website": "https://www.kozterkep.hu/~/29109/A_varostorony_emlekere_Szombathely_2011.html"}}]}