{"version": 0.6, "generator": "Overpass API 0.7.59 e21c39fe", "osm3s": {"timestamp_osm_base": "2023-03-01T09:28:36Z", "copyright": "The data included in this document is from www.openstreetmap.org. The data is made available under ODbL."}, "elements": [{"type": "node", "id": 3446927626, "lat": 47.336467, "lon": 19.637467, "tags": {"name": "Kopasz-domb", "source": "turistautak.hu", "source:date": "2011-12-29", "tourism": "viewpoint", "url": "http://turistautak.hu/poi.php?id=17711"}}, {"type": "node", "id": 3446927655, "lat": 47.36065, "lon": 19.612317, "tags": {"source": "turistautak.hu", "source:date": "2014-11-28", "tourism": "viewpoint", "url": "http://turistautak.hu/poi.php?id=174499"}}, {"type": "node", "id": 3446927963, "lat": 47.34, "lon": 19.642217, "tags": {"ele": "132", "man_made": "tower", "name": "\u0150rtorony", "source": "turistautak.hu", "source:date": "2011-05-16", "tourism": "viewpoint", "tower:type": "observation", "url": "http://turistautak.hu/poi.php?id=31856"}}, {"type": "node", "id": 3471930997, "lat": 47.175444, "lon": 19.2845567, "tags": {"man_made": "tower", "source": "turistautak.hu", "source:date": "2013-06-08", "tourism": "viewpoint", "tower:type": "observation", "url": "http://turistautak.hu/poi.php?id=154670"}}, {"type": "node", "id": 3882292788, "lat": 47.2861279, "lon": 19.4547295, "tags": {"access": "private", "addr:city": "Cs\u00e9vharaszt", "addr:street": "Wekerle k\u00faria", "name": "amat\u0151rcsillag\u00e1sz \u00e9szlel\u0151hely (s\u00f6t\u00e9t \u00e9gbolt: 5,5mn), Cs\u00e9vharaszt", "tourism": "viewpoint", "website": "http://egkep.com/?zdp"}}, {"type": "node", "id": 3916604381, "lat": 47.282595, "lon": 19.4125532, "tags": {"man_made": "tower", "name": "Leskil\u00e1t\u00f3", "tourism": "viewpoint", "tower:type": "observation"}}, {"type": "node", "id": 4731223543, "lat": 47.1879465, "lon": 19.1850171, "tags": {"addr:city": "Bugyi", "addr:place": "Borzas-hegy puszta", "alt_name": "Bugyi, Borzashegy-puszta \u00e9szlel\u0151hely", "closest_town": "Bugyi", "description": "6,68 magnit\u00fad\u00f3 az \u00e9gbolt szabad szemes hat\u00e1rf\u00e9nyess\u00e9ge", "direction": "22-337", "ele": "97", "name": "amat\u0151rcsillag\u00e1sz \u00e9szlel\u0151hely Bugyi Borzashegy-puszta (6,7mn darksky)", "ref": "21.32 mag./arc sec2; 6,7mn magnit\u00fad\u00f3; Bortle class 4", "surface": "grass", "surveillance": "astronomy", "surveillance:type": "viewpoint", "tourism": "viewpoint", "url:darksky": "fenyszennyezes.hu", "url:egkep": "http://egkep.com/?pbxk", "url:mcse": "https://www.mcse.hu/eszlelohelyek/", "website": "http://umap.openstreetmap.fr/hu/map/csillag-terkep_441074#8/47.324/19.660"}}, {"type": "node", "id": 4911192380, "lat": 47.105972, "lon": 19.2073195, "tags": {"access": "public", "alt_name": "Kunpesz\u00e9ri kiserd\u0151", "closest_town": "Kunpesz\u00e9r", "dark_sky": "yes", "description": "7,23 magnit\u00fad\u00f3 az \u00e9gbolt szabad szemes hat\u00e1rf\u00e9nyess\u00e9ge", "direction": "0-360", "fee": "no", "leisure": "star_gazing", "name": "amat\u0151rcsillag\u00e1sz \u00e9szlel\u0151hely Kunpesz\u00e9ri kiserd\u0151 (7,2mn darksky)", "ref": "21.60 mag./arc sec2; 7,2 magnit\u00fad\u00f3; Bortle class 4", "surface": "grass", "surveillance": "astronomy", "surveillance:type": "viewpoint", "tourism": "viewpoint", "type": "astronomy", "url": "https://www.lightpollutionmap.info/#zoom=16.13&lat=47.1068&lon=19.2085&layers=0BFFFFFFTFFFFFFFFFF", "url:darksky": "fenyszennyezes.hu", "url:egkep": "http://egkep.com/?ysrf", "url:mcse": "https://www.mcse.hu/eszlelohelyek/", "website": "http://umap.openstreetmap.fr/hu/map/csillag-terkep_441074#8/47.324/19.660"}}, {"type": "node", "id": 5062091078, "lat": 47.001094, "lon": 19.3745258, "tags": {"access": "public", "addr:country": "HU", "addr:district": "Kecskem\u00e9ti J\u00e1r\u00e1s", "addr:place": "Kunbaracs pusztatemplom", "addr:province": "B\u00e1cs-Kiskun Megye", "alt_name": "\u00c1rp\u00e1d-kori templomrom Kunbaracs", "closest_town": "Kunbaracs", "dark_sky": "yes", "description": "7,21 magnit\u00fad\u00f3 az \u00e9gbolt szabad szemes hat\u00e1rf\u00e9nyess\u00e9ge", "direction": "0-360", "fee": "no", "leisure": "star_gazing", "name": "amat\u0151rcsillag\u00e1sz \u00e9szlel\u0151hely (7,2mn darksky), Kunbaracs pusztatemplom", "surface": "grass", "surveillance": "astronomy", "surveillance:type": "viewpoint", "tourism": "viewpoint", "type": "astronomy", "url": "http://egkep.com/?xewd", "url:darksky": "fenyszennyezes.hu", "website": "https://www.mcse.hu/eszlelohelyek/"}}, {"type": "node", "id": 5803777655, "lat": 47.1927345, "lon": 19.1886266, "tags": {"access": "public", "addr:city": "Bugyi", "addr:place": "Borzas-hegy puszta", "alt_name": "Bugyi-csatorna \u00e9szlel\u0151hely", "dark_sky": "yes", "description": "6,68 magnit\u00fad\u00f3", "ele": "93", "fee": "no", "is_in": "Borzaspuszta; Kiskuns\u00e1g", "leisure": "star_gazing", "name": "amat\u0151rcsillag\u00e1sz \u00e9szlel\u0151hely Bugyi-csatorna (6,68mn darksky)", "ref": "21.32 mag./arc sec2; 6,68mn magnit\u00fad\u00f3; Bortle class 4", "surface": "grass", "surveillance": "astronomy", "surveillance:type": "viewpoint", "tourism": "viewpoint", "type": "astronomy", "url:darksky": "fenyszennyezes.hu", "url:egkep": "http://egkep.com/?nain", "url:mcse": "https://www.mcse.hu/eszlelohelyek/", "website": "http://umap.openstreetmap.fr/hu/map/csillag-terkep_441074#8/47.324/19.660"}}, {"type": "node", "id": 5815059375, "lat": 47.1471304, "lon": 19.5342386, "tags": {"addr:city": "Pusztavacs", "addr:postcode": "2378", "addr:street": "Str\u00e1zsa-hegy", "alt_name": "Pusztavacs-1 \u00e9szlel\u0151hely", "closest_town": "Pusztavacs - T\u00e1borfalva", "description": "6,68 magnit\u00fad\u00f3 az \u00e9gbolt szabad szemes hat\u00e1rf\u00e9nyess\u00e9ge", "direction": "0-360", "ele": "140", "name": "amat\u0151rcsillag\u00e1sz \u00e9szlel\u0151hely (6,7mn darksky), Pusztavacs-1", "surface": "grass", "surveillance": "astronomy", "surveillance:type": "viewpoint", "tourism": "viewpoint", "url": "http://egkep.com/?lwvi", "url:darksky": "fenyszennyezes.hu", "website": "https://www.mcse.hu/eszlelohelyek/"}}, {"type": "node", "id": 5815191626, "lat": 47.1357789, "lon": 19.5495969, "tags": {"addr:city": "Pusztavacs", "addr:postcode": "2378", "addr:street": "Str\u00e1zsa-hegy", "alt_name": "Pusztavacs-2 \u00e9szlel\u0151hely", "closest_town": "Pusztavacs - T\u00e1borfalva", "description": "7,06 magnit\u00fad\u00f3 az \u00e9gbolt szabad szemes hat\u00e1rf\u00e9nyess\u00e9ge", "direction": "0-360", "ele": "135", "name": "amat\u0151rcsillag\u00e1sz \u00e9szlel\u0151hely (7,1mn darksky), Pusztavacs-2", "surface": "grass", "surveillance": "astronomy", "surveillance:type": "viewpoint", "tourism": "viewpoint", "url": "http://egkep.com/?mtrs", "url:darksky": "fenyszennyezes.hu", "website": "https://www.mcse.hu/eszlelohelyek/"}}, {"type": "node", "id": 6484118392, "lat": 47.2106509, "lon": 19.2662215, "tags": {"direction": "0-360", "name": "Kil\u00e1t\u00f3 torony", "tourism": "viewpoint"}}, {"type": "node", "id": 6960539991, "lat": 47.2851417, "lon": 19.4160444, "tags": {"man_made": "tower", "source": "survey", "survey:date": "2019-11-09", "tourism": "viewpoint", "tower:type": "observation"}}, {"type": "node", "id": 6960540061, "lat": 47.2811842, "lon": 19.3683118, "tags": {"man_made": "tower", "source": "survey", "survey:date": "2019-11-09", "tourism": "viewpoint", "tower:type": "observation"}}, {"type": "node", "id": 7847742678, "lat": 47.0775164, "lon": 19.5597035, "tags": {"access": "public", "addr:country": "HU", "addr:district": "Kecskem\u00e9ti J\u00e1r\u00e1s", "addr:province": "B\u00e1cs-Kiskun Megye", "alt_name": "Mizse Pusztatemplom", "closest_town": "Lajosmizse", "dark_sky": "yes", "description": "6,74 magnit\u00fad\u00f3 az \u00e9gbolt szabad szemes hat\u00e1rf\u00e9nyess\u00e9ge", "direction": "0-360", "fee": "no", "is_in": "Kiskuns\u00e1g", "leisure": "star_gazing", "name": "amat\u0151rcsillag\u00e1sz \u00e9szlel\u0151hely (6,74mn darksky), Lajosmizse Pusztatemplom", "smoothness": "intermediate", "surface": "grass", "surveillance": "astronomy", "surveillance:type": "viewpoint", "tourism": "viewpoint", "type": "astronomy", "url": "http://egkep.com/", "url:darksky": "fenyszennyezes.hu", "url:umap": "https://umap.openstreetmap.fr/hu/map/csillag-terkep_441074#9/46.9987/19.4348", "website": "https://www.mcse.hu/eszlelohelyek/"}}, {"type": "node", "id": 8907163960, "lat": 47.1753259, "lon": 19.5575527, "tags": {"access": "public", "addr:city": "D\u00e1ny", "addr:country": "HU", "addr:district": "Dabasi J\u00e1r\u00e1s", "addr:province": "Pest Megye", "alt_name": "Pusztavacsi \u00e9szlel\u0151hely", "closest_town": "Pusztavacs - D\u00e1nszentmikl\u00f3s - Mikebuda", "dark_sky": "yes", "description": "6,80 magnit\u00fad\u00f3 az \u00e9gbolt szabad szemes hat\u00e1rf\u00e9nyess\u00e9ge", "direction": "100-360", "ele": "135", "fee": "no", "is_in": "Pusztavacsi erd\u0151", "leisure": "star_gazing", "name": "amat\u0151rcsillag\u00e1sz \u00e9szlel\u0151hely (6,3mn darksky), Pusztavacs", "source": "survey 2021-07-07", "surface": "grass", "surveillance": "astronomy", "surveillance:type": "viewpoint", "tourism": "viewpoint", "type": "astronomy", "url": "http://egkep.com/?ddqp", "url:darksky": "fenyszennyezes.hu", "website": "https://www.mcse.hu/eszlelohelyek/"}}, {"type": "node", "id": 8987753414, "lat": 47.1296725, "lon": 19.2151697, "tags": {"addr:city": "Bugyi", "addr:postcode": "2347", "addr:street": "L\u00e1nci d\u0171l\u0151", "addr:suburb": "\u00dcrb\u0151puszta", "alt_name": "Bugyi, Borzashegy-puszta \u00e9szlel\u0151hely", "closest_town": "Bugyi", "dark_sky": "yes", "description": "6,68 magnit\u00fad\u00f3 az \u00e9gbolt szabad szemes hat\u00e1rf\u00e9nyess\u00e9ge", "direction": "22-337", "ele": "94", "fee": "no", "is_in": "\u00dcrb\u0151;Kiskuns\u00e1g", "leisure": "star_gazing", "name": "amat\u0151rcsillag\u00e1sz \u00e9szlel\u0151hely L\u00e1nci zsilip (7,0mn darksky)", "ref": "21.55 mag./arc sec2; 7,0 magnit\u00fad\u00f3; Bortle class 4", "source": "survey", "surface": "grass", "surveillance": "astronomy", "surveillance:type": "viewpoint", "survey:date": "2021-08-06", "tourism": "viewpoint", "type": "astronomy", "url": "https://www.lightpollutionmap.info/#zoom=16.47&lat=47.1295&lon=19.2156&layers=0BFFFFFFTFFFFFFFFFF&state=eyJtYXJrZXJzIjp7Im1hcmtlcm15TG9jYXRpb24iOlsyMTM4MjE0LDU5NTkzODhdfX0=", "url:darksky": "fenyszennyezes.hu", "url:egkep": "http://egkep.com/?ysrf", "url:mcse": "https://www.mcse.hu/eszlelohelyek/", "website": "http://umap.openstreetmap.fr/hu/map/csillag-terkep_441074#8/47.324/19.660"}}, {"type": "node", "id": 9741917362, "lat": 47.078356, "lon": 19.5596348, "tags": {"access": "public", "dark_sky": "medium", "fee": "yes", "leisure": "star_gazing", "surface": "grass", "surveillance": "astronomy", "surveillance:type": "viewpoint", "tourism": "viewpoint", "type": "astronomy"}}]}