{"version": 0.6, "generator": "Overpass API 0.7.59 e21c39fe", "osm3s": {"timestamp_osm_base": "2023-03-01T09:36:38Z", "copyright": "The data included in this document is from www.openstreetmap.org. The data is made available under ODbL."}, "elements": [{"type": "node", "id": 35497433, "lat": 46.8466799, "lon": 17.8672374, "tags": {"tourism": "viewpoint", "wheelchair": "yes"}}, {"type": "node", "id": 35497461, "lat": 46.8483579, "lon": 17.8721463, "tags": {"tourism": "viewpoint"}}, {"type": "node", "id": 528097466, "lat": 46.8710635, "lon": 17.5015656, "tags": {"tourism": "viewpoint"}}, {"type": "node", "id": 750019338, "lat": 46.8008369, "lon": 17.4875047, "tags": {"name": "T\u00f6rdemici kil\u00e1t\u00f3", "tourism": "viewpoint", "wikidata": "Q110249860"}}, {"type": "node", "id": 750019389, "lat": 46.8032811, "lon": 17.4962367, "tags": {"man_made": "tower", "name": "Kisfaludy-kil\u00e1t\u00f3", "tourism": "viewpoint", "tower:type": "observation", "wikidata": "Q110249801", "wikipedia": "hu:Kisfaludy S\u00e1ndor-kil\u00e1t\u00f3"}}, {"type": "node", "id": 750019414, "lat": 46.8062979, "lon": 17.4935187, "tags": {"direction": "360", "tourism": "viewpoint"}}, {"type": "node", "id": 750019449, "lat": 46.7968568, "lon": 17.4934322, "tags": {"description": "K\u0151\u00e9p\u00fclet, alul es\u0151mened\u00e9k, fel\u00fcl kil\u00e1t\u00f3.", "man_made": "tower", "mapillary": "795593777756853", "name": "Egry J\u00f3zsef kil\u00e1t\u00f3hely", "tourism": "viewpoint", "tower:type": "observation", "wikidata": "Q110249879"}}, {"type": "node", "id": 755316550, "lat": 46.9177006, "lon": 17.8552134, "tags": {"ele": "142", "tourism": "viewpoint"}}, {"type": "node", "id": 755463540, "lat": 46.912147, "lon": 17.8559352, "tags": {"alt_name": "Ap\u00e1ti-hegyi kil\u00e1t\u00f3", "height": "15", "man_made": "tower", "mapillary": "368227121233708", "name": "\u0150rtorony kil\u00e1t\u00f3", "survey:date": "2016-11-27", "tourism": "viewpoint", "tower:type": "observation", "wheelchair": "no"}}, {"type": "node", "id": 755673129, "lat": 46.9052548, "lon": 17.8523261, "tags": {"ele": "175", "name": "Levendul\u00e1s", "tourism": "viewpoint"}}, {"type": "node", "id": 755673679, "lat": 46.9108797, "lon": 17.8528001, "tags": {"tourism": "viewpoint"}}, {"type": "node", "id": 757449161, "lat": 46.8955268, "lon": 17.8701636, "tags": {"ele": "160", "name": "Szark\u00e1di-kil\u00e1t\u00e1s", "tourism": "viewpoint"}}, {"type": "node", "id": 793616854, "lat": 46.7887919, "lon": 17.4384449, "tags": {"man_made": "tower", "name": "\u00d3v\u00e1ri kil\u00e1t\u00f3", "tourism": "viewpoint", "tower:type": "observation"}}, {"type": "node", "id": 848498012, "lat": 46.8483572, "lon": 17.8715712, "tags": {"tourism": "viewpoint"}}, {"type": "node", "id": 871643969, "lat": 46.7704333, "lon": 17.3623519, "tags": {"direction": "25-200", "name": "Sz\u00e9pkil\u00e1t\u00f3", "tourism": "viewpoint"}}, {"type": "node", "id": 1110135357, "lat": 46.8949381, "lon": 17.5861057, "tags": {"description": "H\u00e1romszintes fa \u00e9p\u00edtm\u00e9ny.", "direction": "E-W", "man_made": "tower", "name": "E\u00f6tv\u00f6s K\u00e1roly kil\u00e1t\u00f3", "source": "survey", "survey:date": "2022-11-05", "tourism": "viewpoint", "tower:type": "observation", "wikidata": "Q110249911"}}, {"type": "node", "id": 1124693439, "lat": 46.9027867, "lon": 17.88117, "tags": {"name": "H\u00e1rmoshegyi-k\u00fap", "natural": "rock", "tourism": "viewpoint"}}, {"type": "node", "id": 1163525716, "lat": 46.8411615, "lon": 17.4485291, "tags": {"name": "Kil\u00e1t\u00f3pont", "tourism": "viewpoint", "wikidata": "Q110249946", "wikipedia": "hu:Szent Gy\u00f6rgy-hegy"}}, {"type": "node", "id": 1310053399, "lat": 46.7443326, "lon": 17.550494, "tags": {"MCC": "216", "MNC": "01;03;30;70", "communication:mobile_phone": "gsm;umts;lte", "gsm:LAC": "fixme;fixme;77;120", "gsm:cellid": "fixme;fixme;2012;2361;2362;38451;38452;38454;38455", "lte:LAC": "fixme;101;fixme;3207", "lte:cellid": "fixme;1;3;5;fixme;0;1", "lte:eNB": "2308;40201;fixme;3845", "man_made": "tower", "name": "S\u00edpos-hegyi kil\u00e1t\u00f3", "operator": "Yettel;Digi;Telekom;Vodafone", "ref:vodafone": "3845", "ref:yettel": "SO-0008", "source": "OpenCellID", "tourism": "viewpoint", "tower:type": "observation;communication", "umts:LAC": "fixme;none;fixme;220", "umts:PSC": "fixme;none;fixme;173;174;173;174", "umts:RNC": "fixme;none;fixme;20", "umts:cellid": "fixme;none;fixme;38451;38452;38456;38457"}}, {"type": "node", "id": 1315236636, "lat": 46.8710874, "lon": 17.9331396}, {"type": "node", "id": 1315236640, "lat": 46.8711182, "lon": 17.9331533}, {"type": "node", "id": 1315236653, "lat": 46.8711448, "lon": 17.9331002}, {"type": "node", "id": 1315236676, "lat": 46.871078, "lon": 17.9331}, {"type": "node", "id": 1315236680, "lat": 46.8711373, "lon": 17.9330739}, {"type": "node", "id": 1315236681, "lat": 46.8711212, "lon": 17.9330581}, {"type": "node", "id": 1315236700, "lat": 46.8711114, "lon": 17.933056}, {"type": "node", "id": 1315236712, "lat": 46.8710804, "lon": 17.9330861}, {"type": "node", "id": 1315236723, "lat": 46.8710928, "lon": 17.9330642}, {"type": "node", "id": 1315236734, "lat": 46.8711444, "lon": 17.9331145}, {"type": "node", "id": 1315236751, "lat": 46.8711084, "lon": 17.9331541}, {"type": "node", "id": 1315236757, "lat": 46.8711274, "lon": 17.9331483}, {"type": "node", "id": 1315236760, "lat": 46.8710953, "lon": 17.9331483}, {"type": "node", "id": 1315236790, "lat": 46.8710816, "lon": 17.933128}, {"type": "node", "id": 1315236793, "lat": 46.8710855, "lon": 17.9330738}, {"type": "node", "id": 1315236822, "lat": 46.8711411, "lon": 17.9331281}, {"type": "node", "id": 1343748754, "lat": 46.8365527, "lon": 17.5212231, "tags": {"tourism": "viewpoint"}}, {"type": "node", "id": 1343766321, "lat": 46.829164, "lon": 17.5002784, "tags": {"direction": "250", "tourism": "viewpoint"}}, {"type": "node", "id": 1376611145, "lat": 46.8981611, "lon": 17.5782445, "tags": {"direction": "135-270", "name": "Kelem\u00e9nyes-k\u0151", "tourism": "viewpoint"}}, {"type": "node", "id": 1917408657, "lat": 46.8889881, "lon": 17.6468613, "tags": {"tourism": "viewpoint"}}, {"type": "node", "id": 1917408687, "lat": 46.8893821, "lon": 17.6481166, "tags": {"ele": "305", "tourism": "viewpoint"}}, {"type": "node", "id": 1935438999, "lat": 46.79668, "lon": 17.490413, "tags": {"tourism": "viewpoint"}}, {"type": "node", "id": 1935439005, "lat": 46.7974903, "lon": 17.4894894, "tags": {"tourism": "viewpoint"}}, {"type": "node", "id": 2188680719, "lat": 46.8297482, "lon": 17.500665, "tags": {"direction": "300", "tourism": "viewpoint"}}, {"type": "node", "id": 2583954782, "lat": 46.7384521, "lon": 17.5427971, "tags": {"fee": "yes", "man_made": "tower", "name": "V\u00e1rhegyi kil\u00e1t\u00f3", "tourism": "viewpoint", "tower:type": "observation"}}, {"type": "node", "id": 2648282934, "lat": 46.9068209, "lon": 17.8922769, "tags": {"direction": "60", "tourism": "viewpoint"}}, {"type": "node", "id": 2708603301, "lat": 46.8464026, "lon": 17.4499009, "tags": {"tourism": "viewpoint"}}, {"type": "node", "id": 2929396083, "lat": 46.9224175, "lon": 17.8787641, "tags": {"tourism": "viewpoint"}}, {"type": "node", "id": 2937544165, "lat": 46.8708604, "lon": 17.5035408, "tags": {"tourism": "viewpoint"}}, {"type": "node", "id": 2937544166, "lat": 46.8713024, "lon": 17.5032152, "tags": {"tourism": "viewpoint"}}, {"type": "node", "id": 2972044126, "lat": 46.7674752, "lon": 17.3537676, "tags": {"tourism": "viewpoint"}}, {"type": "node", "id": 2995331012, "lat": 46.8040294, "lon": 17.4364065, "tags": {"tourism": "viewpoint"}}, {"type": "node", "id": 3028519404, "lat": 46.8345702, "lon": 17.6217796, "tags": {"tourism": "viewpoint"}}, {"type": "node", "id": 3039747147, "lat": 46.8134689, "lon": 17.5655564, "tags": {"alt_name": "\u00c1brah\u00e1mhegy panor\u00e1ma kil\u00e1t\u00f3", "communication:mobile_phone": "lte", "gsm:cellid": "fixme;30254", "lte:eNB": "269;3025", "man_made": "tower", "name": "B\u00f6kk-hegyi kil\u00e1t\u00f3", "operator": "Yettel;Vodafone", "ref:vodafone": "3025", "tourism": "viewpoint", "tower:type": "observation", "wheelchair": "no"}}, {"type": "node", "id": 3049367358, "lat": 46.8726012, "lon": 17.5050484, "tags": {"tourism": "viewpoint"}}, {"type": "node", "id": 3113114556, "lat": 46.9029608, "lon": 17.8967833, "tags": {"direction": "50", "tourism": "viewpoint"}}, {"type": "node", "id": 3201835337, "lat": 46.7668529, "lon": 17.7889477, "tags": {"man_made": "tower", "material": "wood", "name": "Kil\u00e1t\u00f3", "tourism": "viewpoint", "tower:type": "observation"}}, {"type": "node", "id": 3248042152, "lat": 46.9064477, "lon": 17.8522803, "tags": {"ele": "230", "tourism": "viewpoint"}}, {"type": "node", "id": 3327136520, "lat": 46.798767, "lon": 17.499317, "tags": {"name": "P\u00e1holyk\u0151-kil\u00e1t\u00f3hely", "source": "turistautak.hu", "tourism": "viewpoint", "url": "http://turistautak.hu/poi.php?id=56453", "wikidata": "Q110254054"}}, {"type": "node", "id": 3327136564, "lat": 46.799738, "lon": 17.486826, "tags": {"noexit": "yes", "tourism": "viewpoint"}}, {"type": "node", "id": 3327136577, "lat": 46.79986, "lon": 17.486464, "tags": {"noexit": "yes", "tourism": "viewpoint"}}, {"type": "node", "id": 3327136787, "lat": 46.801366, "lon": 17.501762, "tags": {"name": "60-120", "source": "turistautak.hu", "tourism": "viewpoint", "url": "http://turistautak.hu/poi.php?id=93230"}}, {"type": "node", "id": 3327136841, "lat": 46.804085, "lon": 17.486646, "tags": {"source": "turistautak.hu", "tourism": "viewpoint", "url": "http://turistautak.hu/poi.php?id=100891"}}, {"type": "node", "id": 3327136854, "lat": 46.8045072, "lon": 17.4869255, "tags": {"source": "turistautak.hu", "tourism": "viewpoint", "url": "http://turistautak.hu/poi.php?id=100890"}}, {"type": "node", "id": 3327136892, "lat": 46.807066, "lon": 17.489595, "tags": {"source": "turistautak.hu", "tourism": "viewpoint", "url": "http://turistautak.hu/poi.php?id=100889"}}, {"type": "node", "id": 3327136894, "lat": 46.807426, "lon": 17.490531, "tags": {"source": "turistautak.hu", "tourism": "viewpoint", "url": "http://turistautak.hu/poi.php?id=100888"}}, {"type": "node", "id": 3329769656, "lat": 46.8247, "lon": 17.536717, "tags": {"source": "turistautak.hu", "tourism": "viewpoint", "url": "http://turistautak.hu/poi.php?id=20328"}}, {"type": "node", "id": 3329769657, "lat": 46.8753817, "lon": 17.5259463, "tags": {"source": "turistautak.hu", "tourism": "viewpoint", "url": "http://turistautak.hu/poi.php?id=124779"}}, {"type": "node", "id": 3329769658, "lat": 46.881435, "lon": 17.519101, "tags": {"source": "turistautak.hu", "tourism": "viewpoint", "url": "http://turistautak.hu/poi.php?id=94352"}}, {"type": "node", "id": 3336697960, "lat": 46.9123335, "lon": 17.8753142, "tags": {"tourism": "viewpoint"}}, {"type": "node", "id": 3345408573, "lat": 46.7772168, "lon": 17.3570485, "tags": {"ele": "270", "man_made": "tower", "name": "Bats\u00e1nyi-kil\u00e1t\u00f3", "tourism": "viewpoint", "tower:type": "observation"}}, {"type": "node", "id": 3441443325, "lat": 46.813592, "lon": 17.893595, "tags": {"name": "K\u0151r\u00f6shegyi v\u00f6lgyh\u00edd", "tourism": "viewpoint"}}, {"type": "node", "id": 3441443646, "lat": 46.7797695, "lon": 17.8820155, "tags": {"ele": "265", "man_made": "tower", "source": "turistautak.hu", "source:date": "2013-08-04", "tourism": "viewpoint", "tower:type": "observation", "url": "http://turistautak.hu/poi.php?id=35553"}}, {"type": "node", "id": 3441443733, "lat": 46.811741, "lon": 17.885318, "tags": {"source": "turistautak.hu", "source:date": "2014-01-02", "tourism": "viewpoint", "url": "http://turistautak.hu/poi.php?id=164420"}}, {"type": "node", "id": 3441443795, "lat": 46.844883, "lon": 17.862717, "tags": {"source": "turistautak.hu", "source:date": "2013-04-01", "tourism": "viewpoint", "url": "http://turistautak.hu/poi.php?id=72733"}}, {"type": "node", "id": 3448565545, "lat": 46.8415074, "lon": 17.4499909, "tags": {"source": "survey", "survey:date": "2018-04-02", "tourism": "viewpoint"}}, {"type": "node", "id": 3448566161, "lat": 46.895942, "lon": 17.5813172, "tags": {"name": "90-270", "source": "turistautak.hu", "source:date": "2013-10-06", "survey:date": "2020-08-15", "tourism": "viewpoint", "url": "http://turistautak.hu/poi.php?id=98746"}}, {"type": "node", "id": 3448566190, "lat": 46.920005, "lon": 17.629775, "tags": {"source": "turistautak.hu", "source:date": "2014-08-04", "tourism": "viewpoint", "url": "http://turistautak.hu/poi.php?id=170505"}}, {"type": "node", "id": 3458341768, "lat": 46.912731, "lon": 17.890082, "tags": {"source": "turistautak.hu", "source:date": "2011-07-27", "tourism": "viewpoint", "url": "http://turistautak.hu/poi.php?id=122294"}}, {"type": "node", "id": 3468010130, "lat": 46.593, "lon": 17.9441, "tags": {"description": "Nagyon j\u00f3 kil\u00e1t\u00e1s van a Somogyi-dombs\u00e1g egy r\u00e9sz\u00e9re \u00e9s bel\u00e1tni eg\u00e9sz Bonnyapuszt\u00e1t.", "source": "turistautak.hu", "source:date": "2012-10-14", "tourism": "viewpoint", "url": "http://turistautak.hu/poi.php?id=40943"}}, {"type": "node", "id": 3469977786, "lat": 46.632027, "lon": 17.370277, "tags": {"source": "turistautak.hu", "source:date": "2014-05-26", "tourism": "viewpoint", "url": "http://turistautak.hu/poi.php?id=168889"}}, {"type": "node", "id": 3492907286, "lat": 46.9141647, "lon": 17.8899246, "tags": {"tourism": "viewpoint", "wheelchair": "limited"}}, {"type": "node", "id": 3641333856, "lat": 46.9123916, "lon": 17.3495933, "tags": {"man_made": "tower", "material": "wood", "name": "Kecskev\u00e1r kil\u00e1t\u00f3", "start_date": "2015", "tourism": "viewpoint", "tower:type": "observation"}}, {"type": "node", "id": 3710500563, "lat": 46.7711201, "lon": 17.3573934, "tags": {"tourism": "viewpoint"}}, {"type": "node", "id": 3736462686, "lat": 46.9063354, "lon": 17.735246, "tags": {"access": "private", "addr:city": "D\u00f6rgicse", "addr:district": "Balatonf\u00fcredi J\u00e1r\u00e1s", "addr:place": "sz\u0151l\u0151hegy", "addr:province": "Veszpr\u00e9m Megye", "alt_name": "D\u00f6rgicse, Szilassy-pince \u00e9szlel\u0151hely", "closest_town": "Balatonakali - D\u00f6rgicse", "dark_sky": "yes", "description": "7,01 magnit\u00fad\u00f3 az \u00e9gbolt szabad szemes hat\u00e1rf\u00e9nyess\u00e9ge", "direction": "0-360", "ele": "190", "fee": "no", "is_in": "Becce; Als\u00f3-D\u00f6rgicse; Balaton-felvid\u00e9k", "leisure": "star_gazing", "name": "amat\u0151rcsillag\u00e1sz \u00e9szlel\u0151hely (7mn darksky), D\u00f6rgicse sz\u0151l\u0151hegy", "surface": "pebblestone", "surveillance": "astronomy", "surveillance:type": "viewpoint", "tourism": "viewpoint", "type": "astronomy", "url": "http://egkep.com/?jewo", "url:darksky": "fenyszennyezes.hu", "website": "https://www.mcse.hu/eszlelohelyek/"}}, {"type": "node", "id": 3738696231, "lat": 46.7470639, "lon": 17.5492786, "tags": {"tourism": "viewpoint"}}, {"type": "node", "id": 3751293715, "lat": 46.7434016, "lon": 17.5428406, "tags": {"tourism": "viewpoint"}}, {"type": "node", "id": 3751293716, "lat": 46.7422584, "lon": 17.5412259, "tags": {"tourism": "viewpoint"}}, {"type": "node", "id": 3862995295, "lat": 46.8497474, "lon": 17.4515205, "tags": {"name": "Sz\u00e9p kil\u00e1t\u00e1s", "tourism": "viewpoint"}}, {"type": "node", "id": 4036611691, "lat": 46.8327577, "lon": 17.5459932, "tags": {"man_made": "tower", "name": "Cs\u00f6nge-hegyi kil\u00e1t\u00f3", "survey:date": "2017-12-27", "tourism": "viewpoint", "tower:type": "observation"}}, {"type": "node", "id": 4036611692, "lat": 46.8257692, "lon": 17.5314919, "tags": {"source": "turistautak.hu", "tourism": "viewpoint", "url": "http://turistautak.hu/poi.php?id=20328"}}, {"type": "node", "id": 4083856811, "lat": 46.8457028, "lon": 17.4511595, "tags": {"source": "survey", "tourism": "viewpoint", "url": "http://turistautak.hu/poi.php?id=28200"}}, {"type": "node", "id": 4083856823, "lat": 46.8459146, "lon": 17.4509874, "tags": {"source": "survey", "tourism": "viewpoint", "url": "http://turistautak.hu/poi.php?id=28199"}}, {"type": "node", "id": 4159245930, "lat": 46.7839687, "lon": 17.8818268, "tags": {"tourism": "viewpoint"}}, {"type": "node", "id": 4244318843, "lat": 46.9030839, "lon": 17.6728724, "tags": {"direction": "60-180", "tourism": "viewpoint"}}, {"type": "node", "id": 4353903818, "lat": 46.8274807, "lon": 17.5021711, "tags": {"tourism": "viewpoint"}}, {"type": "node", "id": 4353903819, "lat": 46.827756, "lon": 17.5015644, "tags": {"tourism": "viewpoint"}}, {"type": "node", "id": 4353903820, "lat": 46.8280719, "lon": 17.5010966, "tags": {"direction": "220", "tourism": "viewpoint"}}, {"type": "node", "id": 4359267279, "lat": 46.8120732, "lon": 17.546077, "tags": {"ele": "235", "height": "6", "man_made": "tower", "material": "wood", "tourism": "viewpoint", "tower:construction": "wood", "tower:type": "observation"}}, {"type": "node", "id": 4370391990, "lat": 46.8104532, "lon": 17.5490704, "tags": {"name": "Bagolyk\u0151-R\u00f3ka-szikla", "tourism": "viewpoint"}}, {"type": "node", "id": 4383901283, "lat": 46.9120182, "lon": 17.8569203, "tags": {"tourism": "viewpoint"}}, {"type": "node", "id": 4431589820, "lat": 46.7526555, "lon": 17.7063726, "tags": {"description": "A Balaton tal\u00e1n legszebb panor\u00e1m\u00e1ja a d\u00e9li part fel\u0151l n\u00e9zve. A Tan\u00fahegyek eg\u00e9sz sora pomp\u00e1zik itt a Balatoni naplemente aranyl\u00f3 keret\u00e9ben.", "name": "Kishegyi panor\u00e1ma", "tourism": "viewpoint"}}, {"type": "node", "id": 4527174330, "lat": 46.9039791, "lon": 17.8938659, "tags": {"direction": "55", "tourism": "viewpoint"}}, {"type": "node", "id": 4563807882, "lat": 46.8721802, "lon": 17.5038234, "tags": {"tourism": "viewpoint", "wikidata": "Q110254272", "wikipedia": "hu:Csob\u00e1nc"}}, {"type": "node", "id": 4947252489, "lat": 46.8724172, "lon": 17.5471857, "tags": {"survey:date": "2017-07-02", "tourism": "viewpoint"}}, {"type": "node", "id": 5104605281, "lat": 46.9192005, "lon": 17.6110496, "tags": {"name": "Botos-hegyi panor\u00e1ma", "source": "survey", "survey:date": "2021-04-04", "tourism": "viewpoint"}}, {"type": "node", "id": 5810961695, "lat": 46.8099813, "lon": 17.7875927, "tags": {"tourism": "viewpoint"}}, {"type": "node", "id": 5842355899, "lat": 46.9171297, "lon": 17.6251424, "tags": {"direction": "240", "tourism": "viewpoint"}}, {"type": "node", "id": 5959486858, "lat": 46.8316362, "lon": 17.8829246, "tags": {"name": "Panor\u00e1ma", "tourism": "viewpoint"}}, {"type": "node", "id": 6178418148, "lat": 46.8452699, "lon": 17.8654714, "tags": {"addr:city": "Balatonf\u00f6ldv\u00e1r", "addr:housenumber": "50", "addr:postcode": "8623", "addr:street": "Erzs\u00e9bet utca", "contact:email": "info@bknkft.hu", "contact:facebook": "https://www.facebook.com/Balatonf%C3%B6ldv%C3%A1ri-Haj%C3%B3z%C3%A1st%C3%B6rt%C3%A9neti-L%C3%A1togat%C3%B3k%C3%B6zpont-Ki%C3%A1ll%C3%ADt%C3%A1s-%C3%A9s-Kil%C3%A1t%C3%B3-259252614434189/", "contact:phone": "+36 84 553 088", "contact:website": "https://balatonfoldvarikilato.hu/", "mapillary": "481263786356082", "name": "Kil\u00e1t\u00f3", "opening_hours": "10:00-21:00", "operator": "Balatonf\u00f6ldv\u00e1ri Kultur\u00e1lis Szolg\u00e1ltat\u00f3 \u00e9s Fenntart\u00f3 K\u00f6zhaszn\u00fa Nonprofit Kft.", "operator:addr": "8623 Balatonf\u00f6ldv\u00e1r, Pet\u0151fi S\u00e1ndor utca 1.", "payment:cash": "yes", "payment:contactless": "yes", "payment:maestro": "yes", "payment:mastercard": "yes", "payment:mastercard_contactless": "yes", "payment:mastercard_electronic": "yes", "payment:szep": "otp;kh;mkb", "payment:visa": "yes", "payment:visa_electron": "yes", "ref:HU:vatin": "24840752-2-14", "ref:vatin": "HU24840752", "tourism": "viewpoint"}}, {"type": "node", "id": 6503404216, "lat": 46.9049931, "lon": 17.8830964, "tags": {"tourism": "viewpoint"}}, {"type": "node", "id": 6620642891, "lat": 46.7989628, "lon": 17.4880987, "tags": {"direction": "225-315", "tourism": "viewpoint"}}, {"type": "node", "id": 6634851361, "lat": 46.7011372, "lon": 17.355454, "tags": {"tourism": "viewpoint"}}, {"type": "node", "id": 6687986143, "lat": 46.838805, "lon": 17.4489667, "tags": {"name": "Sz\u00e9p kil\u00e1t\u00e1s", "tourism": "viewpoint"}}, {"type": "node", "id": 6697694985, "lat": 46.6386787, "lon": 17.3661066, "tags": {"name": "Parapli-domb", "name:en": "Parapli-hill", "tourism": "viewpoint"}}, {"type": "node", "id": 7112707807, "lat": 46.8993242, "lon": 17.8626575, "tags": {"ele": "135", "tourism": "viewpoint"}}, {"type": "node", "id": 7573383974, "lat": 46.8568713, "lon": 17.9199614, "tags": {"tourism": "viewpoint"}}, {"type": "node", "id": 7752026308, "lat": 46.8376661, "lon": 17.4510996, "tags": {"direction": "135-225", "name": "borterasz", "tourism": "viewpoint"}}, {"type": "node", "id": 7832112646, "lat": 46.8509825, "lon": 17.9227853, "tags": {"tourism": "viewpoint"}}, {"type": "node", "id": 7836830849, "lat": 46.8742233, "lon": 17.5261619, "tags": {"tourism": "viewpoint"}}, {"type": "node", "id": 7994617360, "lat": 46.8739944, "lon": 17.5261763, "tags": {"tourism": "viewpoint"}}, {"type": "node", "id": 8420933200, "lat": 46.9025302, "lon": 17.8550356, "tags": {"direction": "135-270", "ele": "125", "name": "Magyar Narancs", "tourism": "viewpoint"}}, {"type": "node", "id": 8475822419, "lat": 46.8293876, "lon": 17.5009373, "tags": {"direction": "270", "tourism": "viewpoint"}}, {"type": "node", "id": 8540857407, "lat": 46.7739326, "lon": 17.8812648, "tags": {"tourism": "viewpoint"}}, {"type": "node", "id": 8603562193, "lat": 46.8024, "lon": 17.367181, "tags": {"tourism": "viewpoint"}}, {"type": "node", "id": 8618047657, "lat": 46.7379825, "lon": 17.5363101, "tags": {"tourism": "viewpoint"}}, {"type": "node", "id": 8663926545, "lat": 46.7469703, "lon": 17.7066199, "tags": {"name": "Kis-hegyi kil\u00e1t\u00f3", "tourism": "viewpoint"}}, {"type": "node", "id": 8697407736, "lat": 46.7925816, "lon": 17.4406964, "tags": {"tourism": "viewpoint"}}, {"type": "node", "id": 8699517553, "lat": 46.7913377, "lon": 17.4305187, "tags": {"tourism": "viewpoint"}}, {"type": "node", "id": 8898075969, "lat": 46.7768589, "lon": 17.6583596, "tags": {"tourism": "viewpoint"}}, {"type": "node", "id": 8948942745, "lat": 46.8710812, "lon": 17.9332155}, {"type": "node", "id": 8948942746, "lat": 46.8710943, "lon": 17.9332214}, {"type": "node", "id": 8969058174, "lat": 46.7469712, "lon": 17.5492261, "tags": {"direction": "300", "name": "Walko-kil\u00e1t\u00f3", "tourism": "viewpoint"}}, {"type": "node", "id": 9002257933, "lat": 46.8235423, "lon": 17.3624819, "tags": {"alt_name": "T\u00fccs\u00f6kdombi kil\u00e1t\u00f3", "man_made": "tower", "name": "Nemesvita kil\u00e1t\u00f3", "tourism": "viewpoint", "tower:type": "observation"}}, {"type": "node", "id": 9006673536, "lat": 46.9013632, "lon": 17.8982332, "tags": {"direction": "20-220", "tourism": "viewpoint"}}, {"type": "node", "id": 9547481753, "lat": 46.9152244, "lon": 17.8757074, "tags": {"tourism": "viewpoint"}}, {"type": "node", "id": 9547482884, "lat": 46.9142632, "lon": 17.8754756, "tags": {"tourism": "viewpoint"}}, {"type": "node", "id": 9828432318, "lat": 46.7919658, "lon": 17.4420071, "tags": {"tourism": "viewpoint"}}, {"type": "node", "id": 9909744913, "lat": 46.9234578, "lon": 17.8323717, "tags": {"tourism": "viewpoint"}}, {"type": "node", "id": 9921845585, "lat": 46.8711424, "lon": 17.9330862, "tags": {"historic": "memorial", "memorial": "plaque"}}, {"type": "node", "id": 9931383827, "lat": 46.8711353, "lon": 17.9331397}, {"type": "node", "id": 9931383828, "lat": 46.8711017, "lon": 17.9330581}, {"type": "node", "id": 9931383829, "lat": 46.8711301, "lon": 17.9330643}, {"type": "node", "id": 9931383830, "lat": 46.8710784, "lon": 17.9331144}, {"type": "node", "id": 10130007885, "lat": 46.7082219, "lon": 17.3723815, "tags": {"tourism": "viewpoint"}}, {"type": "way", "id": 116727903, "nodes": [1315236760, 1315236636, 1315236790, 9931383830, 1315236676, 1315236712, 1315236793, 1315236723, 9931383828, 1315236700, 1315236681, 9931383829, 1315236680, 9921845585, 1315236653, 1315236734, 1315236822, 9931383827, 1315236757, 1315236640, 1315236751, 8948942746, 8948942745, 1315236760], "tags": {"access": "yes", "addr:city": "Zam\u00e1rdi", "addr:country": "HU", "addr:postcode": "8621", "addr:street": "Kil\u00e1t\u00f3 d\u0171l\u0151", "addr:suburb": "K\u0151hegy", "building": "yes", "description": "II. vh-ban megsemmis\u00fclt ap\u00e1ts\u00e1gi pr\u00e9sh\u00e1z hely\u00e9re \u00e9p\u00fclt kil\u00e1t\u00f3 torony.", "direction": "0-360", "ele": "219", "fee": "no", "height": "5.3", "man_made": "tower", "material": "concrete; brick", "name": "K\u0151hegyi kil\u00e1t\u00f3", "opening_hours": "24/7", "operator": "Zam\u00e1rdi \u00d6nkorm\u00e1nyzata", "source": "survey 2022-08-03", "start_date": "2000-09-10", "tourism": "viewpoint", "tower:construction": "freestanding", "tower:type": "observation", "website": "http://zamardi.hu/kilato/"}}]}