{"version": 0.6, "generator": "Overpass API 0.7.59 e21c39fe", "osm3s": {"timestamp_osm_base": "2023-03-01T09:34:39Z", "copyright": "The data included in this document is from www.openstreetmap.org. The data is made available under ODbL."}, "elements": [{"type": "node", "id": 1601125709, "lat": 47.5801321, "lon": 21.148164, "tags": {"tourism": "viewpoint"}}, {"type": "node", "id": 2383291784, "lat": 47.6133587, "lon": 21.0729196, "tags": {"is_in": "I.-II. t\u00f3; Hortob\u00e1gyi Halastavak; Hortob\u00e1gyi Nemzeti Park", "leisure": "bird_hide", "man_made": "tower", "material": "wood", "name": "F\u00fcgg\u0151cinege torony", "operator": "HNP", "tourism": "viewpoint", "tower:type": "observation"}}, {"type": "node", "id": 2383291785, "lat": 47.6286417, "lon": 21.0789991, "tags": {"is_in": "III.-IV. t\u00f3; Hortob\u00e1gyi Halastavak; Hortob\u00e1gyi Nemzeti Park", "leisure": "bird_hide", "man_made": "tower", "material": "wood", "name": "Kis k\u00e1r\u00f3katona torony", "operator": "HNP", "tourism": "viewpoint", "tower:type": "observation"}}, {"type": "node", "id": 3043827598, "lat": 47.647698, "lon": 21.0879996, "tags": {"is_in": "Kond\u00e1s-t\u00f3; Hortob\u00e1gyi Halastavak; Hortob\u00e1gyi Nemzeti Park", "leisure": "bird_hide", "man_made": "tower", "material": "wood", "name": "Kond\u00e1s Nagytorony", "note": "N47,647714 E21,088022", "operator": "HNP", "tourism": "viewpoint", "tower:type": "observation"}}, {"type": "node", "id": 3043827614, "lat": 47.6480353, "lon": 21.0903132, "tags": {"is_in": "Kond\u00e1s-t\u00f3; Hortob\u00e1gyi Halastavak; Hortob\u00e1gyi Nemzeti Park", "leisure": "bird_hide", "name": "Mad\u00e1rles", "operator": "HNP", "tourism": "viewpoint"}}, {"type": "node", "id": 3043827615, "lat": 47.6476643, "lon": 21.0910844, "tags": {"is_in": "Kond\u00e1s-t\u00f3; Hortob\u00e1gyi Halastavak; Hortob\u00e1gyi Nemzeti Park", "leisure": "bird_hide", "name": "Mad\u00e1rles", "operator": "HNP", "tourism": "viewpoint"}}, {"type": "node", "id": 3043827616, "lat": 47.6468178, "lon": 21.0926267, "tags": {"is_in": "Kond\u00e1s-t\u00f3; Hortob\u00e1gyi Halastavak; Hortob\u00e1gyi Nemzeti Park", "leisure": "bird_hide", "name": "Mad\u00e1rles", "operator": "HNP", "tourism": "viewpoint"}}, {"type": "node", "id": 3043827617, "lat": 47.6472698, "lon": 21.0918841, "tags": {"is_in": "Kond\u00e1s-t\u00f3; Hortob\u00e1gyi Halastavak; Hortob\u00e1gyi Nemzeti Park", "leisure": "bird_hide", "name": "Mad\u00e1rles", "operator": "HNP", "tourism": "viewpoint"}}, {"type": "node", "id": 3043827619, "lat": 47.6133418, "lon": 21.073848, "tags": {"is_in": "Bivalyos-t\u00f3; Hortob\u00e1gyi Halastavak; Hortob\u00e1gyi Nemzeti Park", "leisure": "bird_hide", "material": "wood", "name": "Mad\u00e1rles", "operator": "HNP", "tourism": "viewpoint"}}, {"type": "node", "id": 3437028430, "lat": 47.478734, "lon": 21.611696, "tags": {"name": "Szepes halom", "source": "turistautak.hu", "source:date": "2012-07-03", "tourism": "viewpoint", "url": "http://turistautak.hu/poi.php?id=139961"}}, {"type": "node", "id": 3662360277, "lat": 47.5722144, "lon": 21.2581567, "tags": {"direction": "0-360", "height": "5", "leisure": "bird_hide", "man_made": "tower", "material": "wood", "name": "Csillag-Park, mad\u00e1r megyfigyel\u0151 torony, 33.\u00fat/80km", "operator": "Hortob\u00e1gyi Nemzeti Park Igazgat\u00f3s\u00e1g", "tourism": "viewpoint", "tower:type": "observation", "url": "http://www.hnp.hu/hu/szervezeti-egyseg/turizmus/hortobagyi-csillagosegbolt-park/oldal/a-csillagosegbolt-parkrol", "url:darksky": "fenyszennyezes.hu", "url:ronaorzo": "http://ronaorzo.csillagpark.hu", "website": "http://www.hnp.hu/csillagpark", "wheelchair": "no"}}, {"type": "node", "id": 3714118036, "lat": 47.6424013, "lon": 21.0862932, "tags": {"is_in": "Vi.-VI. t\u00f3; Hortob\u00e1gyi Halastavak; Hortob\u00e1gyi Nemzeti Park", "leisure": "bird_hide", "man_made": "tower", "material": "wood", "name": "mad\u00e1rles", "operator": "HNP", "tourism": "viewpoint", "tower:type": "observation"}}, {"type": "node", "id": 3851865341, "lat": 47.638163, "lon": 21.084416, "tags": {"is_in": "V.-VI. t\u00f3; Hortob\u00e1gyi Halastavak; Hortob\u00e1gyi Nemzeti Park", "leisure": "bird_hide", "man_made": "tower", "material": "wood", "name": "Fatty\u00faszerk\u0151 torony", "operator": "HNP", "source": "turistautak.hu", "tourism": "viewpoint", "tower:type": "observation", "url": "http://turistautak.hu/poi.php?id=76439"}}, {"type": "node", "id": 4915443684, "lat": 47.6848897, "lon": 21.1163596, "tags": {"access": "public", "addr:place": "Hortob\u00e1gyi Csillagos\u00e9gbolt Park", "alt_name": "Hortob\u00e1gy-Cserepes \u00e9szlel\u0151hely", "astronomy": "observatory", "closest_town": "Hortob\u00e1gy", "dark_sky": "yes", "description": "7,11 magnit\u00fad\u00f3 az \u00e9gbolt szabad szemes hat\u00e1rf\u00e9nyess\u00e9ge", "direction": "0-360", "ele": "88", "fee": "no", "is_in": "Cserepes; Hortob\u00e1gyi Csillagos\u00e9gbolt-Park", "leisure": "star_gazing", "name": "amat\u0151rcsillag\u00e1sz \u00e9szlel\u0151hely, Hortob\u00e1gy-\u00c9szak, Cserepes (7,1mn darksky)", "operator": "R\u00f3na\u00f6rz\u0151 Term\u00e9szetv\u00e9delmi Egyes\u00fclet", "ref": "7,13 magnit\u00fad\u00f3", "surface": "grass", "surveillance": "astronomy", "surveillance:type": "viewpoint", "tourism": "viewpoint", "type": "astronomy", "url": "http://egkep.com/?jkwt", "url:darksky": "fenyszennyezes.hu", "url:hnp": "http://www.hnp.hu/hu/szervezeti-egyseg/turizmus/hortobagyi-csillagosegbolt-park/oldal/javasolt-megfigyelohelyek", "url:ronaorzo": "http://ronaorzo.csillagpark.hu", "website": "http://hortobagy.csillagpark.hu/"}}, {"type": "node", "id": 4915443685, "lat": 47.5393068, "lon": 21.0592617, "tags": {"access": "public", "addr:city": "Hortob\u00e1gy-Halast\u00f3", "addr:country": "HU", "addr:district": "Balmaz\u00fajv\u00e1rosi J\u00e1r\u00e1s", "addr:place": "Hortob\u00e1gyi Csillagos\u00e9gbolt Park", "addr:province": "Hajd\u00fa-Bihar Megye", "alt_name": "Hortob\u00e1gy-Faluh\u00eddv\u00e9g \u00e9szlel\u0151hely", "astronomy": "observatory", "closest_town": "Hortob\u00e1gy", "dark_sky": "yes", "description": "7,11 magnit\u00fad\u00f3 az \u00e9gbolt szabad szemes hat\u00e1rf\u00e9nyess\u00e9ge", "direction": "0-360", "ele": "85", "fee": "no", "is_in": "Hortob\u00e1gyi Csillagos\u00e9gbolt-Park", "leisure": "star_gazing", "name": "amat\u0151rcsillag\u00e1sz \u00e9szlel\u0151hely Hortob\u00e1gy-Sz\u00e1sztelek (7,1mn darksky)", "operator": "R\u00f3na\u00f6rz\u0151 Term\u00e9szetv\u00e9delmi Egyes\u00fclet", "surface": "grass", "surveillance": "astronomy", "surveillance:type": "viewpoint", "tourism": "viewpoint", "type": "astronomy", "url": "http://egkep.com/?ecnf", "url:darksky": "fenyszennyezes.hu", "url:hnp": "http://www.hnp.hu/hu/szervezeti-egyseg/turizmus/hortobagyi-csillagosegbolt-park/oldal/javasolt-megfigyelohelyek", "website": "http://hortobagy.csillagpark.hu/"}}, {"type": "node", "id": 5787733627, "lat": 47.5732054, "lon": 21.1417085}, {"type": "node", "id": 5787733628, "lat": 47.5731658, "lon": 21.1417261}, {"type": "node", "id": 5787733629, "lat": 47.5731453, "lon": 21.1416244}, {"type": "node", "id": 5787733630, "lat": 47.5731849, "lon": 21.1416069}, {"type": "node", "id": 5968985218, "lat": 47.5722345, "lon": 21.2583223, "tags": {"access": "yes", "addr:city": "Hortob\u00e1gy-Halast\u00f3", "addr:country": "HU", "addr:district": "Balmaz\u00fajv\u00e1rosi J\u00e1r\u00e1s", "addr:place": "Hortob\u00e1gyi Csillagos\u00e9gbolt Park", "addr:province": "Hajd\u00fa-Bihar Megye", "alt_name": "Hortob\u00e1gy \u00e9szlel\u0151hely", "astronomy": "observatory", "closest_town": "Hortob\u00e1gy", "dark_sky": "yes", "description": "7,11 magnit\u00fad\u00f3 az \u00e9gbolt szabad szemes hat\u00e1rf\u00e9nyess\u00e9ge", "direction": "0-360", "ele": "85", "fee": "no", "is_in": "Hortob\u00e1gyi Nemzeti Park; Hortob\u00e1gyi Csillagos\u00e9gbolt-Park; 33.sz \u00fat", "leisure": "star_gazing", "name": "amat\u0151rcsillag\u00e1sz \u00e9szlel\u0151hely, Hortob\u00e1gy 33.\u00fat/80km (7,1mn darksky)", "operator": "R\u00f3na\u00f6rz\u0151 Term\u00e9szetv\u00e9delmi Egyes\u00fclet", "surface": "grass", "surveillance": "astronomy", "surveillance:type": "viewpoint", "tourism": "viewpoint", "type": "astronomy", "url": "http://egkep.com/?ecnf", "url:darksky": "fenyszennyezes.hu", "url:ronaorzo": "http://ronaorzo.csillagpark.hu", "website": "http://hortobagy.csillagpark.hu/"}}, {"type": "node", "id": 5969505118, "lat": 47.5691522, "lon": 21.2736008, "tags": {"amenity": "parking", "direction": "0-360", "name": "mad\u00e1r megfigyel\u0151 pihen\u0151", "ref": "33-81,5km", "tourism": "viewpoint"}}, {"type": "node", "id": 5969637432, "lat": 47.5772454, "lon": 21.2273555, "tags": {"direction": "0-360", "height": "5", "leisure": "bird_hide", "man_made": "tower", "material": "wood", "name": "Mad\u00e1r megyfigyel\u0151 torony", "operator": "Hortob\u00e1gyi Nemzeti Park Igazgat\u00f3s\u00e1g", "ref": "33.sz. \u00fat - 78km", "tourism": "viewpoint", "tower:type": "observation", "url": "http://www.hnp.hu/hu/szervezeti-egyseg/turizmus/hortobagyi-csillagosegbolt-park/oldal/a-csillagosegbolt-parkrol", "url:darksky": "fenyszennyezes.hu", "url:ronaorzo": "http://ronaorzo.csillagpark.hu", "website": "http://www.hnp.hu/csillagpark", "wheelchair": "no"}}, {"type": "node", "id": 5969969205, "lat": 47.5731358, "lon": 21.141684}, {"type": "node", "id": 5969969206, "lat": 47.573215, "lon": 21.1416489}, {"type": "node", "id": 5970159947, "lat": 47.5753089, "lon": 21.2432603, "tags": {"direction": "0-360", "height": "5", "leisure": "bird_hide", "man_made": "tower", "material": "wood", "name": "Mad\u00e1r megyfigyel\u0151 torony, Sz\u00e1lkahalom", "operator": "Hortob\u00e1gyi Nemzeti Park Igazgat\u00f3s\u00e1g", "ref": "33.sz. \u00fat - 78km", "tourism": "viewpoint", "tower:type": "observation", "url": "http://www.hnp.hu/hu/szervezeti-egyseg/turizmus/hortobagyi-csillagosegbolt-park/oldal/a-csillagosegbolt-parkrol", "url:darksky": "fenyszennyezes.hu", "url:ronaorzo": "http://ronaorzo.csillagpark.hu", "website": "http://www.hnp.hu/csillagpark", "wheelchair": "no"}}, {"type": "node", "id": 5973328716, "lat": 47.5999204, "lon": 21.1006549}, {"type": "node", "id": 5973328717, "lat": 47.5999056, "lon": 21.1006649}, {"type": "node", "id": 5973328718, "lat": 47.5998894, "lon": 21.1006676}, {"type": "node", "id": 5973328719, "lat": 47.5998734, "lon": 21.1006626}, {"type": "node", "id": 5973328720, "lat": 47.5998593, "lon": 21.1006505}, {"type": "node", "id": 5973328721, "lat": 47.5998581, "lon": 21.1005332}, {"type": "node", "id": 5973328722, "lat": 47.5998735, "lon": 21.1005196}, {"type": "node", "id": 5973328723, "lat": 47.5998911, "lon": 21.1005146}, {"type": "node", "id": 5973328724, "lat": 47.5999088, "lon": 21.1005188}, {"type": "node", "id": 6367677866, "lat": 47.5998468, "lon": 21.1005539}, {"type": "node", "id": 6367677867, "lat": 47.5998409, "lon": 21.100579}, {"type": "node", "id": 6367677868, "lat": 47.5998412, "lon": 21.1006055}, {"type": "node", "id": 6367677869, "lat": 47.5998476, "lon": 21.1006304}, {"type": "node", "id": 6367677870, "lat": 47.5999324, "lon": 21.1006385}, {"type": "node", "id": 6367677871, "lat": 47.5999404, "lon": 21.1006174}, {"type": "node", "id": 6367677872, "lat": 47.5999435, "lon": 21.1005936}, {"type": "node", "id": 6367677873, "lat": 47.5999414, "lon": 21.1005696}, {"type": "node", "id": 6367677874, "lat": 47.5999344, "lon": 21.1005478}, {"type": "node", "id": 6367677875, "lat": 47.5999232, "lon": 21.1005302}, {"type": "node", "id": 7659105659, "lat": 47.6020144, "lon": 21.0763398, "tags": {"addr:place": "Hortob\u00e1gyi Csillagos\u00e9gbolt Park", "alt_name": "Hortob\u00e1gy-Cserepes \u00e9szlel\u0151hely", "astronomy": "observatory", "closest_town": "Hortob\u00e1gy", "description": "7,13 magnit\u00fad\u00f3 az \u00e9gbolt szabad szemes hat\u00e1rf\u00e9nyess\u00e9ge", "direction": "0-360", "ele": "88", "is_in": "Halastavak; Hortob\u00e1gyi Csillagos\u00e9gbolt-Park", "name": "amat\u0151rcsillag\u00e1sz \u00e9szlel\u0151hely, Hortob\u00e1gy, Halstavak (7,1mn darksky)", "operator": "R\u00f3na\u00f6rz\u0151 Term\u00e9szetv\u00e9delmi Egyes\u00fclet", "ref": "7,13 magnit\u00fad\u00f3", "surface": "grass", "surveillance": "astronomy", "surveillance:type": "viewpoint", "tourism": "viewpoint", "url": "http://egkep.com/?jkwt", "url:darksky": "fenyszennyezes.hu", "url:hnp": "http://www.hnp.hu/hu/szervezeti-egyseg/turizmus/hortobagyi-csillagosegbolt-park/oldal/javasolt-megfigyelohelyek", "url:ronaorzo": "http://ronaorzo.csillagpark.hu", "website": "http://hortobagy.csillagpark.hu/"}}, {"type": "way", "id": 611270475, "nodes": [5787733630, 5969969206, 5787733627, 5787733628, 5969969205, 5787733629, 5787733630], "tags": {"building": "tower", "direction": "0-360", "tourism": "viewpoint"}}, {"type": "way", "id": 632648079, "nodes": [6367677870, 6367677871, 6367677872, 6367677873, 6367677874, 6367677875, 5973328724, 5973328723, 5973328722, 5973328721, 6367677866, 6367677867, 6367677868, 6367677869, 5973328720, 5973328719, 5973328718, 5973328717, 5973328716, 6367677870], "tags": {"access": "yes", "building": "water_tower", "description": "L\u00e1togat\u00e1s el\u0151zetes bejelent\u00e9shez k\u00f6t\u00f6tt. \u00c9rdekl\u0151dni a HNP L\u00e1togat\u00f3k\u00f6zpontban lehet.", "description:en": "Pre-registration needed. Contact with HNP Visitor Center", "height": "25", "man_made": "tower", "material": "brick", "name": "Kungy\u00f6rgyi torony", "roof:height": "3.5", "roof:shape": "piramidal", "tourism": "viewpoint", "tower:construction": "brick", "tower:type": "observation", "wheelchair": "no"}}]}