{"version": 0.6, "generator": "Overpass API 0.7.59 e21c39fe", "osm3s": {"timestamp_osm_base": "2023-03-01T09:20:23Z", "copyright": "The data included in this document is from www.openstreetmap.org. The data is made available under ODbL."}, "elements": [{"type": "node", "id": 2634651846, "lat": 46.8023783, "lon": 21.6633695, "tags": {"LMI": "BH-II-m-B-00997", "SIRUTA:code": "26984", "addr:city": "Salonta", "addr:housenumber": "4", "addr:postcode": "415500", "addr:street": "Pia\u021ba Libert\u0103\u021bii", "alt_name": "Muzeul turnului Ciunt", "codul_entit\u0103\u021bii_muzeale": "7009500.0", "description:ro": "Fiului poetului, Arany Laszlo, a donat manuscrise originale, o parte a bibliotecii si mobilierul din camera de lucru a tatalui sau.", "museum": "history", "name": "Arany J\u00e1nos Eml\u00e9km\u00fazeum", "name:en": "Arany Janos Memorial Museum", "name:ro": "Muzeul Memorial Arany J\u00e1nos", "opening_hours": "Tu-Su 10:00-16:00; Mo closed", "phone": "0259/371.157", "source": "INP", "source:link": "http://date.gov.ro/dataset/ghidul-muzeelor-din-romania", "start_date": "1885", "tourism": "museum", "tourism_survey": "22.08.2012 13:14:52"}}, {"type": "node", "id": 6551718824, "lat": 46.7993895, "lon": 21.6350645, "tags": {"addr:postcode": "415500", "description:en": "The museum was built in memory of the ancestors of the current inhabitants of Romanian nationality in Salonta that came from Beius area in 1927, mostly from settlements like Ferice, Budureasa, Campani si Rosia. The small museum includes a traditional w...", "description:ro": "Punctul muzeistic a fost ridicat in memoria stramosilor actualilor locuitori de nationalitate romana din Salonta, veniti din zona Beiusului, in anul 1927, mai ales din asezarile Ferice, Budureasa, Campani si Rosia. Punctul muzeistic cuprinde o casa tra...", "foundation_date": "2007", "name": "Muzeul taranului Roman Salonta", "name:en": "Museum of Romanian Peasant", "ref:codul_entita\u021bii_muzeale": "7009502", "reviewed": "no", "tourism": "museum"}}]}