{"version": 0.6, "generator": "Overpass API 0.7.59 e21c39fe", "osm3s": {"timestamp_osm_base": "2023-03-01T09:18:23Z", "copyright": "The data included in this document is from www.openstreetmap.org. The data is made available under ODbL."}, "elements": [{"type": "node", "id": 2782145703, "lat": 48.3017936, "lon": 21.7047332}, {"type": "node", "id": 2782145704, "lat": 48.3016908, "lon": 21.7045198}, {"type": "node", "id": 2782145705, "lat": 48.3016083, "lon": 21.704595}, {"type": "node", "id": 2782145706, "lat": 48.3017232, "lon": 21.704847}, {"type": "node", "id": 3084667359, "lat": 48.397352, "lon": 21.6574839, "tags": {"addr:city": "S\u00e1toralja\u00fajhely", "addr:housenumber": "11", "addr:postcode": "3980", "addr:street": "D\u00f3zsa Gy\u00f6rgy utca", "name": "PIM - Kazinczy Ferenc M\u00fazeum", "opening_hours": "Mo-Sa 08:00-16:00", "phone": "+36 47 322 351", "tourism": "museum"}}, {"type": "node", "id": 3300710816, "lat": 48.2248398, "lon": 21.9216207}, {"type": "node", "id": 3300710817, "lat": 48.2249086, "lon": 21.9220407}, {"type": "node", "id": 3300710818, "lat": 48.2250031, "lon": 21.9220059}, {"type": "node", "id": 3300710819, "lat": 48.2249343, "lon": 21.9215858}, {"type": "node", "id": 3456413845, "lat": 48.4001316, "lon": 21.6532377, "tags": {"name": "B\u00f6rt\u00f6n M\u00fazeum", "source": "turistautak.hu", "source:date": "2012-08-21", "tourism": "museum", "url": "http://turistautak.hu/poi.php?id=121285"}}, {"type": "node", "id": 3456414292, "lat": 48.3963557, "lon": 21.6562723, "tags": {"name": "Zempl\u00e9ni Lev\u00e9lt\u00e1r", "source": "turistautak.hu", "source:date": "2012-08-21", "tourism": "museum", "url": "http://turistautak.hu/poi.php?id=121288"}}, {"type": "node", "id": 3488473638, "lat": 48.25755, "lon": 21.8914, "tags": {"addr:city": "Cig\u00e1nd", "addr:housenumber": "54", "addr:street": "F\u0151 utca", "description": "<a href=\"http://www.geocaching.hu/caches.geo?id=3001\"> R\u00e9szletesebb le\u00edr\u00e1s a GCCIGA geol\u00e1d\u00e1n\u00e1l</a>", "fixme": "resurvey (source was old)", "name": "Falum\u00fazeum", "source": "turistautak.hu", "source:date": "2009-07-28", "tourism": "museum", "url": "http://turistautak.hu/poi.php?id=74829"}}, {"type": "node", "id": 3488473668, "lat": 48.315297, "lon": 21.794576, "tags": {"name": "T\u00e1jh\u00e1z", "source": "turistautak.hu", "source:date": "2010-07-27", "tourism": "museum", "url": "http://turistautak.hu/poi.php?id=98980"}}, {"type": "node", "id": 3488473669, "lat": 48.3212599, "lon": 21.9750517, "tags": {"description": "BAZ megy\u00e9ben, a szlov\u00e1k hat\u00e1rhoz k\u00f6zeli Ricse faluban tal\u00e1ltuk ezt a sz\u00e9pen rendbentartott t\u00e1jh\u00e1zat \u00e9s parkj\u00e1t.", "fixme": "resurvey (source was old)", "name": "T\u00e1jh\u00e1z", "source": "turistautak.hu", "source:date": "2008-06-06", "tourism": "museum", "url": "http://turistautak.hu/poi.php?id=4297"}}, {"type": "node", "id": 3848114080, "lat": 48.3329923, "lon": 21.7467092}, {"type": "node", "id": 3848114081, "lat": 48.3329673, "lon": 21.7465778}, {"type": "node", "id": 3848114082, "lat": 48.3328942, "lon": 21.7465134}, {"type": "node", "id": 3848114083, "lat": 48.3328104, "lon": 21.7465429}, {"type": "node", "id": 3848114084, "lat": 48.3327641, "lon": 21.7466341}, {"type": "node", "id": 3848114085, "lat": 48.3327569, "lon": 21.7467468}, {"type": "node", "id": 3848114086, "lat": 48.3328175, "lon": 21.7468621}, {"type": "node", "id": 3848114087, "lat": 48.3328603, "lon": 21.7468755}, {"type": "node", "id": 3848114088, "lat": 48.3329228, "lon": 21.7468567}, {"type": "node", "id": 3848114089, "lat": 48.3329548, "lon": 21.7468165}, {"type": "node", "id": 3848114090, "lat": 48.3329816, "lon": 21.7467655}, {"type": "node", "id": 5910175156, "lat": 48.2254868, "lon": 21.921606}, {"type": "node", "id": 5910175157, "lat": 48.2255141, "lon": 21.9218599}, {"type": "node", "id": 5910175158, "lat": 48.2255887, "lon": 21.9218418}, {"type": "node", "id": 5910175159, "lat": 48.2255615, "lon": 21.921588}, {"type": "node", "id": 10060784047, "lat": 48.4214656, "lon": 21.9786651, "tags": {"contact:email": "riaditel.kcmap@gmail.com", "contact:phone": "+421 905 223 435", "name": "Region\u00e1lna muze\u00e1lna expoz\u00edcia Jozefa Mail\u00e1tha", "tourism": "museum", "website": "https://www.kcmap.sk/regionalna-muzealna-expozicia-jozefa-mailatha"}}, {"type": "way", "id": 273350099, "nodes": [2782145703, 2782145704, 2782145705, 2782145706, 2782145703], "tags": {"addr:city": "Bodroghalom", "addr:housenumber": "95", "addr:postcode": "3987", "addr:street": "Szabads\u00e1g utca", "building": "yes", "name": "T\u00e1jh\u00e1z", "tourism": "museum"}}, {"type": "way", "id": 323275096, "nodes": [3300710816, 3300710817, 3300710818, 3300710819, 3300710816], "tags": {"addr:city": "Dombr\u00e1d", "addr:housenumber": "4", "addr:postcode": "4492", "addr:street": "K\u00f6lcsey utca", "building": "yes", "name": "Helyt\u00f6rt\u00e9neti ki\u00e1ll\u00edt\u00e1s", "tourism": "museum"}}, {"type": "way", "id": 381633392, "nodes": [3848114080, 3848114081, 3848114082, 3848114083, 3848114084, 3848114085, 3848114086, 3848114087, 3848114088, 3848114089, 3848114090, 3848114080], "tags": {"building": "yes", "description": "A k\u00f6zpontban a legmodernebb technik\u00e1k alkalmaz\u00e1s\u00e1val mutatjuk be a honfoglal\u00e1s t\u00f6rt\u00e9net\u00e9t, az akkor \u00e9lt emberek mindennapjait \u00e9s t\u00e1rgyi kult\u00far\u00e1j\u00e1t.", "name": "Karos Honfoglal\u00e1s Kori L\u00e1togat\u00f3k\u00f6zpont", "opening_hours": "Tu-Fr 10:00-16:00; Sa-Su 10:00-18:00", "tourism": "museum"}}, {"type": "way", "id": 626006278, "nodes": [5910175159, 5910175158, 5910175157, 5910175156, 5910175159], "tags": {"addr:street": "Sz\u00e9chenyi \u00fat", "name": "Vas\u00fati M\u00fazeum", "tourism": "museum"}}]}