{"version": 0.6, "generator": "Overpass API 0.7.59 e21c39fe", "osm3s": {"timestamp_osm_base": "2023-03-01T08:51:03Z", "copyright": "The data included in this document is from www.openstreetmap.org. The data is made available under ODbL."}, "elements": [{"type": "node", "id": 3466255427, "lat": 47.592303, "lon": 16.942835, "tags": {"artwork_type": "statue", "source": "turistautak.hu", "source:date": "2015-01-15", "tourism": "artwork", "url": "http://turistautak.hu/poi.php?id=105964"}}, {"type": "node", "id": 4722136899, "lat": 47.688753, "lon": 17.2518014, "tags": {"artwork_type": "statue", "tourism": "artwork"}}, {"type": "node", "id": 6777705331, "lat": 47.4444415, "lon": 17.2125483, "tags": {"artwork_type": "statue", "name": "Szent Korona", "tourism": "artwork"}}, {"type": "node", "id": 6777906307, "lat": 47.5241207, "lon": 17.1645506, "tags": {"artwork_type": "architecture", "name": "Sz\u00e9kelykapu", "tourism": "artwork"}}, {"type": "node", "id": 6780376633, "lat": 47.4819142, "lon": 16.7295354, "tags": {"artwork_type": "statue", "tourism": "artwork"}}, {"type": "node", "id": 6927671114, "lat": 47.6801953, "lon": 17.249335, "tags": {"artwork_type": "sculpture", "tourism": "artwork"}}, {"type": "node", "id": 7608600078, "lat": 47.4832233, "lon": 16.7383499}, {"type": "node", "id": 7608600079, "lat": 47.4832487, "lon": 16.7383888}, {"type": "node", "id": 7608600080, "lat": 47.4831345, "lon": 16.7384961}, {"type": "node", "id": 7608600081, "lat": 47.4831037, "lon": 16.7383211}, {"type": "node", "id": 7608600082, "lat": 47.4831336, "lon": 16.7383127}, {"type": "node", "id": 7608600083, "lat": 47.4831527, "lon": 16.7384272}, {"type": "node", "id": 7608605764, "lat": 47.4835194, "lon": 16.7373725, "tags": {"artwork_type": "statue", "material": "stone", "tourism": "artwork"}}, {"type": "node", "id": 8133456176, "lat": 47.527542, "lon": 17.2052202, "tags": {"artist_name": "Majoros \u00c1ron Zsolt", "name": "Pl\u00e9hkrisztus", "tourism": "artwork"}}, {"type": "node", "id": 8138036909, "lat": 47.5264098, "lon": 17.2055997, "tags": {"artist_name": "Majoros \u00c1ron Zsolt", "name": "\u00c1ld\u00f3 M\u00e1ria", "tourism": "artwork"}}, {"type": "node", "id": 9779352782, "lat": 47.6199647, "lon": 16.872976, "tags": {"artwork_type": "statue", "name": "Joseph Haydn", "subject:wikipedia": "Joseph Haydn", "tourism": "artwork"}}, {"type": "node", "id": 9779352783, "lat": 47.6203778, "lon": 16.8723763, "tags": {"artwork_type": "statue", "name": "Esterh\u00e1zy Mikl\u00f3s J\u00f3zsef", "name:cs": "Mikul\u00e1\u0161 I. Josef Esterh\u00e1zy z Galanty", "name:de": "Nikolaus I. Joseph Esterh\u00e1zy de Galantha", "name:en": "Nikolaus I, Prince Esterh\u00e1zy", "name:hu": "Esterh\u00e1zy Mikl\u00f3s J\u00f3zsef", "name:sk": "Mikul\u00e1\u0161 Jozef Esterh\u00e1zy", "tourism": "artwork"}}, {"type": "node", "id": 10040311297, "lat": 47.3274094, "lon": 17.0437613, "tags": {"artist_name": "Kisfaludi Strobl Zsigmond", "artwork_type": "bust", "image": "https://www.kozterkep.hu/20865/petofi-sandor#fotolista", "name": "Pet\u0151fi S\u00e1ndor", "tourism": "artwork"}}, {"type": "node", "id": 10302263217, "lat": 47.6265834, "lon": 16.7406577, "tags": {"artwork_type": "statue", "tourism": "artwork"}}, {"type": "way", "id": 814531719, "nodes": [7608600078, 7608600079, 7608600080, 7608600081, 7608600082, 7608600083, 7608600078], "tags": {"area": "yes", "artwork_type": "installation", "name": "K\u0151t\u00e1r", "tourism": "artwork"}}]}