{"version": 0.6, "generator": "Overpass API 0.7.59 e21c39fe", "osm3s": {"timestamp_osm_base": "2023-03-01T09:24:30Z", "copyright": "The data included in this document is from www.openstreetmap.org. The data is made available under ODbL."}, "elements": [{"type": "node", "id": 1088030700, "lat": 46.5727737, "lon": 16.5943819, "tags": {"image": "https://drive.google.com/drive/folders/1rLhjfproIFNQ7K7qBrGuct3OVWjKixof?usp=sharing", "name": "V\u00edzimalom", "tourism": "museum"}}, {"type": "node", "id": 1832835830, "lat": 46.522136, "lon": 16.7092348}, {"type": "node", "id": 1832835832, "lat": 46.5221541, "lon": 16.7090453}, {"type": "node", "id": 1832835833, "lat": 46.5222, "lon": 16.7092477}, {"type": "node", "id": 1832835835, "lat": 46.5222181, "lon": 16.7090581}, {"type": "node", "id": 2943358731, "lat": 46.8293491, "lon": 16.4594992}, {"type": "node", "id": 2943358732, "lat": 46.8293575, "lon": 16.4594234}, {"type": "node", "id": 2943361333, "lat": 46.8293795, "lon": 16.4594612}, {"type": "node", "id": 2943361334, "lat": 46.8293844, "lon": 16.4595598}, {"type": "node", "id": 2943361335, "lat": 46.8293945, "lon": 16.4593772}, {"type": "node", "id": 2943361336, "lat": 46.8294105, "lon": 16.4594046}, {"type": "node", "id": 2943361337, "lat": 46.8294186, "lon": 16.4593945}, {"type": "node", "id": 2943361338, "lat": 46.82946, "lon": 16.4594655}, {"type": "node", "id": 2943361339, "lat": 46.8295012, "lon": 16.459413}, {"type": "node", "id": 2943361340, "lat": 46.8295644, "lon": 16.4593428}, {"type": "node", "id": 2943361341, "lat": 46.8296134, "lon": 16.4596283}, {"type": "node", "id": 2943361342, "lat": 46.8296765, "lon": 16.4595581}, {"type": "node", "id": 3009518816, "lat": 46.7601387, "lon": 16.3435037, "tags": {"name": "Fazekas h\u00e1z", "tourism": "museum"}}, {"type": "node", "id": 3010052592, "lat": 46.8647447, "lon": 16.3404124}, {"type": "node", "id": 3010052593, "lat": 46.8646866, "lon": 16.3404127}, {"type": "node", "id": 3010052594, "lat": 46.8646847, "lon": 16.3402088}, {"type": "node", "id": 3010052595, "lat": 46.8647429, "lon": 16.3402085}, {"type": "node", "id": 3324625629, "lat": 46.594866, "lon": 16.649478, "tags": {"name": "\u00d6veges J\u00f3zsef sz\u00fcl\u0151h\u00e1za", "source": "turistautak.hu", "tourism": "museum", "url": "http://turistautak.hu/poi.php?id=75374"}}, {"type": "node", "id": 3376936754, "lat": 46.84735, "lon": 16.580017, "tags": {"name": "T\u00e1jh\u00e1z", "source": "turistautak.hu", "tourism": "museum", "url": "http://turistautak.hu/poi.php?id=21887"}}, {"type": "node", "id": 3383420293, "lat": 46.78606, "lon": 16.680988, "tags": {"name": "T\u00e1jh\u00e1z", "source": "turistautak.hu", "tourism": "museum", "url": "http://turistautak.hu/poi.php?id=108743"}}, {"type": "node", "id": 3459863009, "lat": 46.736512, "lon": 16.368665, "tags": {"fixme": "resurvey (source was old)", "name": "T\u00e1jh\u00e1z", "source": "turistautak.hu", "source:date": "2008-12-11", "tourism": "museum", "url": "http://turistautak.hu/poi.php?id=52653"}}, {"type": "node", "id": 3468083360, "lat": 46.5211271, "lon": 16.5559553, "tags": {"mapillary": "181529990405634", "name": "Helyt\u00f6rt\u00e9neti gy\u0171jtem\u00e9ny", "tourism": "museum"}}, {"type": "node", "id": 3670921744, "lat": 46.8394604, "lon": 16.4195186}, {"type": "node", "id": 3670921746, "lat": 46.8396941, "lon": 16.4193125}, {"type": "node", "id": 3670921749, "lat": 46.8395474, "lon": 16.4196102}, {"type": "node", "id": 3670921753, "lat": 46.8396071, "lon": 16.4192209}, {"type": "node", "id": 3672849056, "lat": 46.8589662, "lon": 16.3711124}, {"type": "node", "id": 3672849057, "lat": 46.8591628, "lon": 16.3715735}, {"type": "node", "id": 3672849059, "lat": 46.859044, "lon": 16.3710415}, {"type": "node", "id": 3672849065, "lat": 46.8592405, "lon": 16.3715026}, {"type": "node", "id": 3755865239, "lat": 46.5864779, "lon": 16.6597082}, {"type": "node", "id": 3755865240, "lat": 46.5864994, "lon": 16.6596336}, {"type": "node", "id": 3755865241, "lat": 46.5866206, "lon": 16.6597953}, {"type": "node", "id": 3755865242, "lat": 46.5866421, "lon": 16.6597207}, {"type": "node", "id": 3762337320, "lat": 46.6847133, "lon": 16.6768219}, {"type": "node", "id": 3762337321, "lat": 46.6847306, "lon": 16.6769472}, {"type": "node", "id": 3762337322, "lat": 46.6849252, "lon": 16.6767597}, {"type": "node", "id": 3762337323, "lat": 46.6849425, "lon": 16.676885}, {"type": "node", "id": 3762415895, "lat": 46.6848192, "lon": 16.6769212}, {"type": "node", "id": 3774560681, "lat": 46.6110249, "lon": 16.4946462}, {"type": "node", "id": 3774560682, "lat": 46.611033, "lon": 16.4946061}, {"type": "node", "id": 3774560683, "lat": 46.6110415, "lon": 16.4946667}, {"type": "node", "id": 3774560684, "lat": 46.611044, "lon": 16.4946544}, {"type": "node", "id": 3774560685, "lat": 46.6110529, "lon": 16.4946147}, {"type": "node", "id": 3774560686, "lat": 46.6110575, "lon": 16.494592}, {"type": "node", "id": 3774560687, "lat": 46.6111263, "lon": 16.4947329}, {"type": "node", "id": 3774560688, "lat": 46.6111318, "lon": 16.4947056}, {"type": "node", "id": 3774560689, "lat": 46.6111657, "lon": 16.4947498}, {"type": "node", "id": 3774560690, "lat": 46.6111864, "lon": 16.4946476}, {"type": "node", "id": 4254268578, "lat": 46.8472983, "lon": 16.5801932}, {"type": "node", "id": 4254268579, "lat": 46.8472995, "lon": 16.5800958}, {"type": "node", "id": 4254268585, "lat": 46.8474251, "lon": 16.5800993}, {"type": "node", "id": 4254268587, "lat": 46.8474282, "lon": 16.579865}, {"type": "node", "id": 4254268592, "lat": 46.8474979, "lon": 16.5801988}, {"type": "node", "id": 4254268593, "lat": 46.8475022, "lon": 16.5798671}, {"type": "node", "id": 4296528773, "lat": 46.7604476, "lon": 16.3349425}, {"type": "node", "id": 4296528774, "lat": 46.7604655, "lon": 16.3348102}, {"type": "node", "id": 4296528779, "lat": 46.7606138, "lon": 16.3349905}, {"type": "node", "id": 4296528781, "lat": 46.7606318, "lon": 16.3348582}, {"type": "node", "id": 4322893962, "lat": 46.814491, "lon": 16.3144034}, {"type": "node", "id": 4322893974, "lat": 46.8145418, "lon": 16.3144763}, {"type": "node", "id": 4322893985, "lat": 46.814601, "lon": 16.3142398}, {"type": "node", "id": 4322893988, "lat": 46.814621, "lon": 16.3143272}, {"type": "node", "id": 4322893990, "lat": 46.8146317, "lon": 16.3143427}, {"type": "node", "id": 4322893994, "lat": 46.8146411, "lon": 16.3142973}, {"type": "node", "id": 4323040545, "lat": 46.7816624, "lon": 16.2954214}, {"type": "node", "id": 4323040546, "lat": 46.7816719, "lon": 16.2953742}, {"type": "node", "id": 4323040547, "lat": 46.7816674, "lon": 16.2954802}, {"type": "node", "id": 4323040550, "lat": 46.781678, "lon": 16.2954282}, {"type": "node", "id": 4323040551, "lat": 46.7816894, "lon": 16.2953818}, {"type": "node", "id": 4323040553, "lat": 46.7817033, "lon": 16.295313}, {"type": "node", "id": 4323040559, "lat": 46.7817547, "lon": 16.2955179}, {"type": "node", "id": 4323040563, "lat": 46.7817888, "lon": 16.2953499}, {"type": "node", "id": 4325456419, "lat": 46.7043496, "lon": 16.3512067}, {"type": "node", "id": 4325456422, "lat": 46.704374, "lon": 16.3512829}, {"type": "node", "id": 4325456425, "lat": 46.704387, "lon": 16.3512654}, {"type": "node", "id": 4325456426, "lat": 46.7044044, "lon": 16.3511325}, {"type": "node", "id": 4325456428, "lat": 46.7044024, "lon": 16.3513275}, {"type": "node", "id": 4325456430, "lat": 46.7044164, "lon": 16.3513084}, {"type": "node", "id": 4325456441, "lat": 46.7044566, "lon": 16.3513716}, {"type": "node", "id": 4325456449, "lat": 46.7045103, "lon": 16.3512989}, {"type": "node", "id": 4382958464, "lat": 46.6186585, "lon": 16.5304641}, {"type": "node", "id": 4382958465, "lat": 46.618322, "lon": 16.5303702}, {"type": "node", "id": 4382958466, "lat": 46.6182674, "lon": 16.5304914}, {"type": "node", "id": 4382958467, "lat": 46.6186413, "lon": 16.5305948}, {"type": "node", "id": 5584353432, "lat": 46.8607269, "lon": 16.7080891}, {"type": "node", "id": 5814409867, "lat": 46.8652665, "lon": 16.3638475, "tags": {"contact:phone": "+36 30 235 3489;+36 20 918 4312", "description": "Nyitva tart\u00e1si id\u0151n k\u00edv\u00fcl el\u0151zetes egyeztet\u00e9s alapj\u00e1n l\u00e1togathat\u00f3", "name": "Sportmez- \u00e9s sportz\u00e1szl\u00f3-ki\u00e1ll\u00edt\u00e1s", "opening_hours": "Mo-Su 13:00-17:00; PH closed", "operator": "Szalaf\u0151 K\u00f6zs\u00e9g \u00d6nkorm\u00e1nyzata", "tourism": "museum"}}, {"type": "node", "id": 5820529520, "lat": 46.860795, "lon": 16.7076383}, {"type": "node", "id": 5820529521, "lat": 46.8611167, "lon": 16.7077492}, {"type": "node", "id": 5820529522, "lat": 46.8611866, "lon": 16.7082425}, {"type": "node", "id": 6707393662, "lat": 46.840628, "lon": 16.4179622, "tags": {"level": "1", "name": "Szikszay Edit n\u00e9prajzi gy\u0171jtem\u00e9ny \u00e9s k\u00f6z\u00f6ss\u00e9gi h\u00e1z", "start_date": "1985", "tourism": "museum"}}, {"type": "node", "id": 6838073788, "lat": 46.722766, "lon": 16.6379085, "tags": {"name": "Pincem\u00fazeum", "tourism": "museum"}}, {"type": "node", "id": 7554268249, "lat": 46.6183169, "lon": 16.530407}, {"type": "node", "id": 7554268250, "lat": 46.618278, "lon": 16.5303966}, {"type": "node", "id": 7729218541, "lat": 46.6427447, "lon": 16.3744784, "tags": {"level": "1", "name:hu": "De\u00e1k Ferenc-eml\u00e9kszoba", "tourism": "museum"}}, {"type": "node", "id": 8980977392, "lat": 46.8648654, "lon": 16.3406373}, {"type": "node", "id": 8980977394, "lat": 46.8660204, "lon": 16.3403385}, {"type": "node", "id": 8980977397, "lat": 46.864744, "lon": 16.3394762}, {"type": "node", "id": 8980977399, "lat": 46.8645105, "lon": 16.340659}, {"type": "node", "id": 8980977403, "lat": 46.8649029, "lon": 16.3412953}, {"type": "node", "id": 8980977404, "lat": 46.865942, "lon": 16.3411908}, {"type": "node", "id": 8980977405, "lat": 46.8644657, "lon": 16.3396971}, {"type": "node", "id": 9034195414, "lat": 46.8647605, "lon": 16.3396908}, {"type": "node", "id": 9034195415, "lat": 46.8649907, "lon": 16.3399344}, {"type": "node", "id": 9034195416, "lat": 46.8648587, "lon": 16.3397131}, {"type": "node", "id": 9034207017, "lat": 46.8655206, "lon": 16.3400167}, {"type": "node", "id": 9077390493, "lat": 46.61386, "lon": 16.4867809, "tags": {"image": "https://drive.google.com/drive/folders/1KRLGZ9PCoi4ku-FIz8Sz0udscZs4Q5lV?usp=sharing", "name": "Trianon M\u00fazeum", "tourism": "museum"}}, {"type": "node", "id": 9931827180, "lat": 46.7611493, "lon": 16.341664}, {"type": "node", "id": 9931827181, "lat": 46.7611221, "lon": 16.3417842}, {"type": "node", "id": 9931827182, "lat": 46.7613156, "lon": 16.3418613}, {"type": "node", "id": 9931827183, "lat": 46.761338, "lon": 16.3417364}, {"type": "node", "id": 9974422319, "lat": 46.8029062, "lon": 16.3849054, "tags": {"contact:website": "https://www.bajansenye.hu/latnivalok/", "name": "Helyt\u00f6rt\u00e9neti gy\u0171jtem\u00e9ny", "operator": "Baj\u00e1nsenye K\u00f6zs\u00e9g \u00d6nkorm\u00e1nyzata", "start_date": "2011-08", "tourism": "museum"}}, {"type": "way", "id": 172375106, "nodes": [1832835835, 1832835832, 1832835830, 1832835833, 1832835835], "tags": {"name": "Olajipari ki\u00e1ll\u00edt\u00e1s \u00e9s Buda Ern\u0151-eml\u00e9kszoba", "tourism": "museum"}}, {"type": "way", "id": 290820694, "nodes": [2943361335, 2943358732, 2943361333, 2943358731, 2943361334, 2943361338, 2943361337, 2943361336, 2943361335], "tags": {"building": "industrial", "craft": "blacksmith", "name": "Kov\u00e1csm\u0171hely", "name:en": "Blacksmith's workshop", "tourism": "museum"}}, {"type": "way", "id": 290820695, "nodes": [2943361340, 2943361339, 2943361341, 2943361342, 2943361340], "tags": {"building": "house", "name": "N\u00e9pi lak\u00f3h\u00e1z", "name:en": "Rural house", "opening_hours": "Mo-Fr 08:00-16:00;PH closed", "phone": "+36 30 235-0895", "source": "turistautak.hu", "source:date": "2008-03-10", "tourism": "museum", "url": "http://turistautak.hu/poi.php?id=29792"}}, {"type": "way", "id": 297155840, "nodes": [3010052592, 3010052593, 3010052594, 3010052595, 3010052592], "tags": {"building": "house", "description": "V\u00f6r\u00f6s Netti n\u00e9ni (1901-1991) eml\u00e9kszob\u00e1ja", "name": "Szalaf\u0151 Helyt\u00f6rt\u00e9neti Ki\u00e1ll\u00edt\u00e1s", "tourism": "museum"}}, {"type": "way", "id": 362845133, "nodes": [3670921746, 3670921749, 3670921744, 3670921753, 3670921746], "tags": {"addr:city": "\u0150riszentp\u00e9ter", "addr:housenumber": "29", "addr:postcode": "9941", "addr:street": "V\u00e1rosszer", "building": "house", "name": "Vad\u00e1szati Ki\u00e1ll\u00edt\u00e1s", "opening_hours": "Tu-Su 09:00-17:00", "tourism": "museum"}}, {"type": "way", "id": 363076127, "nodes": [3672849065, 3672849057, 3672849056, 3672849059, 3672849065], "tags": {"addr:city": "Szalaf\u0151", "addr:housenumber": "21", "addr:postcode": "9942", "addr:street": "Als\u00f3szer", "alt_name": "Egyszervolt Holnemvolt H\u00e1z", "building": "yes", "email": "info@nepmesepark.hu", "name": "\u00c9gig \u00e9r\u0151 paszuly - N\u00e9pmesepark", "opening_hours": "closed", "phone": "+36 30 397 4921", "tourism": "museum", "website": "http://www.nepmesepark.hu"}}, {"type": "way", "id": 372051192, "nodes": [3755865242, 3755865241, 3755865239, 3755865240, 3755865242], "tags": {"building": "residential", "contact:phone": "+36 30 238 7488", "name": "D\u00f6mef\u00f6ldi t\u00e1jh\u00e1z", "source": "turistautak.hu", "tourism": "museum", "url": "http://turistautak.hu/poi.php?id=85408"}}, {"type": "way", "id": 372682375, "nodes": [3762337321, 3762415895, 3762337323, 3762337322, 3762337320, 3762337321], "tags": {"building": "yes", "name": "Pl\u00e1nder Ferenc Helyt\u00f6rt\u00e9neti Gy\u0171jtem\u00e9ny", "tourism": "museum"}}, {"type": "way", "id": 374051346, "nodes": [3774560683, 3774560688, 3774560687, 3774560689, 3774560690, 3774560686, 3774560685, 3774560682, 3774560681, 3774560684, 3774560683], "tags": {"addr:city": "R\u00e9dics", "addr:postcode": "8978", "building": "yes", "image": "https://drive.google.com/drive/folders/1ujVwcUWZ4MHH9SMxBFGY5HjVCyaoOcZP?usp=sharing", "museum": "local", "name": "T\u00e1jh\u00e1z", "tourism": "museum"}}, {"type": "way", "id": 426111311, "nodes": [4254268593, 4254268592, 4254268578, 4254268579, 4254268585, 4254268587, 4254268593], "tags": {"building": "yes", "name": "T\u00e1jh\u00e1z", "opening_hours": "Tu-Su 10:00-12:00,14:00-16:00; Sa off", "tourism": "museum", "url": "https://www.youtube.com/watch?v=G5ZnpnO5pcU"}}, {"type": "way", "id": 430368614, "nodes": [4296528779, 4296528773, 4296528774, 4296528781, 4296528779], "tags": {"addr:city": "Magyarszombatfa", "addr:housenumber": "9", "addr:postcode": "9946", "addr:street": "F\u0151 \u00fat", "building": "house", "name": "\u0150rs\u00e9gi Vad\u00e1szati Ki\u00e1ll\u00edt\u00e1s", "opening_hours": "Tu-Su 10:00-17:00", "phone": "+36 30 956 6231", "start_date": "2003-05", "tourism": "museum", "website": "http://www.magyarszombatfa.hu/turizmus/latnivalok"}}, {"type": "way", "id": 433799822, "nodes": [4322893985, 4322893994, 4322893988, 4322893990, 4322893974, 4322893962, 4322893985], "tags": {"addr:city": "Hodo\u0161 / Hodos", "addr:city:hu": "Hodos", "addr:city:sl": "Hodo\u0161", "addr:housenumber": "6", "addr:postcode": "9205", "addr:street": "Krplivnik / Kapornak", "addr:street:hu": "Kapornak", "addr:street:sl": "Krplivnik", "building": "house", "description:hu": "Nincs nyitva tart\u00e1s, k\u00e9r\u00e9sre nyitj\u00e1k ki. A kulcs az utca t\u00faloldal\u00e1n l\u00e9v\u0151 h\u00e1zban van, a h\u00e1zigazd\u00e1k k\u00e9szs\u00e9gesen seg\u00edtenek a gy\u0171jtem\u00e9nnyel kapcsolatos inform\u00e1ci\u00f3kat illet\u0151en. (Term\u00e9szetesen besz\u00e9lnek magyarul.)", "name": "\u0150rs\u00e9gi N\u00e9prajzi Gy\u0171jtem\u00e9ny", "name:hu": "\u0150rs\u00e9gi N\u00e9prajzi Gy\u0171jtem\u00e9ny", "old_name:hu": "Skerl\u00e1k-h\u00e1z", "phone": "+386 2 577 1539", "ref:gurs:hs_mid": "13490376", "ref:gurs:sta_sid": "23226257", "source:addr": "GURS", "source:addr:date": "1998-11-22", "tourism": "museum"}}, {"type": "way", "id": 433811631, "nodes": [4323040559, 4323040547, 4323040550, 4323040545, 4323040546, 4323040551, 4323040553, 4323040563, 4323040559], "tags": {"addr:city": "Kri\u017eevci", "addr:housenumber": "41", "addr:postcode": "9206", "addr:street": "Domanj\u0161evci", "building": "house", "description:hu": "Az egykori Kalam\u00e1r-h\u00e1z ma t\u00e1jh\u00e1zk\u00e9nt m\u0171k\u00f6dik. Az els\u0151 ki\u00e1ll\u00edt\u00e1st 2012-ben nyitott\u00e1k meg itt, amely a t\u00f6k- \u00e9s gy\u00fcm\u00f6lcstermeszt\u00e9s, a p\u00e1linkaf\u0151z\u00e9s, a paraszti gazd\u00e1lkod\u00e1s \u00e9s a lakberendez\u00e9s eszk\u00f6zeibe, valamint a n\u00e9pi t\u00e1pl\u00e1lkoz\u00e1sba ny\u00fajt betekint\u00e9st.", "name": "Etnografska hi\u0161a", "name:hu": "T\u00e1jh\u00e1z", "start_date": "1931", "tourism": "museum"}}, {"type": "way", "id": 434413943, "nodes": [4325456426, 4325456449, 4325456441, 4325456430, 4325456428, 4325456422, 4325456425, 4325456419, 4325456426], "tags": {"addr:city": "Prosenjakovci", "addr:housenumber": "68", "addr:postcode": "9207", "addr:street": "Motvarjevci", "building": "house", "name:hu": "T\u00e1jh\u00e1z", "tourism": "museum"}}, {"type": "way", "id": 440552320, "nodes": [4382958464, 4382958465, 7554268249, 7554268250, 4382958466, 4382958467, 4382958464], "tags": {"building": "yes", "description": "B\u00e1r a Lenti\u2013Cs\u00f6m\u00f6d\u00e9r\u2013Kistolm\u00e1cs vonal haz\u00e1nk legforgalmasabb kisvas\u00fatja, els\u0151dleges funkci\u00f3ja m\u00e1ig a fakitermel\u00e9sekr\u0151l az erdei tehersz\u00e1ll\u00edt\u00e1s, az \u00e9vente t\u00f6bb ezer idel\u00e1togat\u00f3 turista m\u00e9gsem ez\u00e9rt szereti.", "image": "https://drive.google.com/drive/folders/13L3PuqG4XFf8PubvzHHwxFiHZf34A5zJ?usp=sharing", "name": "Kisvas\u00fati M\u00fazeum", "tourism": "museum", "url": "http://turistautak.hu/poi.php?id=18249"}}, {"type": "way", "id": 584176064, "nodes": [5584353432, 5820529520, 5820529521, 5820529522, 5584353432], "tags": {"fee": "no", "landuse": "farmyard", "name": "K\u00e1v\u00e1si T\u00e1jh\u00e1zak", "source": "turistautak.hu", "source:date": "2013-08-25", "tourism": "museum", "url": "http://turistautak.hu/poi.php?id=50081", "wheelchair": "no"}}, {"type": "way", "id": 970458277, "nodes": [8980977394, 9034207017, 9034195415, 9034195416, 9034195414, 8980977397, 8980977405, 8980977399, 8980977392, 8980977403, 8980977404, 8980977394], "tags": {"contact:website": "https://www.orseginemzetipark.hu/hu/info/vendegeinknek/bemutatohelyek-latogatokozpontok/orsegi-nepi-muemlekegyuttes.html", "name": "Pityerszer", "opening_hours": "Apr-May 10:00-17:00; Jun-Aug 10:00-18:00; Sep-Oct 10:00-17:00", "tourism": "museum"}}, {"type": "way", "id": 1083791312, "nodes": [9931827180, 9931827181, 9931827182, 9931827183, 9931827180], "tags": {"building": "yes", "contact:website": "https://okl.hu/", "name": "\u0150rs\u00e9gi Ker\u00e1mia L\u00e1togat\u00f3k\u00f6zpont", "opening_hours": "We,Sa 10:00-13:00", "operator": "MAT Ker\u00e1mia Kft.", "tourism": "museum"}}]}