{"version": 0.6, "generator": "Overpass API 0.7.59 e21c39fe", "osm3s": {"timestamp_osm_base": "2023-03-01T08:15:23Z", "copyright": "The data included in this document is from www.openstreetmap.org. The data is made available under ODbL."}, "elements": [{"type": "node", "id": 2960358771, "lat": 47.1820514, "lon": 20.0310793, "tags": {"attraction": "animal", "name": "emu", "name:en": "emeu", "tourism": "attraction"}}, {"type": "node", "id": 2960358772, "lat": 47.1821179, "lon": 20.0315359, "tags": {"attraction": "animal", "name": "k\u00e9tpup\u00fa teve", "name:en": "camel", "tourism": "attraction"}}, {"type": "node", "id": 2960358773, "lat": 47.1819996, "lon": 20.0315658, "tags": {"attraction": "animal", "name": "l\u00e1ma", "name:en": "lama", "tourism": "attraction"}}, {"type": "node", "id": 2960365564, "lat": 47.1816187, "lon": 20.0314208, "tags": {"attraction": "animal", "name": "orm\u00e1nyos medve", "name:en": "weevil bear", "species": "nasua nasua", "tourism": "attraction"}}, {"type": "node", "id": 2960365581, "lat": 47.181364, "lon": 20.0314748, "tags": {"attraction": "animal", "name": "\u0151z", "name:en": "deer", "tourism": "attraction"}}, {"type": "node", "id": 2960368907, "lat": 47.1811925, "lon": 20.031538, "tags": {"attraction": "animal", "name": "emse mak\u00e1k\u00f3", "name:en": "macaque", "tourism": "attraction"}}, {"type": "node", "id": 2960368908, "lat": 47.181168, "lon": 20.0317453, "tags": {"attraction": "animal", "name": "g\u00f3lya", "name:en": "white stork", "tourism": "attraction"}}, {"type": "node", "id": 2960368909, "lat": 47.1809359, "lon": 20.0317744, "tags": {"attraction": "animal", "name": "juh", "name:en": "sheep", "tourism": "attraction"}}, {"type": "node", "id": 2960368910, "lat": 47.1813946, "lon": 20.0316394, "tags": {"attraction": "animal", "name": "l\u00fad", "name:en": "goose", "tourism": "attraction"}}, {"type": "node", "id": 2960368911, "lat": 47.1810612, "lon": 20.0317162, "tags": {"attraction": "animal", "name": "zebra", "name:en": "zebra", "species": "equus burchellii antiqorum", "tourism": "attraction"}}, {"type": "node", "id": 2960387631, "lat": 47.1810752, "lon": 20.032712, "tags": {"attraction": "animal", "name": "(kis) oroszl\u00e1nok", "name:en": "(young) white lions", "tourism": "attraction"}}, {"type": "node", "id": 2960387632, "lat": 47.1812882, "lon": 20.0326332, "tags": {"attraction": "animal", "name": "gy\u0171r\u0171sfark\u00fa maki", "name:en": "ring-tailed lemur", "species": "Lemur catta", "tourism": "attraction"}}, {"type": "node", "id": 2960387833, "lat": 47.180491, "lon": 20.0327554, "tags": {"attraction": "animal", "name": "kecske", "name:en": "goat", "tourism": "attraction"}}, {"type": "node", "id": 2960387834, "lat": 47.1807728, "lon": 20.0332704, "tags": {"attraction": "animal", "name": "l\u00f3", "name:en": "horse", "tourism": "attraction"}}, {"type": "node", "id": 2960387835, "lat": 47.1805821, "lon": 20.0325128, "tags": {"attraction": "animal", "name": "mangalica sert\u00e9s", "name:en": "pig", "tourism": "attraction"}}, {"type": "node", "id": 2960387836, "lat": 47.181278, "lon": 20.0323787, "tags": {"attraction": "animal", "name": "m\u00f3kusmajom", "name:en": "common squirrel monkey", "species": "Saimiri sciureus", "tourism": "attraction"}}, {"type": "node", "id": 2960387837, "lat": 47.1812233, "lon": 20.0332565, "tags": {"attraction": "animal", "name": "ny\u00fal", "name:en": "rabbit", "tourism": "attraction"}}, {"type": "node", "id": 2960387838, "lat": 47.181243, "lon": 20.0321136, "tags": {"attraction": "animal", "name": "n\u00edlusi vizil\u00f3", "name:en": "hippopotamus", "species": "Hippopotamus amphibius", "tourism": "attraction"}}, {"type": "node", "id": 2960387839, "lat": 47.1810527, "lon": 20.0329885, "tags": {"attraction": "animal", "name": "oroszl\u00e1n", "name:en": "lion", "species": "panthera leo", "tourism": "attraction"}}, {"type": "node", "id": 2960387846, "lat": 47.180563, "lon": 20.0322587, "tags": {"attraction": "animal", "name": "p\u00f3nil\u00f3", "name:en": "pony", "tourism": "attraction"}}, {"type": "node", "id": 2960387847, "lat": 47.1805558, "lon": 20.0330006, "tags": {"attraction": "animal", "name": "szam\u00e1r", "name:en": "donkey", "tourism": "attraction"}}, {"type": "node", "id": 2960387848, "lat": 47.1808074, "lon": 20.0329588, "tags": {"attraction": "animal", "name": "szib\u00e9riai tigris", "name:en": "tiger", "species": "panthera tigris altaica", "tourism": "attraction"}}, {"type": "node", "id": 2960387849, "lat": 47.1813151, "lon": 20.0327639, "tags": {"attraction": "animal", "name": "tarajos s\u00fcl", "name:en": "crested porcupine", "species": "Hystrix cristata", "tourism": "attraction"}}, {"type": "node", "id": 2960387850, "lat": 47.1811866, "lon": 20.0319751, "tags": {"attraction": "animal", "name": "vadkacsa", "name:en": "wild duck", "species": "Anas platyrhynchos", "tourism": "attraction"}}, {"type": "node", "id": 2960391285, "lat": 47.181476, "lon": 20.031762, "tags": {"attraction": "animal", "name": "afrikai s\u00f6r\u00e9nyes juh", "name:en": "barbary sheep", "species": "Ammaotragus lervia", "tourism": "attraction"}}, {"type": "node", "id": 2960391286, "lat": 47.1813299, "lon": 20.0320462, "tags": {"attraction": "animal", "name": "j\u00e1vai mak\u00e1k\u00f3", "name:en": "crab-eating macaque", "species": "Macaca fascicularis", "tourism": "attraction"}}, {"type": "node", "id": 2964021235, "lat": 47.1761112, "lon": 20.3018201, "tags": {"aeroway": "parking_position", "description": "Mil Mi-24D Hind, harci helikopter 577-es oldalsz\u00e1mmal", "historic": "aircraft", "name": "Mi-24D (577)", "tourism": "attraction"}}, {"type": "node", "id": 3391065993, "lat": 47.1512678, "lon": 20.1952262, "tags": {"aircraft:model": "PZL M-15 Belphegor", "aircraft:type": "agricultural", "historic": "aircraft", "manufacturer:wikidata": "Q400153", "tourism": "attraction", "wikipedia": "en:PZL_M-15_Belphegor"}}, {"type": "node", "id": 3446927220, "lat": 47.324983, "lon": 19.958183, "tags": {"name": "G\u00f3lyaf\u00e9szek", "source": "turistautak.hu", "source:date": "2010-01-28", "tourism": "attraction", "url": "http://turistautak.hu/poi.php?id=47758"}}, {"type": "node", "id": 4195803601, "lat": 47.172707, "lon": 20.1987344, "tags": {"leisure": "garden", "name": "Roz\u00e1rium, magyar r\u00f3zs\u00e1k kertje", "tourism": "attraction"}}, {"type": "node", "id": 4664878297, "lat": 47.0617206, "lon": 20.3181474}, {"type": "node", "id": 4664878298, "lat": 47.0617202, "lon": 20.3181788}, {"type": "node", "id": 4664878299, "lat": 47.0617131, "lon": 20.3182083}, {"type": "node", "id": 4664878300, "lat": 47.0616041, "lon": 20.3182239}, {"type": "node", "id": 4664878301, "lat": 47.0615929, "lon": 20.3181958}, {"type": "node", "id": 4664878302, "lat": 47.0615887, "lon": 20.3181639}, {"type": "node", "id": 4664878303, "lat": 47.0615918, "lon": 20.3181317}, {"type": "node", "id": 4664878304, "lat": 47.0616999, "lon": 20.318233}, {"type": "node", "id": 4664878305, "lat": 47.061682, "lon": 20.3182503}, {"type": "node", "id": 4664878306, "lat": 47.0616614, "lon": 20.3182583}, {"type": "node", "id": 4664878307, "lat": 47.0616401, "lon": 20.3182563}, {"type": "node", "id": 4664878308, "lat": 47.0616203, "lon": 20.3182444}, {"type": "node", "id": 4664878309, "lat": 47.061602, "lon": 20.3181028}, {"type": "node", "id": 4664878310, "lat": 47.0616181, "lon": 20.3180805}, {"type": "node", "id": 4664878311, "lat": 47.0616384, "lon": 20.3180672}, {"type": "node", "id": 4664878312, "lat": 47.0616605, "lon": 20.3180644}, {"type": "node", "id": 4664878313, "lat": 47.0616819, "lon": 20.3180725}, {"type": "node", "id": 4664878314, "lat": 47.0617004, "lon": 20.3180905}, {"type": "node", "id": 4664878315, "lat": 47.0617138, "lon": 20.3181164}, {"type": "node", "id": 4858966148, "lat": 47.1670599, "lon": 20.1803935, "tags": {"historic": "aircraft", "name": "L-200D Morava (Rend\u0151rs\u00e9g)", "note": "L-200D Morava t\u00f6bbfeladat\u00fa t\u00fararep\u00fcl\u0151g\u00e9p", "tourism": "attraction", "website": "http://www.reptar.hu/repulogepeink/l-200d-morava-tobbfeladatu-turarepulogep.html", "wikidata": "Q428167"}}, {"type": "node", "id": 4858966149, "lat": 47.1673936, "lon": 20.1798771, "tags": {"abandoned:military": "bunker", "historic": "bunker", "name": "L\u00c9RAK: SZ-75 DVINA k\u00f6zepes hat\u00f3t\u00e1vols\u00e1g\u00fa l\u00e9gv\u00e9delmi rak\u00e9ta", "note": "NATO-k\u00f3dja: SA-2 Guideline", "tourism": "attraction", "website": "http://www.reptar.hu/repulogepeink/sz-75-dvina-kozepes-hatotavolsagu-legvedelmi-raketarendszer.html"}}, {"type": "node", "id": 4858966150, "lat": 47.1671648, "lon": 20.1795365, "tags": {"historic": "aircraft", "name": "L-39ZO \"Albatrosz\"", "tourism": "attraction", "website": "http://www.reptar.hu/repulogepeink/l-39zo-albatrosz-sugarhajtomuves-oktato-repulogep.html"}}, {"type": "node", "id": 4858966151, "lat": 47.1671456, "lon": 20.1796599, "tags": {"historic": "aircraft", "name": "MiG-21 Bisz 75A \"Fishbed\"", "tourism": "attraction", "website": "http://www.reptar.hu/repulogepeink/1791.html", "wikidata": "Q150609", "wikipedia": "hu:MiG\u201321"}}, {"type": "node", "id": 4858966152, "lat": 47.1668173, "lon": 20.1812974, "tags": {"historic": "aircraft", "name": "MiG-21", "tourism": "attraction", "wikidata": "Q150609"}}, {"type": "node", "id": 4858966153, "lat": 47.166604, "lon": 20.1802111, "tags": {"historic": "aircraft", "name": "MiG-19 \"Farmer\"", "tourism": "attraction", "wikidata": "Q153307", "wikipedia": "hu:MiG\u201319"}}, {"type": "node", "id": 4858966154, "lat": 47.166604, "lon": 20.1791811, "tags": {"historic": "aircraft", "name": "MiG-23 \"Flogger\"", "tourism": "attraction", "wikidata": "Q155679", "wikipedia": "hu:MiG\u201323"}}, {"type": "node", "id": 4858966155, "lat": 47.1666095, "lon": 20.1789813, "tags": {"historic": "aircraft", "name": "MiG-23 \"Flogger\"", "tourism": "attraction", "wikidata": "Q155679", "wikipedia": "hu:MiG\u201323"}}, {"type": "node", "id": 4858966156, "lat": 47.1666377, "lon": 20.1785374, "tags": {"historic": "aircraft", "name": "MiG-23 \"Flogger\"", "tourism": "attraction", "wikidata": "Q155679", "wikipedia": "hu:MiG\u201323"}}, {"type": "node", "id": 4858966157, "lat": 47.1666578, "lon": 20.1783134, "tags": {"historic": "aircraft", "name": "MiG-23 \"Flogger\"", "tourism": "attraction", "wikidata": "Q155679", "wikipedia": "hu:MiG\u201323"}}, {"type": "node", "id": 4858966168, "lat": 47.1666031, "lon": 20.1804082, "tags": {"historic": "aircraft", "name": "MiG-17PF \"Fresco\"", "tourism": "attraction", "website": "http://www.reptar.hu/repulogepeink/mig-17pf-sugarhajtomuves-vadaszrepulogep.html", "wikidata": "Q152976", "wikipedia": "hu:MiG\u201317"}}, {"type": "node", "id": 4858966169, "lat": 47.1666022, "lon": 20.1806013, "tags": {"historic": "aircraft", "name": "MiG-15 \"Fagot\"", "tourism": "attraction", "wikidata": "Q187377", "wikipedia": "hu:MiG\u201315"}}, {"type": "node", "id": 4858966170, "lat": 47.1665776, "lon": 20.1800193, "tags": {"historic": "aircraft", "name": "MiG-21 \"Fishbed\"", "tourism": "attraction", "wikidata": "Q150609", "wikipedia": "hu:MiG\u201321"}}, {"type": "node", "id": 4858966171, "lat": 47.1665794, "lon": 20.1798342, "tags": {"historic": "aircraft", "name": "MiG-21 \"Fishbed\"", "tourism": "attraction", "wikidata": "Q150609", "wikipedia": "hu:MiG\u201321"}}, {"type": "node", "id": 4858966172, "lat": 47.1667378, "lon": 20.180815, "tags": {"historic": "aircraft", "name": "L-39 \"Albatrosz\"", "tourism": "attraction", "website": "http://www.reptar.hu/repulogepeink/l-39-albatrosz-sugarhajtomuves-oktato-repulogep-capeti-ii.html"}}, {"type": "node", "id": 4858966174, "lat": 47.1666168, "lon": 20.1787672, "tags": {"historic": "aircraft", "name": "MiG-23 \"Flogger\"", "tourism": "attraction", "wikidata": "Q155679", "wikipedia": "hu:MiG\u201323"}}, {"type": "node", "id": 4858966175, "lat": 47.166579, "lon": 20.179603, "tags": {"historic": "aircraft", "name": "MiG-21U \"Fishbed\" (2)", "note": "2 \u00fcl\u00e9ses = MiG-21U", "tourism": "attraction", "wikidata": "Q150609", "wikipedia": "hu:MiG\u201321"}}, {"type": "node", "id": 4858966177, "lat": 47.1667281, "lon": 20.1781078, "tags": {"historic": "aircraft", "name": "Szu-22M3 \"Fitter\"", "tourism": "attraction", "wikidata": "Q183146", "wikipedia": "hu:Szu\u201322"}}, {"type": "node", "id": 4858966178, "lat": 47.1666048, "lon": 20.1808074, "tags": {"historic": "aircraft", "name": "MiG-15 \"Fagot\"", "tourism": "attraction", "wikidata": "Q187377", "wikipedia": "hu:MiG\u201315"}}, {"type": "node", "id": 4858966179, "lat": 47.1669989, "lon": 20.1808772, "tags": {"historic": "aircraft", "name": "L-29 \"Delfin\"", "tourism": "attraction", "website": "http://www.reptar.hu/repulogepeink/l-29-delfin-sugarhajtomuves-oktato-repulogep.html", "wikidata": "Q167277"}}, {"type": "node", "id": 4858966180, "lat": 47.1670276, "lon": 20.1811336, "tags": {"historic": "aircraft", "name": "Mi-8T \"Hip\"", "tourism": "attraction", "website": "http://www.reptar.hu/repulogepeink/mi-8t-kozepes-szallito-helikopter.html", "wikidata": "Q155635", "wikipedia": "hu:Mi\u20138"}}, {"type": "node", "id": 4858966181, "lat": 47.1671962, "lon": 20.1793055, "tags": {"historic": "aircraft", "name": "Mi-24 \"Hind\", Cs\u0151rike", "tourism": "attraction", "wikidata": "Q155651", "wikipedia": "hu:Mi\u201324"}}, {"type": "node", "id": 4859014898, "lat": 47.166583, "lon": 20.1793635, "tags": {"description": "2 \u00fcl\u00e9ses = MiG-21U", "historic": "aircraft", "name": "MiG-21U \"Fishbed\" (2)", "tourism": "attraction", "wikidata": "Q150609", "wikipedia": "hu:MiG\u201321"}}, {"type": "node", "id": 4859052883, "lat": 47.1674926, "lon": 20.1773193, "tags": {"abandoned:military": "bunker", "historic": "bunker", "name": "L\u00c9RAK: SZ-125 NYEVA k\u00f6z\u00e9p-hat\u00f3magass\u00e1g\u00fa l\u00e9gv\u00e9delmi rak\u00e9ta", "tourism": "attraction", "website": "http://www.reptar.hu/repulogepeink/sz-125-nyeva-kozep-hatomagassagu-honi-legvedelmi-raketa.html"}}, {"type": "node", "id": 4859052884, "lat": 47.1672908, "lon": 20.1781591, "tags": {"name": "P-37 lok\u00e1tor", "tourism": "attraction", "website": "http://www.reptar.hu/repulogepeink/p-37-lokator.html"}}, {"type": "node", "id": 5076802677, "lat": 47.1669199, "lon": 20.1805117, "tags": {"historic": "aircraft", "name": "Mi-24 \"Hind\"", "tourism": "attraction", "wikidata": "Q155651", "wikipedia": "hu:Mi\u201324"}}, {"type": "node", "id": 5106213777, "lat": 47.1670765, "lon": 20.1800063, "tags": {"date": "2017", "historic": "aircraft", "name": "MiG-29 \"Fulcrum\"", "tourism": "attraction", "website": "http://www.reptar.hu/", "wikidata": "Q130681", "wikipedia": "hu:MiG\u201329"}}, {"type": "node", "id": 5213930967, "lat": 47.1822725, "lon": 19.8069889, "tags": {"historic": "locomotive", "locomotive:type": "steam", "ref": "275.118", "toilets:wheelchair": "yes", "tourism": "attraction"}}, {"type": "node", "id": 5484991265, "lat": 47.1640556, "lon": 20.2026195, "tags": {"historic": "aircraft", "name": "Mi-24 \"Hind\"", "opening_hours": "24/7", "tourism": "attraction"}}, {"type": "node", "id": 5499233377, "lat": 47.1675487, "lon": 20.177714, "tags": {"name": "TSZSZT sz\u00e1ll\u00edt\u00f3 targonca V-755 rak\u00e9t\u00e1hoz", "tourism": "attraction", "website": "http://www.reptar.hu/repulogepeink/tszszt-szallito-targonca-v-755-raketahoz.html"}}, {"type": "node", "id": 5499233379, "lat": 47.1674549, "lon": 20.1778037, "tags": {"name": "P-19 lok\u00e1tor", "tourism": "attraction", "website": "http://www.reptar.hu/repulogepeink/p-19-lokator.html"}}, {"type": "node", "id": 5499233380, "lat": 47.167361, "lon": 20.1774842, "tags": {"name": "PR-11 BM sz\u00e1ll\u00edt\u00f3-t\u00f6lt\u0151 ut\u00e1nfut\u00f3 V-755 gyakorl\u00f3 rak\u00e9t\u00e1val", "note": "A weboldalon rossz k\u00e9p van. Az egyel mellette l\u00e9v\u0151 SZ-75 DVINA-t fot\u00f3zt\u00e1k le. 2018-03-23", "tourism": "attraction", "website": "http://www.reptar.hu/repulogepeink/pr-11-bm-szallito-tolto-utanfuto-v-755-gyakorlo-raketaval.html"}}, {"type": "node", "id": 5499233381, "lat": 47.1671933, "lon": 20.1777138, "tags": {"historic": "vehicle", "name": "PR14 AM sz\u00e1ll\u00edt\u00f3-t\u00f6lt\u0151 g\u00e9pkocsi V-601P gyakorl\u00f3 rak\u00e9t\u00e1kkal", "tourism": "attraction", "website": "http://www.reptar.hu/repulogepeink/pr14-szallito-tolto-gepkocsi-v-601p-gyakorlo-raketakkal.html"}}, {"type": "node", "id": 5499233382, "lat": 47.1672777, "lon": 20.1777603, "tags": {"historic": "vehicle", "tourism": "attraction"}}, {"type": "node", "id": 5499233383, "lat": 47.1672049, "lon": 20.1778223, "tags": {"historic": "vehicle", "tourism": "attraction"}}, {"type": "node", "id": 5499233384, "lat": 47.1671343, "lon": 20.1779744, "tags": {"historic": "vehicle", "tourism": "attraction"}}, {"type": "node", "id": 5499233385, "lat": 47.1675171, "lon": 20.1779216, "tags": {"historic": "vehicle", "tourism": "attraction"}}, {"type": "node", "id": 5499233386, "lat": 47.1674496, "lon": 20.177903, "tags": {"historic": "vehicle", "tourism": "attraction"}}, {"type": "node", "id": 5499233387, "lat": 47.1672756, "lon": 20.1778534, "tags": {"historic": "vehicle", "tourism": "attraction"}}, {"type": "node", "id": 5499233388, "lat": 47.1673631, "lon": 20.1778813, "tags": {"historic": "vehicle", "tourism": "attraction"}}, {"type": "node", "id": 5499233389, "lat": 47.1675234, "lon": 20.1776734, "tags": {"abandoned:military": "bunker", "historic": "bunker", "name": "SZ-75 DVINA k\u00f6zepes hat\u00f3t\u00e1vols\u00e1g\u00fa l\u00e9gv\u00e9delmi rak\u00e9tarendszer", "tourism": "attraction", "website": "http://www.reptar.hu/repulogepeink/sz-75-dvina-kozepes-hatotavolsagu-legvedelmi-raketarendszer.html"}}, {"type": "node", "id": 5501989429, "lat": 47.2879912, "lon": 19.8657713, "tags": {"historic": "technical_monument", "name": "T\u00e1pi\u00f3sz\u0151l\u0151si metr\u00f3kocsik", "tourism": "attraction"}}, {"type": "node", "id": 5578298370, "lat": 47.1867698, "lon": 20.0063668}, {"type": "node", "id": 5578298371, "lat": 47.1863579, "lon": 20.0066404}, {"type": "node", "id": 5578298372, "lat": 47.1867553, "lon": 20.0079332}, {"type": "node", "id": 5578298373, "lat": 47.1872073, "lon": 20.0076328}, {"type": "node", "id": 7578335026, "lat": 47.1307883, "lon": 20.2213857, "tags": {"historic": "aircraft", "name": "Tu-134", "official_name": "Tupoljev 134", "ref": "HA-LBF", "tourism": "attraction", "website": "http://www.reptar.hu/repulogepeink/l-39-albatrosz-sugarhajtomuves-oktato-repulogep-capeti-ii.html", "wikidata": "Q159067", "wikipedia": "hu:Tu\u2013134"}}, {"type": "node", "id": 7578335027, "lat": 47.1301469, "lon": 20.2201062, "tags": {"historic": "aircraft", "name": "Li-2-es rep\u00fcl\u0151g\u00e9p", "official_name": "Lisunov Li-2", "ref": "HA-LIS, 301-es oldalsz\u00e1m", "tourism": "attraction", "wikidata": "Q662591", "wikipedia": "hu:Li\u20132"}}, {"type": "node", "id": 7578335028, "lat": 47.1308998, "lon": 20.2200233, "tags": {"historic": "aircraft", "name": "L-29 \"Delfin\"", "tourism": "attraction", "website": "http://www.reptar.hu/repulogepeink/l-29-delfin-sugarhajtomuves-oktato-repulogep.html", "wikidata": "Q167277"}}, {"type": "node", "id": 7578335029, "lat": 47.1308347, "lon": 20.2200228, "tags": {"historic": "aircraft", "name": "L-39 \"Albatrosz\"", "tourism": "attraction", "website": "http://www.reptar.hu/repulogepeink/l-39-albatrosz-sugarhajtomuves-oktato-repulogep-capeti-ii.html"}}, {"type": "node", "id": 8565495518, "lat": 47.2877735, "lon": 19.865545}, {"type": "node", "id": 8565495519, "lat": 47.2876407, "lon": 19.8666474}, {"type": "node", "id": 8565495520, "lat": 47.2885249, "lon": 19.8667654}, {"type": "node", "id": 8565495521, "lat": 47.2886214, "lon": 19.8657086}, {"type": "node", "id": 9388914015, "lat": 47.20721, "lon": 20.28857, "tags": {"description": "Elrendelte: F\u00f6ldm\u0171vel\u00e9s\u00fcgyi miniszter 71544/I/1-a sz\u00e1m\u00fa rendelete I-II. (1898. november 19.)", "ele": "89", "name": "Erzs\u00e9bet kir\u00e1lyn\u00e9 t\u00f6lgyf\u00e1i", "opening_hours": "24/7", "place": "locality", "ref": "1900", "reservation": "no", "tourism": "attraction", "url": "http://mek.oszk.hu/21400/21419/21419.pdf", "website": "https://geocaching.hu/caches.geo?id=2177", "wikidata": "Q31093173", "wikipedia": "hu:Erzs\u00e9bet-eml\u00e9kf\u00e1k"}}, {"type": "way", "id": 472270367, "nodes": [4664878309, 4664878310, 4664878311, 4664878312, 4664878313, 4664878314, 4664878315, 4664878297, 4664878298, 4664878299, 4664878304, 4664878305, 4664878306, 4664878307, 4664878308, 4664878300, 4664878301, 4664878302, 4664878303, 4664878309], "tags": {"building": "yes", "man_made": "windmill", "name": "Kengyel, Bagi-majori sz\u00e9lmalom", "source": "bing", "tourism": "attraction"}}, {"type": "way", "id": 583476949, "nodes": [5578298370, 5578298371, 5578298372, 5578298373, 5578298370], "tags": {"leisure": "playground", "tourism": "attraction"}}, {"type": "way", "id": 922693692, "nodes": [8565495521, 8565495520, 8565495519, 8565495518, 8565495521], "tags": {"landuse": "commercial", "name": "T\u00e1pi\u00f3sz\u0151l\u0151si metr\u00f3kocsik", "tourism": "attraction"}}]}