{"version": 0.6, "generator": "Overpass API 0.7.59 e21c39fe", "osm3s": {"timestamp_osm_base": "2023-03-01T08:12:22Z", "copyright": "The data included in this document is from www.openstreetmap.org. The data is made available under ODbL."}, "elements": [{"type": "node", "id": 290188064, "lat": 46.2698369, "lon": 18.8205426, "tags": {"name": "Cserencs Vad\u00e1szh\u00e1z-M\u00fazeum", "tourism": "attraction"}}, {"type": "node", "id": 871607437, "lat": 46.519423, "lon": 18.9756745, "tags": {"amenity": "cemetery", "name": "Izraelita temet\u0151", "name:en": "Jewish Cemetery", "religion": "jewish", "tourism": "attraction"}}, {"type": "node", "id": 3009291903, "lat": 46.5100308, "lon": 19.0470063, "tags": {"historic": "yes", "man_made": "campanile", "material": "wood", "name": "Harangl\u00e1b", "tourism": "attraction"}}, {"type": "node", "id": 3009291905, "lat": 46.4795048, "lon": 19.0989731, "tags": {"historic": "ruins", "name": "S\u00e1rm\u00e9gy templomrom", "tourism": "attraction"}}, {"type": "node", "id": 3176553257, "lat": 46.3460597, "lon": 18.5932871, "tags": {"tourism": "attraction"}}, {"type": "node", "id": 3176577165, "lat": 46.3466482, "lon": 18.5936009, "tags": {"tourism": "attraction"}}, {"type": "node", "id": 3487703900, "lat": 46.1858712, "lon": 18.9567543, "tags": {"description": "Ez a g\u0151zmozdony k\u00f6zlekedett a Baja-Hercegsz\u00e1nt\u00f3 vas\u00fatvonalon (az 1950-es \u00e9vekt\u0151l kezdve Csepregi P\u00e1l vezette https://library.hungaricana.hu/hu/view/BacsKiskunMegyeiNepujsag_1957_04/?pg=118&layout=s ) m\u00edg a s\u00edneket fel nem szedt\u00e9k, 1972-ben.", "locomotive:type": "steam", "name": "M\u00c1V 376 g\u0151zmozdony, \"Panni\"", "ref": "M\u00c1V 376,513", "tourism": "attraction", "url": "http://turistautak.hu/poi.php?id=73221", "website": "https://library.hungaricana.hu/hu/view/BacsKiskunMegyeiNepujsag_1957_04/?pg=118&layout=s"}}, {"type": "node", "id": 4919807996, "lat": 46.3235122, "lon": 19.1647589, "tags": {"date": "1998", "description": "A ter\u00fclet szabadon l\u00e1togathat\u00f3, de megk\u00f6zel\u00edt\u00e9se nem egyszer\u0171, t\u00e1vol esik minden forgalmas \u00fatt\u00f3l.", "leisure": "nature_reserve", "name": "Haj\u00f3si Homokpuszta Term\u00e9szetv\u00e9delmi Ter\u00fclet", "opening_hours": "24/7", "operator": "Kiskuns\u00e1gi Nemzeti Park Igazgat\u00f3s\u00e1g 6000 Kecskem\u00e9t, Liszt F. u. 19.", "place": "locality", "ref": "\u00e9g: 7,44 magnit\u00fad\u00f3 hat\u00e1rf\u00e9nyess\u00e9g", "ref:hu_geocaching": "3118. Haj\u00f3si homokpuszta (GCHAHO)", "tourism": "attraction", "url:egkep": "http://egkep.com/?nuhh", "url:geocaching": "http://geocaching.hu/caches.geo?id=3726", "website": "http://knp.nemzetipark.gov.hu/index.php?pg=menu_1530", "wheelchair": "limited"}}, {"type": "node", "id": 5616912014, "lat": 46.4198322, "lon": 19.1670534, "tags": {"name": "Hungarian Grey cattle", "tourism": "attraction", "wikidata": "Q776312", "wikipedia": "en:Hungarian Grey"}}, {"type": "node", "id": 7047461173, "lat": 46.3786559, "lon": 18.7043781}, {"type": "node", "id": 7047461174, "lat": 46.3787127, "lon": 18.7043058}, {"type": "node", "id": 7047461175, "lat": 46.3786772, "lon": 18.7042051}, {"type": "node", "id": 7047461176, "lat": 46.3787294, "lon": 18.7042526}, {"type": "node", "id": 7047461177, "lat": 46.3786555, "lon": 18.7043794}, {"type": "node", "id": 7047461178, "lat": 46.3787402, "lon": 18.7044351}, {"type": "node", "id": 7047461179, "lat": 46.3787655, "lon": 18.7044225}, {"type": "node", "id": 7047461180, "lat": 46.3787794, "lon": 18.7043782}, {"type": "node", "id": 7047461181, "lat": 46.378769, "lon": 18.7043428}, {"type": "node", "id": 7047461182, "lat": 46.3787838, "lon": 18.7042591}, {"type": "node", "id": 7047461183, "lat": 46.3787976, "lon": 18.7042148}, {"type": "node", "id": 7047461184, "lat": 46.3784562, "lon": 18.7042471}, {"type": "node", "id": 7047469185, "lat": 46.3785047, "lon": 18.7040919}, {"type": "node", "id": 7047469186, "lat": 46.3787584, "lon": 18.7042717}, {"type": "node", "id": 7047469187, "lat": 46.3787873, "lon": 18.7041794}, {"type": "node", "id": 7047469188, "lat": 46.3787026, "lon": 18.7041237}, {"type": "node", "id": 7692111022, "lat": 46.2878677, "lon": 18.6121867, "tags": {"name": "Ortodox templomok makettje", "tourism": "attraction"}}, {"type": "node", "id": 9867578879, "lat": 46.1810766, "lon": 18.9260108, "tags": {"addr:city": "Baja", "addr:housenumber": "65", "addr:postcode": "6500", "addr:street": "T\u00fcrr eml\u00e9km\u0171 part", "name": "Bajai Haj\u00f3malom Egyes\u00fclet", "phone": "+36306438904", "tourism": "attraction", "website": "http://bajaihajomalom.hu/"}}, {"type": "way", "id": 754356096, "nodes": [7047461174, 7047461181, 7047461180, 7047461179, 7047461178, 7047461177, 7047461173, 7047461184, 7047469185, 7047461175, 7047469188, 7047469187, 7047461183, 7047461182, 7047469186, 7047461176, 7047461174], "tags": {"architect": "Makovecz Imre", "architect:wikipedia": "hu:Makovecz Imre", "building": "yes", "building:levels": "2", "description": "30 \u00e9ve \u00fczemen k\u00edv\u00fcl, 2019-ben fel\u00faj\u00edt\u00e1sa alatt, 2020-ban felf\u00fcggesztve", "disused": "building", "height": "8", "old_name": "Si\u00f3 cs\u00e1rda", "tourism": "attraction"}}]}