{"version": 0.6, "generator": "Overpass API 0.7.59 e21c39fe", "osm3s": {"timestamp_osm_base": "2023-03-01T08:23:34Z", "copyright": "The data included in this document is from www.openstreetmap.org. The data is made available under ODbL."}, "elements": [{"type": "node", "id": 1747147072, "lat": 48.0651375, "lon": 22.5082376, "tags": {"name": "Tisza-Bemutat\u00f3h\u00e1z", "tourism": "attraction"}}, {"type": "node", "id": 1747147073, "lat": 48.0649478, "lon": 22.5213323, "tags": {"name": "Tiszai v\u00edzm\u00e9rce", "tourism": "attraction"}}, {"type": "node", "id": 1747147098, "lat": 48.0649649, "lon": 22.5184194, "tags": {"name": "\u00c1rv\u00edzi eml\u00e9kpark", "tourism": "attraction"}}, {"type": "node", "id": 2103502492, "lat": 48.1346701, "lon": 22.5202298, "tags": {"name": "Kock\u00e1sliliom \u00e9l\u0151helye", "tourism": "attraction"}}, {"type": "node", "id": 2588051963, "lat": 47.9542237, "lon": 22.8953141, "tags": {"historic": "boundary_stone", "name": "H\u00e1rmashat\u00e1rk\u0151", "tourism": "attraction"}}, {"type": "node", "id": 3465156710, "lat": 48.0471787, "lon": 22.6408586, "tags": {"description": "Szatm\u00e1rikum H\u00e1za Lehet\u0151s\u00e9g van megk\u00f3stolni a helyi specialit\u00e1sokat: - Keny\u00e9rl\u00e1ngos - Bukta - Lekv\u00e1rok", "name": "Szatm\u00e1rikum H\u00e1za", "source": "turistautak.hu", "source:date": "2011-09-23", "tourism": "attraction", "url": "http://turistautak.hu/poi.php?id=51368"}}, {"type": "node", "id": 3465156734, "lat": 48.029367, "lon": 22.589133, "tags": {"description": "Ki\u00e1ll\u00edtott muze\u00e1lis t\u0171zolt\u00f3kocsi.", "name": "T\u0171zolt\u00f3kocsi", "source": "turistautak.hu", "source:date": "2011-05-03", "tourism": "attraction", "url": "http://turistautak.hu/poi.php?id=8610"}}, {"type": "node", "id": 3497665996, "lat": 47.8428713, "lon": 22.7028218, "tags": {"historic": "yes", "man_made": "campanile", "material": "wood", "tourism": "attraction"}}, {"type": "node", "id": 3597326261, "lat": 48.1242542, "lon": 22.7910111}, {"type": "node", "id": 3597326262, "lat": 48.1243018, "lon": 22.7910087}, {"type": "node", "id": 3597329905, "lat": 48.1243033, "lon": 22.7910801}, {"type": "node", "id": 3597329906, "lat": 48.1242557, "lon": 22.7910817}, {"type": "node", "id": 3597329907, "lat": 48.124316, "lon": 22.7910797}, {"type": "node", "id": 3597329908, "lat": 48.1242483, "lon": 22.791322}, {"type": "node", "id": 3597329909, "lat": 48.1242541, "lon": 22.7913218}, {"type": "node", "id": 3597329910, "lat": 48.1243125, "lon": 22.7913165}, {"type": "node", "id": 3597329911, "lat": 48.1243195, "lon": 22.7913163}, {"type": "node", "id": 3597329912, "lat": 48.1243092, "lon": 22.7914187}, {"type": "node", "id": 3597329913, "lat": 48.124257, "lon": 22.7914199}, {"type": "node", "id": 3597329918, "lat": 48.1243131, "lon": 22.7913948}, {"type": "node", "id": 3597329919, "lat": 48.1242553, "lon": 22.7913989}, {"type": "node", "id": 3597329920, "lat": 48.1242991, "lon": 22.7914386}, {"type": "node", "id": 3597329921, "lat": 48.1242671, "lon": 22.7914391}, {"type": "node", "id": 3597329922, "lat": 48.1242448, "lon": 22.7910821}, {"type": "node", "id": 4594555971, "lat": 48.0572461, "lon": 22.5531443, "tags": {"name": "R\u00f3zsa kert", "tourism": "attraction"}}, {"type": "node", "id": 6945671090, "lat": 47.9922723, "lon": 22.630641, "tags": {"man_made": "tower", "name": "Fa harangl\u00e1b", "source": "survey", "tourism": "attraction", "tower:type": "bell_tower"}}, {"type": "node", "id": 8710512273, "lat": 47.9418198, "lon": 22.3741261, "tags": {"addr:city": "Kocsord", "addr:housenumber": "1", "addr:postcode": "4751", "addr:street": "Hunyadi J\u00e1nos utca", "name": "Atombunker", "note": "Szalacsi S\u00e1ndor nyom\u00e1n h\u00edress\u00e9 v\u00e1lt \"ojjektum\"", "operator": "Fogarasi \u00c1rp\u00e1d", "tourism": "attraction", "wikidata": "Q1294159", "wikipedia": "hu:Szalacsi S\u00e1ndor"}}, {"type": "way", "id": 353942137, "nodes": [3597329907, 3597329905, 3597326262, 3597326261, 3597329906, 3597329922, 3597329908, 3597329909, 3597329919, 3597329913, 3597329921, 3597329920, 3597329912, 3597329918, 3597329910, 3597329911, 3597329907], "tags": {"addr:city": "\u0427\u0435\u0442\u0444\u0430\u043b\u0432\u0430", "addr:housenumber": "91", "addr:postcode": "90262", "addr:street": "\u0432\u0443\u043b\u0438\u0446\u044f \u041f\u0435\u0442\u0435\u0444\u0456", "amenity": "place_of_worship", "building": "church", "denomination": "reformed", "heritage": "2", "historic": "church", "name": "\u0420\u0435\u0444\u043e\u0440\u043c\u0430\u0442\u0441\u044c\u043a\u0430 \u0446\u0435\u0440\u043a\u0432\u0430", "name:hu": "Refom\u00e1tus templom", "name:uk": "\u0420\u0435\u0444\u043e\u0440\u043c\u0430\u0442\u0441\u044c\u043a\u0430 \u0446\u0435\u0440\u043a\u0432\u0430", "religion": "christian", "tourism": "attraction", "wikidata": "Q12097266", "wikipedia": "uk:\u0413\u043e\u0442\u0438\u0447\u043d\u0438\u0439 \u0440\u0435\u0444\u043e\u0440\u043c\u0430\u0442\u0441\u044c\u043a\u0438\u0439 \u0445\u0440\u0430\u043c (\u0427\u0435\u0442\u0444\u0430\u043b\u0432\u0430)"}}]}