{"version": 0.6, "generator": "Overpass API 0.7.59 e21c39fe", "osm3s": {"timestamp_osm_base": "2023-03-01T08:39:53Z", "copyright": "The data included in this document is from www.openstreetmap.org. The data is made available under ODbL."}, "elements": [{"type": "node", "id": 5175248646, "lat": 48.461383, "lon": 19.967417, "tags": {"artwork_type": "statue", "material": "wood", "tourism": "artwork"}}, {"type": "node", "id": 5175249836, "lat": 48.4440852, "lon": 19.9749738, "tags": {"artwork_type": "statue", "material": "wood", "tourism": "artwork"}}, {"type": "node", "id": 5175249862, "lat": 48.4479863, "lon": 19.9843344, "tags": {"artwork_type": "statue", "material": "wood", "tourism": "artwork"}}, {"type": "node", "id": 5175249867, "lat": 48.4488721, "lon": 19.984733, "tags": {"tourism": "artwork"}}, {"type": "node", "id": 5175249869, "lat": 48.4489201, "lon": 19.9845895, "tags": {"artwork_type": "statue", "material": "wood", "tourism": "artwork"}}, {"type": "node", "id": 5175249884, "lat": 48.4519213, "lon": 19.9771062, "tags": {"artwork_type": "statue", "material": "wood", "tourism": "artwork"}}, {"type": "node", "id": 5175249888, "lat": 48.4532884, "lon": 19.9761218, "tags": {"artwork_type": "statue", "material": "wood", "tourism": "artwork"}}, {"type": "node", "id": 5175249907, "lat": 48.4539615, "lon": 19.9751116, "tags": {"artwork_type": "statue", "material": "wood", "tourism": "artwork"}}, {"type": "node", "id": 5175249919, "lat": 48.4593853, "lon": 19.9743167, "tags": {"artwork_type": "statue", "material": "wood", "tourism": "artwork"}}, {"type": "node", "id": 5175250027, "lat": 48.4603689, "lon": 19.9742845, "tags": {"artwork_type": "statue", "material": "wood", "tourism": "artwork"}}, {"type": "node", "id": 5175250033, "lat": 48.4615197, "lon": 19.9731177, "tags": {"artwork_type": "statue", "material": "wood", "tourism": "artwork"}}, {"type": "node", "id": 5175250036, "lat": 48.4608536, "lon": 19.9737494, "tags": {"artwork_type": "statue", "material": "wood", "tourism": "artwork"}}, {"type": "node", "id": 5175250039, "lat": 48.4616905, "lon": 19.9732981, "tags": {"artwork_type": "statue", "material": "wood", "tourism": "artwork"}}, {"type": "node", "id": 5175250133, "lat": 48.4618354, "lon": 19.9695155, "tags": {"artwork_type": "statue", "material": "wood", "tourism": "artwork"}}, {"type": "node", "id": 5280083500, "lat": 48.2217624, "lon": 20.2645765, "tags": {"artist_name": "Kiss S\u00e1ndor", "artwork_type": "sculpture", "name": "Vas-Sz\u0171z", "name:en": "Iron Virgin", "name:hu": "Vas-Sz\u0171z", "start_date": "1958", "tourism": "artwork"}}, {"type": "node", "id": 5288529057, "lat": 48.2172477, "lon": 20.2939741, "tags": {"addr:city": "\u00d3zd", "addr:postcode": "3600", "addr:street": "Okt\u00f3ber 23. t\u00e9r", "alt_name": "Felszabadul\u00e1si eml\u00e9km\u0171", "artist_name": "P\u00e1tzay P\u00e1l", "artwork_type": "sculpture", "from": "1970", "material": "bronze", "name": "H\u00edrviv\u0151", "name:en": "Messenger", "tourism": "artwork"}}, {"type": "node", "id": 7112023712, "lat": 48.375496, "lon": 20.0055502, "tags": {"artwork_type": "statue", "source": "Ortofotomozaika SR", "tourism": "artwork"}}, {"type": "node", "id": 9122388694, "lat": 48.2193016, "lon": 20.2813696, "tags": {"artist_name": "Kov\u00e1cs Imre Barna", "artwork_type": "sculpture", "inscription": "\ud803\udc80\ud803\udca2\ud803\udcae\ud803\udc90\ud803\udca4\ud803\udcaa\ud803\udca2\ud803\udc80\u2e41\u200f \ud803\udc90\ud803\udc8d\ud803\udc80\ud803\udcaf\ud803\udca5\ud803\udc9c\ud803\udc96\ud803\udc81\ud803\udca4", "material": "granite", "name": "Pal\u00f3c-Vasv\u00e1r \u00cdrottk\u0151", "tourism": "artwork"}}, {"type": "node", "id": 9228184678, "lat": 48.2191262, "lon": 20.2880103, "tags": {"artist_name": "Kisfaludi Strobl Zsigmond", "artwork_type": "statue", "name": "Henger\u00e9sz szobor", "start_date": "1972", "tourism": "artwork"}}, {"type": "node", "id": 9228184679, "lat": 48.2192032, "lon": 20.2869, "tags": {"artist_name": "Kisfaludi Strobl Zsigmond", "artwork_type": "statue", "name": "Koh\u00e1sz szobor", "start_date": "1972", "tourism": "artwork"}}, {"type": "node", "id": 9228184680, "lat": 48.2194603, "lon": 20.2819711, "tags": {"artwork_type": "sculpture", "name": "Cip\u00f3 k\u0151", "note": "A HAGYOM\u00c1NY SZERINT A TAT\u00c1ROK EL\u0150L MENEK\u00dcL\u0150 KIR\u00c1LY KEZ\u00c9B\u0150L ELGURULT CIP\u00d3 ADTA E V\u00c1ROSR\u00c9SZ MA IS HASZN\u00c1LATOS NEV\u00c9T. A MILLENEUM \u00c9V\u00c9BEN \u00c1LL\u00cdTTATTA A V\u00c1ROS \u00d6NKORM\u00c1NYZATA 2000. JUNIUS 9.", "tourism": "artwork"}}, {"type": "node", "id": 9228184681, "lat": 48.2200178, "lon": 20.2820676, "tags": {"artwork_type": "sculpture", "name": "Atomium", "tourism": "artwork"}}, {"type": "node", "id": 9228184682, "lat": 48.2257782, "lon": 20.2576726, "tags": {"artist_name": "Ny\u00edr\u0151 Gyula", "artwork_type": "statue", "name": "Leveg\u0151ben viaskod\u00f3 mad\u00e1rp\u00e1r", "tourism": "artwork"}}, {"type": "node", "id": 9228184683, "lat": 48.2181402, "lon": 20.2803109, "tags": {"artist_name": "Lesenyei M\u00e1rta", "artwork_type": "statue", "material": "marble", "name": "Anya \u00e9s gyermeke", "start_date": "1979-10-19", "tourism": "artwork"}}, {"type": "node", "id": 9228184684, "lat": 48.2211014, "lon": 20.2668185, "tags": {"artist_name": "Kiss S\u00e1ndor", "artwork_type": "statue", "name": "Tek\u00e9z\u0151", "start_date": "1952", "tourism": "artwork"}}, {"type": "node", "id": 9228184685, "lat": 48.2121222, "lon": 20.295593, "tags": {"artist_name": "Mikus S\u00e1ndor", "artwork_type": "statue", "name": "Pet\u0151fi S\u00e1ndor", "start_date": "1949", "tourism": "artwork"}}, {"type": "node", "id": 9228184686, "lat": 48.2208944, "lon": 20.2721957, "tags": {"artist_name": "Olcsai Kiss Zolt\u00e1n", "artwork_type": "statue", "name": "F\u00e9s\u00fclk\u00f6d\u0151 n\u0151", "tourism": "artwork"}}, {"type": "node", "id": 9230867164, "lat": 48.2184323, "lon": 20.2753207, "tags": {"artwork_type": "sculpture", "name": "Harangl\u00e1b", "tourism": "artwork"}}, {"type": "node", "id": 9233994069, "lat": 48.2170663, "lon": 20.2729517}, {"type": "node", "id": 9233994070, "lat": 48.2171048, "lon": 20.2730631}, {"type": "node", "id": 9233994071, "lat": 48.2170827, "lon": 20.2730803}, {"type": "node", "id": 9233994072, "lat": 48.2170442, "lon": 20.2729689}, {"type": "node", "id": 9236460620, "lat": 48.209307, "lon": 20.2913496, "tags": {"artist_name": "Martsa Istv\u00e1n", "artwork_type": "statue", "name": "\u00c1ll\u00f3 n\u0151", "start_date": "1957", "tourism": "artwork"}}, {"type": "node", "id": 9236460649, "lat": 48.211355, "lon": 20.2915549, "tags": {"artwork_type": "sculpture", "tourism": "artwork"}}, {"type": "node", "id": 9248784453, "lat": 48.2403371, "lon": 20.2897925}, {"type": "node", "id": 9248784454, "lat": 48.2403376, "lon": 20.2898266}, {"type": "node", "id": 9248784455, "lat": 48.2403172, "lon": 20.2898273}, {"type": "node", "id": 9248784456, "lat": 48.2403167, "lon": 20.2897932}, {"type": "node", "id": 9248784457, "lat": 48.2403169, "lon": 20.2898106}, {"type": "node", "id": 9248784468, "lat": 48.2409115, "lon": 20.2880187}, {"type": "node", "id": 9248784469, "lat": 48.2409346, "lon": 20.2880594}, {"type": "node", "id": 9248784470, "lat": 48.2409099, "lon": 20.288091}, {"type": "node", "id": 9248784471, "lat": 48.2408868, "lon": 20.2880503}, {"type": "node", "id": 9248784472, "lat": 48.2408983, "lon": 20.2880704}, {"type": "node", "id": 9248784478, "lat": 48.2409236, "lon": 20.28804}, {"type": "node", "id": 9248784481, "lat": 48.2411554, "lon": 20.2876677, "tags": {"artwork_type": "sculpture", "name": "Hit Rem\u00e9ny Szeretet", "tourism": "artwork"}}, {"type": "node", "id": 9249311579, "lat": 48.2229924, "lon": 20.2632161, "tags": {"artist_name": "Pat\u00f3 R\u00f3za", "artwork_type": "statue", "material": "limestone", "name": "\u00dcl\u0151 n\u0151", "tourism": "artwork"}}, {"type": "node", "id": 9249416639, "lat": 48.2147333, "lon": 20.2958092, "tags": {"artwork_type": "sculpture", "name": "Szeretet-dob\u00f3kocka", "tourism": "artwork"}}, {"type": "node", "id": 9270521962, "lat": 48.2261326, "lon": 20.2533491}, {"type": "node", "id": 9270521963, "lat": 48.2243494, "lon": 20.2555507}, {"type": "node", "id": 9270629685, "lat": 48.2092956, "lon": 20.2915864, "tags": {"artist_name": "R\u00e1kosy Zolt\u00e1n", "artwork_type": "mural", "name": "Gy\u00f3gy\u00edt\u00e1s", "start_date": "1957", "tourism": "artwork"}}, {"type": "node", "id": 9512206381, "lat": 48.2825174, "lon": 20.3897141, "tags": {"artwork_type": "sculpture", "label": "H\u00e9t mad\u00e1r f\u00e9szket rakott H\u00e9tben, h\u00e9t csal\u00e1d sz\u00fcletett az \u00e9gben.", "material": "metal", "tourism": "artwork"}}, {"type": "node", "id": 10076545354, "lat": 48.2694229, "lon": 19.8231283, "tags": {"artwork_type": "statue", "name": "sv. Anna", "tourism": "artwork", "url": "https://www.filakovo.sk/index.php/sk/navstevnik/nehnutelne-pamatihodnosti"}}, {"type": "node", "id": 10076545355, "lat": 48.2732095, "lon": 19.8380024, "tags": {"artwork_type": "statue", "name": "sv. Urban", "tourism": "artwork", "url": "https://www.filakovo.sk/index.php/sk/navstevnik/nehnutelne-pamatihodnosti"}}, {"type": "node", "id": 10160151703, "lat": 48.1981613, "lon": 20.0603626, "tags": {"artwork_type": "statue", "tourism": "artwork"}}, {"type": "node", "id": 10160151704, "lat": 48.1981931, "lon": 20.0603371, "tags": {"artwork_type": "statue", "tourism": "artwork"}}, {"type": "node", "id": 10160151705, "lat": 48.1982284, "lon": 20.0603096, "tags": {"artwork_type": "statue", "tourism": "artwork"}}, {"type": "node", "id": 10160151706, "lat": 48.1982462, "lon": 20.0602922, "tags": {"artwork_type": "statue", "tourism": "artwork"}}, {"type": "node", "id": 10160151707, "lat": 48.1982753, "lon": 20.0602667, "tags": {"artwork_type": "statue", "tourism": "artwork"}}, {"type": "node", "id": 10160151708, "lat": 48.1983178, "lon": 20.0602452, "tags": {"artwork_type": "statue", "tourism": "artwork"}}, {"type": "node", "id": 10160151709, "lat": 48.1983499, "lon": 20.0602238, "tags": {"artwork_type": "statue", "tourism": "artwork"}}, {"type": "node", "id": 10160151710, "lat": 48.1983772, "lon": 20.0602023, "tags": {"artwork_type": "statue", "tourism": "artwork"}}, {"type": "node", "id": 10160151711, "lat": 48.1984094, "lon": 20.0601822, "tags": {"artwork_type": "statue", "tourism": "artwork"}}, {"type": "node", "id": 10160151712, "lat": 48.1984398, "lon": 20.0601628, "tags": {"artwork_type": "statue", "tourism": "artwork"}}, {"type": "node", "id": 10160151713, "lat": 48.198476, "lon": 20.0601527, "tags": {"artwork_type": "statue", "tourism": "artwork"}}, {"type": "node", "id": 10160151714, "lat": 48.1985059, "lon": 20.0601366, "tags": {"artwork_type": "statue", "tourism": "artwork"}}, {"type": "node", "id": 10160151715, "lat": 48.1985403, "lon": 20.0601219, "tags": {"artwork_type": "statue", "tourism": "artwork"}}, {"type": "node", "id": 10160151716, "lat": 48.1986047, "lon": 20.0601722, "tags": {"artwork_type": "statue", "tourism": "artwork"}}, {"type": "node", "id": 10160155617, "lat": 48.1985788, "lon": 20.0601051, "tags": {"artwork_type": "statue", "tourism": "artwork"}}, {"type": "node", "id": 10160155618, "lat": 48.1986105, "lon": 20.0601118, "tags": {"artwork_type": "statue", "tourism": "artwork"}}, {"type": "node", "id": 10160155619, "lat": 48.1984451, "lon": 20.0599468, "tags": {"artwork_type": "statue", "tourism": "artwork"}}, {"type": "node", "id": 10160155620, "lat": 48.1984675, "lon": 20.0599314, "tags": {"artwork_type": "statue", "tourism": "artwork"}}, {"type": "node", "id": 10160155621, "lat": 48.1984961, "lon": 20.0599173, "tags": {"artwork_type": "statue", "tourism": "artwork"}}, {"type": "node", "id": 10160155622, "lat": 48.1985287, "lon": 20.0599046, "tags": {"artwork_type": "statue", "tourism": "artwork"}}, {"type": "node", "id": 10160155721, "lat": 48.215857, "lon": 19.9535845, "tags": {"artwork_type": "statue", "name": "Stephanus rex", "tourism": "artwork"}}, {"type": "node", "id": 10180367792, "lat": 48.2411516, "lon": 20.0640593, "tags": {"artwork_type": "statue", "tourism": "artwork"}}, {"type": "node", "id": 10180368220, "lat": 48.2157042, "lon": 19.9534585, "tags": {"artwork_type": "statue", "tourism": "artwork"}}, {"type": "node", "id": 10276214202, "lat": 48.2252053, "lon": 20.2663808, "tags": {"artist_name": "G\u00e1ti G\u00e1bor, T\u00f3th Gyula", "artwork_type": "statue", "material": "bronze", "name": "Sell\u0151", "start_date": "1986", "tourism": "artwork"}}, {"type": "way", "id": 1000367859, "nodes": [9233994069, 9233994070, 9233994071, 9233994072, 9233994069], "tags": {"area": "yes", "artwork_type": "sculpture", "name": "I\u2665\u00d3ZD", "tourism": "artwork"}}, {"type": "way", "id": 1002098225, "nodes": [9248784453, 9248784454, 9248784455, 9248784457, 9248784456, 9248784453], "tags": {"area": "yes", "artist_name": "G\u00e1sp\u00e1r Tibor", "artwork_type": "statue", "name": "Damjanich J\u00e1nos", "tourism": "artwork"}}, {"type": "way", "id": 1002098230, "nodes": [9248784468, 9248784478, 9248784469, 9248784470, 9248784472, 9248784471, 9248784468], "tags": {"area": "yes", "artist_name": "G\u00e1sp\u00e1r Tibor", "artwork_type": "statue", "name": "\u00c1rp\u00e1d-h\u00e1zi Szent Erzs\u00e9bet", "tourism": "artwork"}}, {"type": "way", "id": 1004781945, "nodes": [9270521962, 9270521963], "tags": {"artwork_type": "mural", "barrier": "retaining_wall", "tourism": "artwork"}}]}