{"version": 0.6, "generator": "Overpass API 0.7.59 e21c39fe", "osm3s": {"timestamp_osm_base": "2023-03-01T09:26:35Z", "copyright": "The data included in this document is from www.openstreetmap.org. The data is made available under ODbL."}, "elements": [{"type": "node", "id": 469091501, "lat": 47.8269917, "lon": 18.7582774, "tags": {"tourism": "viewpoint"}}, {"type": "node", "id": 500003345, "lat": 47.7911049, "lon": 18.8119555, "tags": {"tourism": "viewpoint"}}, {"type": "node", "id": 582631741, "lat": 47.79552, "lon": 18.9922885}, {"type": "node", "id": 685420342, "lat": 47.7981114, "lon": 18.9446955, "tags": {"direction": "70-110", "ele": "280", "is_in": "K\u00f6ves-Mez\u0151; Szent Mih\u00e1ly-hegy; Dunakanyar; D\u00e9li-B\u00f6rzs\u00f6ny", "name": "K\u00f6vesmez\u0151", "tourism": "viewpoint", "wikidata": "Q110249154"}}, {"type": "node", "id": 842317276, "lat": 47.9575644, "lon": 19.0092201, "tags": {"ele": "500", "name": "Z\u00e1voz nyereg", "tourism": "viewpoint"}}, {"type": "node", "id": 842365688, "lat": 47.9067081, "lon": 19.0440862, "tags": {"tourism": "viewpoint"}}, {"type": "node", "id": 842365853, "lat": 47.9069814, "lon": 19.0458618, "tags": {"tourism": "viewpoint"}}, {"type": "node", "id": 1328889122, "lat": 47.9468562, "lon": 18.937577, "tags": {"name": "K\u0151kors\u00f3", "tourism": "viewpoint"}}, {"type": "node", "id": 1329453237, "lat": 47.9341689, "lon": 18.8624473, "tags": {"tourism": "viewpoint"}}, {"type": "node", "id": 1357780579, "lat": 47.7932301, "lon": 18.980337, "tags": {"direction": "220", "tourism": "viewpoint"}}, {"type": "node", "id": 1395245812, "lat": 47.8913836, "lon": 18.8906444, "tags": {"name": "S\u00f3-hegy v\u00e1lla", "tourism": "viewpoint"}}, {"type": "node", "id": 1395245895, "lat": 47.8959507, "lon": 18.8953431, "tags": {"tourism": "viewpoint"}}, {"type": "node", "id": 1523553124, "lat": 47.8395392, "lon": 19.1102206, "tags": {"tourism": "viewpoint"}}, {"type": "node", "id": 1715019968, "lat": 47.7735719, "lon": 18.9385861, "tags": {"direction": "90-270", "is_in": "Dunakanyar; B\u00f6rzs\u00f6ny; Szent Mih\u00e1ly-hegy", "name": "G\u00e1nti kil\u00e1t\u00f3hely", "tourism": "viewpoint"}}, {"type": "node", "id": 2089884510, "lat": 47.7872129, "lon": 18.9795396, "tags": {"direction": "-90", "tourism": "viewpoint"}}, {"type": "node", "id": 2231891171, "lat": 47.7717555, "lon": 19.0011309, "tags": {"is_in": "Pilis-hegys\u00e9g", "name": "Borj\u00faf\u0151", "tourism": "viewpoint", "wikidata": "Q110253201"}}, {"type": "node", "id": 2266150337, "lat": 47.77106, "lon": 18.9195107, "tags": {"tourism": "viewpoint"}}, {"type": "node", "id": 2266150345, "lat": 47.7715798, "lon": 18.9310067, "tags": {"direction": "45-250", "name": "\u00d6rd\u00f6g-hegyi kil\u00e1t\u00e1s", "tourism": "viewpoint"}}, {"type": "node", "id": 2286457606, "lat": 47.7869415, "lon": 18.7715141, "tags": {"direction": "280", "tourism": "viewpoint", "wheelchair": "limited"}}, {"type": "node", "id": 2344544861, "lat": 47.8800495, "lon": 18.9789507, "tags": {"name": "Pap-hegyi kil\u00e1t\u00e1s", "tourism": "viewpoint"}}, {"type": "node", "id": 2377353072, "lat": 47.824294, "lon": 19.0920472, "tags": {"direction": "45-225", "tourism": "viewpoint"}}, {"type": "node", "id": 2434471922, "lat": 47.795521, "lon": 18.9921757}, {"type": "node", "id": 2434471924, "lat": 47.7955535, "lon": 18.9921416}, {"type": "node", "id": 2434471925, "lat": 47.7955519, "lon": 18.9923239}, {"type": "node", "id": 2434471927, "lat": 47.7955933, "lon": 18.9921423}, {"type": "node", "id": 2434471928, "lat": 47.7955917, "lon": 18.9923247}, {"type": "node", "id": 2434471930, "lat": 47.7956252, "lon": 18.9921778}, {"type": "node", "id": 2434471931, "lat": 47.7956242, "lon": 18.9922905}, {"type": "node", "id": 2436883599, "lat": 47.7710409, "lon": 18.920055, "tags": {"addr:city": "Nagymaros", "addr:conscriptionnumber": "049/18", "addr:postcode": "2626", "alt_name": "Sziklatemplom;Remetebarlang;8. Sz. barlang", "cave:ref": "5210-59", "description": "Remetebarlang; a barlangokat a 11. sz.-ban v\u00e1jt\u00e1k, a csatlakoz\u00f3 k\u0151\u00e9p\u00fcletek 14-15. sz.-iak. Felhagy\u00e1sa a t\u00f6r\u00f6k korban t\u00f6rt\u00e9nt. V\u00e9dett. Hossz: 29 m\u00e9ter Vertik\u00e1lis kiterjed\u00e9s: 3 m\u00e9ter", "direction": "110-315", "fee": "no", "heritage": "2", "man_made": "cellar_entrance", "name": "Remete-barlang", "natural": "cave_entrance", "opening_hours": "24/7", "operator": "Duna-Ipoly Nemzeti Park Igazgat\u00f3s\u00e1g", "protect_class": "2", "protection_object": "cave", "ref": "M\u0171eml\u00e9ki v\u00e9delem azonos\u00edt\u00f3: 7185, t\u00f6rzssz\u00e1m: 10695;Barlang kataszteri sz\u00e1m: 5210-59", "reservation": "no", "start_date": "C11", "tourism": "viewpoint", "url:muemlekem": "http://www.muemlekem.hu/muemlek?id=7185", "website": "https://termeszetvedelem.hu/talalati-oldal/?type=orszagos-barlangnyilvantartas&id=5210-59", "wheelchair": "no"}}, {"type": "node", "id": 2488273077, "lat": 47.7809451, "lon": 18.9138257, "tags": {"tourism": "viewpoint"}}, {"type": "node", "id": 2589301892, "lat": 47.8798382, "lon": 18.8856912, "tags": {"ele": "539", "historic": "wayside_cross", "is_in": "Kopasz-hegy; D\u00e9l-B\u00f6rzs\u00f6ny", "man_made": "cross", "name": "Kopasz-hegy", "tourism": "viewpoint"}}, {"type": "node", "id": 2589301894, "lat": 47.8799763, "lon": 18.885799, "tags": {"ele": "539", "is_in": "Kopasz-hegy; D\u00e9l-B\u00f6rzs\u00f6ny", "name": "Kopasz-hegyi k\u00f6rpanor\u00e1ma", "tourism": "viewpoint", "url": "http://weberdo.hu/borzsony-foldtan"}}, {"type": "node", "id": 2783326579, "lat": 48.1125671, "lon": 19.0573054, "tags": {"tourism": "viewpoint"}}, {"type": "node", "id": 2783326670, "lat": 48.1460916, "lon": 19.075358, "tags": {"tourism": "viewpoint"}}, {"type": "node", "id": 2783607672, "lat": 48.1592655, "lon": 19.0924515, "tags": {"tourism": "viewpoint"}}, {"type": "node", "id": 2786411910, "lat": 48.1431663, "lon": 19.0925422, "tags": {"tourism": "viewpoint"}}, {"type": "node", "id": 2786603104, "lat": 48.1338632, "lon": 19.112251, "tags": {"man_made": "tower", "name": "Rozh\u013ead\u0148a Str\u00e1\u017e", "tourism": "viewpoint", "tower:type": "observation"}}, {"type": "node", "id": 2807681201, "lat": 47.936622, "lon": 18.9221509, "tags": {"tourism": "viewpoint"}}, {"type": "node", "id": 2807681302, "lat": 47.9439484, "lon": 18.9559306, "tags": {"tourism": "viewpoint"}}, {"type": "node", "id": 2809708511, "lat": 47.9422077, "lon": 18.9338259, "tags": {"name": "Hangy\u00e1s-b\u00e9rc", "tourism": "viewpoint"}}, {"type": "node", "id": 2809865622, "lat": 47.9076297, "lon": 18.9107444, "tags": {"name": "Sz\u00e9p kil\u00e1t\u00e1s!", "tourism": "viewpoint"}}, {"type": "node", "id": 2809865698, "lat": 47.9199464, "lon": 18.9047613, "tags": {"noexit": "yes", "tourism": "viewpoint", "viewpoint": "90-270"}}, {"type": "node", "id": 2896284351, "lat": 47.9613916, "lon": 19.0166293, "tags": {"amenity": "hunting_stand", "height": "5", "material": "wood", "shelter": "yes", "source": "survey", "survey:date": "2019-09-01", "tourism": "viewpoint"}}, {"type": "node", "id": 2896284565, "lat": 47.9741465, "lon": 19.0201756, "tags": {"tourism": "viewpoint"}}, {"type": "node", "id": 2960392391, "lat": 47.7878682, "lon": 18.9727157, "tags": {"tourism": "viewpoint"}}, {"type": "node", "id": 2960392396, "lat": 47.7883631, "lon": 18.9729806, "tags": {"tourism": "viewpoint"}}, {"type": "node", "id": 3003501049, "lat": 47.8370696, "lon": 19.0418769, "tags": {"name": "Borb\u00e9ly-hegyi kil\u00e1t\u00f3", "tourism": "viewpoint"}}, {"type": "node", "id": 3009265950, "lat": 47.8314126, "lon": 19.1435137, "tags": {"tourism": "viewpoint"}}, {"type": "node", "id": 3016186268, "lat": 47.823514, "lon": 19.0731739, "tags": {"tourism": "viewpoint"}}, {"type": "node", "id": 3029338627, "lat": 47.770152, "lon": 18.9240743, "tags": {"direction": "110-320", "name": "\u00d6rd\u00f6g-gerinc kil\u00e1t\u00e1s", "tourism": "viewpoint"}}, {"type": "node", "id": 3029342844, "lat": 47.775108, "lon": 18.9178625, "tags": {"direction": "45-310", "name": "Dobozi kil\u00e1t\u00e1s", "tourism": "viewpoint"}}, {"type": "node", "id": 3029342849, "lat": 47.7781339, "lon": 18.916744, "tags": {"direction": "130-310", "name": "Borosty\u00e1n-k\u0151i kil\u00e1t\u00e1s", "tourism": "viewpoint"}}, {"type": "node", "id": 3046257365, "lat": 47.8357711, "lon": 18.9806726, "tags": {"mapillary": "132300375583593", "tourism": "viewpoint"}}, {"type": "node", "id": 3051104982, "lat": 47.8280918, "lon": 18.750611, "tags": {"tourism": "viewpoint"}}, {"type": "node", "id": 3051104983, "lat": 47.8302976, "lon": 18.7472327, "tags": {"tourism": "viewpoint"}}, {"type": "node", "id": 3099438800, "lat": 47.9768027, "lon": 18.9016739, "tags": {"source": "survey", "survey:date": "2021-12-04", "tourism": "viewpoint"}}, {"type": "node", "id": 3163923240, "lat": 47.9719113, "lon": 18.8832303, "tags": {"tourism": "viewpoint"}}, {"type": "node", "id": 3163923260, "lat": 47.982365, "lon": 18.8886866, "tags": {"ele": "560", "tourism": "viewpoint"}}, {"type": "node", "id": 3177684222, "lat": 47.8215499, "lon": 19.1352962, "tags": {"name": "kil\u00e1t\u00e1s az agyagb\u00e1ny\u00e1ra", "tourism": "viewpoint"}}, {"type": "node", "id": 3190343879, "lat": 47.8983663, "lon": 18.8326951, "tags": {"tourism": "viewpoint"}}, {"type": "node", "id": 3357310125, "lat": 47.9271461, "lon": 18.9174774, "tags": {"description": "kil\u00e1t\u00e1s Cs\u00f3v\u00e1nyosra", "direction": "20-180", "ele": "742", "source": "turistautak.hu", "tourism": "viewpoint", "website": "http://www.kektura.click.hu/OKT/albumok/39-kisinoc-nograd.html"}}, {"type": "node", "id": 3388317953, "lat": 47.9108724, "lon": 18.8684861, "tags": {"ele": "528", "name": "Tolm\u00e1cs-hegyi kil\u00e1t\u00e1s", "tourism": "viewpoint"}}, {"type": "node", "id": 3411645627, "lat": 47.8987869, "lon": 18.852355, "tags": {"tourism": "viewpoint"}}, {"type": "node", "id": 3411645648, "lat": 47.9045874, "lon": 18.8403832, "tags": {"tourism": "viewpoint"}}, {"type": "node", "id": 3411645668, "lat": 47.9130683, "lon": 18.8352548, "tags": {"tourism": "viewpoint"}}, {"type": "node", "id": 3439051221, "lat": 47.8676853, "lon": 18.8958964, "tags": {"source": "survey", "survey:date": "2019-02-16", "tourism": "viewpoint"}}, {"type": "node", "id": 3439051254, "lat": 47.8146313, "lon": 18.8785748, "tags": {"ele": "115", "man_made": "tower", "name": "K\u00e1lv\u00e1ria-kil\u00e1t\u00f3", "source": "turistautak.hu", "source:date": "2011-06-28", "tourism": "viewpoint", "tower:type": "observation", "url": "http://turistautak.hu/poi.php?id=101828"}}, {"type": "node", "id": 3439051382, "lat": 47.770498, "lon": 18.929192, "tags": {"is_in": "Dunakanyar; B\u00f6rzs\u00f6ny; Szent Mih\u00e1ly-hegy", "name": "\u00d6rd\u00f6g-hegyi kil\u00e1t\u00e1s", "source": "turistautak.hu", "source:date": "2014-10-16", "tourism": "viewpoint", "url": "http://turistautak.hu/poi.php?id=6800"}}, {"type": "node", "id": 3439051383, "lat": 47.771201, "lon": 18.926801, "tags": {"source": "turistautak.hu", "source:date": "2014-10-16", "tourism": "viewpoint", "url": "http://turistautak.hu/poi.php?id=96104"}}, {"type": "node", "id": 3439051385, "lat": 47.7759, "lon": 18.923583, "tags": {"source": "turistautak.hu", "source:date": "2014-10-16", "tourism": "viewpoint", "url": "http://turistautak.hu/poi.php?id=14842"}}, {"type": "node", "id": 3439051501, "lat": 47.788349, "lon": 18.941466, "tags": {"source": "turistautak.hu", "source:date": "2014-10-16", "tourism": "viewpoint", "url": "http://turistautak.hu/poi.php?id=96109"}}, {"type": "node", "id": 3439051512, "lat": 47.7901988, "lon": 18.9211089, "tags": {"source": "turistautak.hu", "source:date": "2014-10-16", "tourism": "viewpoint", "url": "http://turistautak.hu/poi.php?id=116610"}}, {"type": "node", "id": 3439051518, "lat": 47.791473, "lon": 18.926032, "tags": {"source": "turistautak.hu", "source:date": "2014-10-16", "tourism": "viewpoint", "url": "http://turistautak.hu/poi.php?id=2995"}}, {"type": "node", "id": 3439051520, "lat": 47.792052, "lon": 18.946128, "tags": {"ele": "288", "name": "Nagy korhadt f\u00e1k kil\u00e1t\u00e1s", "source": "turistautak.hu", "source:date": "2014-10-16", "tourism": "viewpoint", "url": "http://turistautak.hu/poi.php?id=96110"}}, {"type": "node", "id": 3439051552, "lat": 47.809867, "lon": 18.9543, "tags": {"is_in": "Dunakanyar", "survey:date": "2017-02-19", "tourism": "viewpoint", "url": "http://turistautak.hu/poi.php?id=14840"}}, {"type": "node", "id": 3439051617, "lat": 47.8273997, "lon": 19.0236175, "tags": {"source": "turistautak.hu", "source:date": "2014-11-22", "tourism": "viewpoint", "url": "http://turistautak.hu/poi.php?id=174352"}}, {"type": "node", "id": 3439051637, "lat": 47.835675, "lon": 18.995846, "tags": {"source": "turistautak.hu", "source:date": "2014-10-16", "tourism": "viewpoint", "url": "http://turistautak.hu/poi.php?id=144595"}}, {"type": "node", "id": 3439051638, "lat": 47.835691, "lon": 18.993887, "tags": {"source": "turistautak.hu", "source:date": "2014-10-16", "tourism": "viewpoint", "url": "http://turistautak.hu/poi.php?id=144596"}}, {"type": "node", "id": 3439051642, "lat": 47.836425, "lon": 19.0512964, "tags": {"is_in": "Aranyosk\u00fat", "source": "turistautak.hu", "source:date": "2014-10-16", "tourism": "viewpoint", "url": "http://turistautak.hu/poi.php?id=69137"}}, {"type": "node", "id": 3439051689, "lat": 47.8629617, "lon": 18.8524986, "tags": {"source": "turistautak.hu", "source:date": "2014-10-16", "tourism": "viewpoint", "url": "http://turistautak.hu/poi.php?id=97148"}}, {"type": "node", "id": 3439051716, "lat": 47.869775, "lon": 18.83036, "tags": {"source": "turistautak.hu", "source:date": "2014-10-16", "tourism": "viewpoint", "url": "http://turistautak.hu/poi.php?id=96036"}}, {"type": "node", "id": 3439051726, "lat": 47.875762, "lon": 19.037079, "tags": {"source": "turistautak.hu", "source:date": "2014-10-16", "tourism": "viewpoint", "url": "http://turistautak.hu/poi.php?id=3278"}}, {"type": "node", "id": 3439051734, "lat": 47.882, "lon": 18.978267, "tags": {"source": "turistautak.hu", "source:date": "2014-10-16", "tourism": "viewpoint", "url": "http://turistautak.hu/poi.php?id=154721"}}, {"type": "node", "id": 3439051760, "lat": 47.89576, "lon": 18.900931, "tags": {"source": "turistautak.hu", "source:date": "2014-10-16", "tourism": "viewpoint", "url": "http://turistautak.hu/poi.php?id=115569"}}, {"type": "node", "id": 3439051762, "lat": 47.8970272, "lon": 18.9509003, "tags": {"source": "turistautak.hu", "source:date": "2014-10-16", "tourism": "viewpoint", "url": "http://turistautak.hu/poi.php?id=133898"}}, {"type": "node", "id": 3439051765, "lat": 47.89785, "lon": 18.856433, "tags": {"source": "turistautak.hu", "source:date": "2014-10-16", "tourism": "viewpoint", "url": "http://turistautak.hu/poi.php?id=59066"}}, {"type": "node", "id": 3439051790, "lat": 47.912734, "lon": 18.834546, "tags": {"source": "turistautak.hu", "source:date": "2014-10-16", "tourism": "viewpoint", "url": "http://turistautak.hu/poi.php?id=105532"}}, {"type": "node", "id": 3439051999, "lat": 47.91839, "lon": 18.9332, "tags": {"name": "In\u00f3ci k\u0151b\u00e1nya", "source": "turistautak.hu", "source:date": "2014-10-16", "tourism": "viewpoint", "url": "http://turistautak.hu/poi.php?id=3203"}}, {"type": "node", "id": 3439052049, "lat": 47.9384686, "lon": 18.9159181, "tags": {"source": "turistautak.hu", "source:date": "2014-10-16", "tourism": "viewpoint", "url": "http://turistautak.hu/poi.php?id=131872"}}, {"type": "node", "id": 3439052060, "lat": 47.94684, "lon": 18.881045, "tags": {"source": "turistautak.hu", "source:date": "2014-10-16", "tourism": "viewpoint", "url": "http://turistautak.hu/poi.php?id=150073"}}, {"type": "node", "id": 3439052065, "lat": 47.9537844, "lon": 18.8498934, "tags": {"ele": "404", "source": "survey", "survey:date": "2021-05-29", "tourism": "viewpoint", "url": "http://turistautak.hu/poi.php?id=131164"}}, {"type": "node", "id": 3439052066, "lat": 47.9540527, "lon": 18.8499294, "tags": {"ele": "417", "source": "survey", "survey:date": "2021-05-29", "tourism": "viewpoint", "url": "http://turistautak.hu/poi.php?id=63593"}}, {"type": "node", "id": 3439052068, "lat": 47.9598078, "lon": 18.8787891, "tags": {"source": "survey", "survey:date": "2022-07-02", "tourism": "viewpoint", "url": "http://turistautak.hu/poi.php?id=3130"}}, {"type": "node", "id": 3439052087, "lat": 47.970628, "lon": 18.9530685, "tags": {"name": "Rakotty\u00e1s kil\u00e1t\u00f3hely", "source": "survey", "survey:date": "2018-06-17", "tourism": "viewpoint", "url": "http://turistautak.hu/poi.php?id=2748"}}, {"type": "node", "id": 3439052089, "lat": 47.9714164, "lon": 18.8827547, "tags": {"source": "turistautak.hu", "source:date": "2014-10-16", "tourism": "viewpoint", "url": "http://turistautak.hu/poi.php?id=3128"}}, {"type": "node", "id": 3439052100, "lat": 47.9809, "lon": 18.88807, "tags": {"ele": "565", "source": "turistautak.hu", "source:date": "2014-10-16", "tourism": "viewpoint", "url": "http://turistautak.hu/poi.php?id=3126"}}, {"type": "node", "id": 3439052101, "lat": 47.9813641, "lon": 18.9228497, "tags": {"ele": "515", "name": "Pl\u00e9ska-szikla", "source": "turistautak.hu", "source:date": "2014-10-16", "tourism": "viewpoint", "url": "http://turistautak.hu/poi.php?id=88950"}}, {"type": "node", "id": 3441705702, "lat": 47.7673785, "lon": 18.9740718, "tags": {"ele": "300", "source": "turistautak.hu", "source:date": "2014-02-06", "tourism": "viewpoint", "url": "http://turistautak.hu/poi.php?id=138478"}}, {"type": "node", "id": 3441705704, "lat": 47.769018, "lon": 18.985486, "tags": {"source": "turistautak.hu", "source:date": "2014-02-06", "tourism": "viewpoint", "url": "http://turistautak.hu/poi.php?id=121077"}}, {"type": "node", "id": 3441705719, "lat": 47.775688, "lon": 18.970195, "tags": {"ele": "174", "source": "turistautak.hu", "source:date": "2014-02-06", "tourism": "viewpoint", "url": "http://turistautak.hu/poi.php?id=163819"}}, {"type": "node", "id": 3452762311, "lat": 47.799477, "lon": 18.9138341, "tags": {"direction": "125-320", "ele": "150", "man_made": "tower", "material": "wood", "name": "K\u00f3s K\u00e1roly-kil\u00e1t\u00f3", "source": "survey", "tourism": "viewpoint", "tower:type": "observation"}}, {"type": "node", "id": 3454425934, "lat": 47.7834926, "lon": 18.811066, "tags": {"source": "turistautak.hu", "source:date": "2014-02-06", "tourism": "viewpoint", "url": "http://turistautak.hu/poi.php?id=145691"}}, {"type": "node", "id": 3454425972, "lat": 47.811608, "lon": 18.798643, "tags": {"is_in": "Zam\u00e1rd; Szam\u00e1r-hegy", "name": "Szam\u00e1r-hegyi kil\u00e1t\u00e1s", "source": "turistautak.hu", "source:date": "2014-02-06", "tourism": "viewpoint", "url": "http://turistautak.hu/poi.php?id=65382"}}, {"type": "node", "id": 3456376492, "lat": 47.824783, "lon": 19.1348, "tags": {"source": "turistautak.hu", "source:date": "2014-10-15", "tourism": "viewpoint", "url": "http://turistautak.hu/poi.php?id=41740"}}, {"type": "node", "id": 3456376821, "lat": 47.839483, "lon": 19.112783, "tags": {"source": "turistautak.hu", "source:date": "2014-10-15", "tourism": "viewpoint", "url": "http://turistautak.hu/poi.php?id=131206"}}, {"type": "node", "id": 3456376830, "lat": 47.843017, "lon": 19.106083, "tags": {"source": "turistautak.hu", "source:date": "2014-10-16", "tourism": "viewpoint", "url": "http://turistautak.hu/poi.php?id=131205"}}, {"type": "node", "id": 3456392362, "lat": 47.89311, "lon": 19.046323, "tags": {"source": "turistautak.hu", "source:date": "2014-10-16", "tourism": "viewpoint", "url": "http://turistautak.hu/poi.php?id=171861"}}, {"type": "node", "id": 3456392364, "lat": 47.894947, "lon": 19.040795, "tags": {"source": "turistautak.hu", "source:date": "2014-10-16", "tourism": "viewpoint", "url": "http://turistautak.hu/poi.php?id=7998"}}, {"type": "node", "id": 3456392510, "lat": 47.931789, "lon": 19.010153, "tags": {"source": "turistautak.hu", "source:date": "2014-10-16", "tourism": "viewpoint", "url": "http://turistautak.hu/poi.php?id=149799"}}, {"type": "node", "id": 3456392513, "lat": 47.93358, "lon": 19.00834, "tags": {"ele": "461", "source": "turistautak.hu", "source:date": "2014-10-16", "tourism": "viewpoint", "url": "http://turistautak.hu/poi.php?id=3820"}}, {"type": "node", "id": 3456392521, "lat": 47.938836, "lon": 19.008415, "tags": {"source": "turistautak.hu", "source:date": "2014-10-16", "tourism": "viewpoint", "url": "http://turistautak.hu/poi.php?id=149798"}}, {"type": "node", "id": 3456392534, "lat": 47.943483, "lon": 19.001517, "tags": {"ele": "626", "source": "turistautak.hu", "source:date": "2014-10-16", "tourism": "viewpoint", "url": "http://turistautak.hu/poi.php?id=152220"}}, {"type": "node", "id": 3456392561, "lat": 47.9642642, "lon": 19.0296124, "tags": {"source": "survey", "survey:date": "2018-04-28", "tourism": "viewpoint", "url": "http://turistautak.hu/poi.php?id=150714"}}, {"type": "node", "id": 3456392577, "lat": 47.9772578, "lon": 19.0225468, "tags": {"survey:date": "2017-10-14", "tourism": "viewpoint", "url": "http://turistautak.hu/poi.php?id=2998"}}, {"type": "node", "id": 3524048722, "lat": 47.7873377, "lon": 18.7859278, "tags": {"tourism": "viewpoint"}}, {"type": "node", "id": 3595191833, "lat": 47.9565205, "lon": 18.8933842, "tags": {"tourism": "viewpoint"}}, {"type": "node", "id": 3609833779, "lat": 47.7801464, "lon": 18.8132851, "tags": {"source": "survey", "survey:date": "2015-06-21", "tourism": "viewpoint"}}, {"type": "node", "id": 3712692093, "lat": 47.8647186, "lon": 18.8829935, "tags": {"is_in": "B\u00f6rzs\u00f6ny-hegys\u00e9g", "tourism": "viewpoint"}}, {"type": "node", "id": 3725328280, "lat": 47.7857672, "lon": 18.9593436, "tags": {"description": "D\u00e1m (Loreley) - ma Sz\u00e9chenyi pihen\u0151", "direction": "25-220", "ele": "105", "is_in": "D\u00e1m; Dunakanyar", "name": "\u201eLoreley\u201d kil\u00e1t\u00f3pont (D\u00e1m)", "tourism": "viewpoint"}}, {"type": "node", "id": 3725399535, "lat": 47.8224871, "lon": 18.9349482, "tags": {"description:hu": "kil\u00e1t\u00e1s a Cs\u00f3v\u00e1nyosra", "direction": "270-90", "ele": "230", "is_in": "Dunakanyar; D\u00e9l-B\u00f6rzs\u00f6ny", "name": "kil\u00e1t\u00e1s a Magas-B\u00f6rzs\u00f6nyre", "tourism": "viewpoint", "url": "http://weberdo.hu/borzsony-foldtan"}}, {"type": "node", "id": 3747534720, "lat": 47.7940883, "lon": 18.9636105, "tags": {"direction": "30-120", "name": "kil\u00e1t\u00e1s a Visegr\u00e1di v\u00e1rra", "tourism": "viewpoint"}}, {"type": "node", "id": 3747616540, "lat": 47.7841199, "lon": 18.9336262}, {"type": "node", "id": 3747616541, "lat": 47.7841266, "lon": 18.9336126}, {"type": "node", "id": 3747616542, "lat": 47.7841299, "lon": 18.9335966}, {"type": "node", "id": 3747616543, "lat": 47.7840761, "lon": 18.933549}, {"type": "node", "id": 3747616544, "lat": 47.7840683, "lon": 18.9335608}, {"type": "node", "id": 3747616545, "lat": 47.7840635, "lon": 18.9335758}, {"type": "node", "id": 3747616546, "lat": 47.7840621, "lon": 18.9335922}, {"type": "node", "id": 3747616547, "lat": 47.7841295, "lon": 18.9335798}, {"type": "node", "id": 3747616548, "lat": 47.7841254, "lon": 18.9335641}, {"type": "node", "id": 3747616549, "lat": 47.7841181, "lon": 18.9335513}, {"type": "node", "id": 3747616550, "lat": 47.7841084, "lon": 18.9335427}, {"type": "node", "id": 3747616551, "lat": 47.7840974, "lon": 18.9335393}, {"type": "node", "id": 3747616552, "lat": 47.7840862, "lon": 18.9335415}, {"type": "node", "id": 3747616553, "lat": 47.7840644, "lon": 18.9336084}, {"type": "node", "id": 3747616554, "lat": 47.7840701, "lon": 18.9336226}, {"type": "node", "id": 3747616555, "lat": 47.7840786, "lon": 18.9336334}, {"type": "node", "id": 3747616556, "lat": 47.784089, "lon": 18.9336395}, {"type": "node", "id": 3747616557, "lat": 47.7841001, "lon": 18.9336403}, {"type": "node", "id": 3747616558, "lat": 47.7841108, "lon": 18.9336357}, {"type": "node", "id": 3763495573, "lat": 47.7710511, "lon": 18.9197469}, {"type": "node", "id": 3763501197, "lat": 47.7709485, "lon": 18.9201086}, {"type": "node", "id": 3763501198, "lat": 47.770981, "lon": 18.9197844}, {"type": "node", "id": 3763501199, "lat": 47.7709866, "lon": 18.9195365}, {"type": "node", "id": 3763501200, "lat": 47.7709942, "lon": 18.9194963}, {"type": "node", "id": 3763501201, "lat": 47.7710108, "lon": 18.920161}, {"type": "node", "id": 3763501202, "lat": 47.7710122, "lon": 18.9194181}, {"type": "node", "id": 3763501203, "lat": 47.7710232, "lon": 18.9194068}, {"type": "node", "id": 3763501204, "lat": 47.7710343, "lon": 18.9198503}, {"type": "node", "id": 3763501205, "lat": 47.7710364, "lon": 18.9194006}, {"type": "node", "id": 3763501206, "lat": 47.7710488, "lon": 18.919415}, {"type": "node", "id": 3763501207, "lat": 47.7710344, "lon": 18.9201737}, {"type": "node", "id": 3763501208, "lat": 47.7710199, "lon": 18.9200976}, {"type": "node", "id": 3763501210, "lat": 47.7710765, "lon": 18.9194891}, {"type": "node", "id": 3763501211, "lat": 47.7710779, "lon": 18.9194932}, {"type": "node", "id": 3764139454, "lat": 47.7710463, "lon": 18.9201243}, {"type": "node", "id": 3781215773, "lat": 47.9217516, "lon": 18.8815777, "tags": {"source": "turistautak.hu", "tourism": "viewpoint", "url": "http://turistautak.hu/poi.php?id=132979"}}, {"type": "node", "id": 3781219688, "lat": 47.9513863, "lon": 18.9414068, "tags": {"tourism": "viewpoint"}}, {"type": "node", "id": 3791362578, "lat": 47.888953, "lon": 18.920612, "tags": {"source": "turistautak.hu", "tourism": "viewpoint", "url": "http://turistautak.hu/poi.php?id=109898"}}, {"type": "node", "id": 3791362666, "lat": 47.8898753, "lon": 18.9172, "tags": {"source": "turistautak.hu", "tourism": "viewpoint", "url": "http://turistautak.hu/poi.php?id=109897"}}, {"type": "node", "id": 3822964247, "lat": 47.7865071, "lon": 18.771335, "tags": {"direction": "-67", "tourism": "viewpoint"}}, {"type": "node", "id": 3825232818, "lat": 47.7685328, "lon": 18.9742949, "tags": {"ele": "320", "height": "15.45", "is_in": "B\u00e1nya-tet\u0151;\u00daj-oszt\u00e1s", "man_made": "tower", "material": "wood", "name": "B\u00e1nyatet\u0151-kil\u00e1t\u00f3", "start_date": "2015", "tourism": "viewpoint", "tower:type": "observation", "url": "https://www.turistamagazin.hu/hir/banyateto-kilato-a-rejtozkodes-mestere"}}, {"type": "node", "id": 3836286197, "lat": 47.7877568, "lon": 19.0121107, "tags": {"is_in": "Pilis - Visegr\u00e1di-hegys\u00e9g", "tourism": "viewpoint"}}, {"type": "node", "id": 3836357274, "lat": 47.8020064, "lon": 18.9891381, "tags": {"tourism": "viewpoint"}}, {"type": "node", "id": 3839930751, "lat": 47.8366405, "lon": 19.1270766, "tags": {"tourism": "viewpoint"}}, {"type": "node", "id": 3840233712, "lat": 47.9490566, "lon": 18.9482635}, {"type": "node", "id": 3840233713, "lat": 47.9490522, "lon": 18.9482842}, {"type": "node", "id": 3840233714, "lat": 47.9490547, "lon": 18.9483056}, {"type": "node", "id": 3840233715, "lat": 47.9490669, "lon": 18.9482482}, {"type": "node", "id": 3840233716, "lat": 47.9490809, "lon": 18.9482419}, {"type": "node", "id": 3840233717, "lat": 47.9490914, "lon": 18.9483306}, {"type": "node", "id": 3840233718, "lat": 47.9490768, "lon": 18.9483318}, {"type": "node", "id": 3840233719, "lat": 47.9491065, "lon": 18.9482594}, {"type": "node", "id": 3840233720, "lat": 47.9491115, "lon": 18.948301}, {"type": "node", "id": 3840233721, "lat": 47.9491039, "lon": 18.9483195}, {"type": "node", "id": 3840660945, "lat": 47.9490636, "lon": 18.9483227}, {"type": "node", "id": 3840660946, "lat": 47.9490951, "lon": 18.9482459}, {"type": "node", "id": 3840660947, "lat": 47.9491124, "lon": 18.9482793}, {"type": "node", "id": 3925068695, "lat": 47.8282262, "lon": 18.7596323, "tags": {"tourism": "viewpoint"}}, {"type": "node", "id": 4239904023, "lat": 47.8089975, "lon": 18.910797, "tags": {"tourism": "viewpoint"}}, {"type": "node", "id": 4356455896, "lat": 47.8359349, "lon": 19.0520089, "tags": {"tourism": "viewpoint"}}, {"type": "node", "id": 4396817133, "lat": 47.9603001, "lon": 18.9628991, "tags": {"name": "M\u00e1nal\u00e1t\u00f3", "source": "survey", "survey:date": "2017-03-12", "tourism": "viewpoint"}}, {"type": "node", "id": 4450864916, "lat": 47.7945937, "lon": 18.948383, "tags": {"name": "Sz\u00e9p kil\u00e1t\u00e1s!", "tourism": "viewpoint"}}, {"type": "node", "id": 4486134362, "lat": 47.8322427, "lon": 18.7404602, "tags": {"tourism": "viewpoint"}}, {"type": "node", "id": 4545356038, "lat": 47.9438667, "lon": 18.8675972, "tags": {"ele": "610", "name": "G\u00f6rbe-k\u0151 kil\u00e1t\u00e1s", "tourism": "viewpoint"}}, {"type": "node", "id": 4708692601, "lat": 47.7985734, "lon": 18.9153611, "tags": {"tourism": "viewpoint"}}, {"type": "node", "id": 4717322790, "lat": 47.9104484, "lon": 18.8180596, "tags": {"source": "survey", "survey:date": "2017-03-04", "tourism": "viewpoint"}}, {"type": "node", "id": 4737008923, "lat": 47.8751569, "lon": 18.8274741, "tags": {"mapillary": "4552735411423026", "name": "Nagy-Galla", "source": "survey", "survey:date": "2017-03-15", "tourism": "viewpoint"}}, {"type": "node", "id": 4809036720, "lat": 47.8285346, "lon": 19.0626558, "tags": {"is_in": "L\u00f3si-major", "name": "L\u00f3si-v\u00f6lgyi kil\u00e1t\u00e1s", "tourism": "viewpoint"}}, {"type": "node", "id": 4827804892, "lat": 47.7738576, "lon": 18.9809888, "tags": {"source": "survey", "survey:date": "2017-04-30", "tourism": "viewpoint"}}, {"type": "node", "id": 4841227599, "lat": 47.794261, "lon": 18.979653, "tags": {"direction": "280", "name": "Dunakanyar-panor\u00e1ma", "tourism": "viewpoint"}}, {"type": "node", "id": 4841227600, "lat": 47.7943728, "lon": 18.9796007, "tags": {"direction": "290", "name": "Dunakanyar-panor\u00e1ma", "tourism": "viewpoint", "wikidata": "Q110254324"}}, {"type": "node", "id": 4940997655, "lat": 47.8947068, "lon": 18.9111516, "tags": {"description": "vadkemping", "direction": "90-270", "ele": "450", "is_in": "D\u00e9l-B\u00f6rzs\u00f6ny", "name": "panor\u00e1ma-s\u00e1torhely", "sanitary_dump_station": "no", "stars": "0", "tourism": "viewpoint", "url": "http://weberdo.hu/borzsony-foldtan", "wheelchair": "no"}}, {"type": "node", "id": 4992102465, "lat": 47.770973, "lon": 18.9200624, "tags": {"is_in": "Dunakanyar; B\u00f6rzs\u00f6ny; Szent Mih\u00e1ly-hegy", "name": "Remete-barlang", "tourism": "viewpoint"}}, {"type": "node", "id": 5021971546, "lat": 47.8365085, "lon": 18.9869195, "tags": {"tourism": "viewpoint"}}, {"type": "node", "id": 5095053967, "lat": 47.7936765, "lon": 18.9793408, "tags": {"tourism": "viewpoint"}}, {"type": "node", "id": 5167989379, "lat": 47.9865827, "lon": 19.0253068, "tags": {"source": "survey", "survey:date": "2017-10-14", "tourism": "viewpoint"}}, {"type": "node", "id": 5167989385, "lat": 47.9870764, "lon": 19.025907, "tags": {"source": "survey", "survey:date": "2017-10-14", "tourism": "viewpoint"}}, {"type": "node", "id": 5196880700, "lat": 47.9426099, "lon": 18.8646492, "tags": {"source": "survey", "survey:date": "2017-10-28", "tourism": "viewpoint"}}, {"type": "node", "id": 5196880718, "lat": 47.9433825, "lon": 18.8583782, "tags": {"source": "survey", "survey:date": "2017-10-28", "tourism": "viewpoint"}}, {"type": "node", "id": 5196881228, "lat": 47.9418059, "lon": 18.8595664, "tags": {"source": "survey", "survey:date": "2017-10-28", "tourism": "viewpoint"}}, {"type": "node", "id": 5211244460, "lat": 47.7682834, "lon": 19.0051527, "tags": {"tourism": "viewpoint"}}, {"type": "node", "id": 5222447215, "lat": 47.796919, "lon": 18.7463127, "tags": {"name": "Kukl\u00e4nder-domb", "tourism": "viewpoint"}}, {"type": "node", "id": 5316173632, "lat": 47.8271707, "lon": 19.0266452, "tags": {"tourism": "viewpoint"}}, {"type": "node", "id": 5323883866, "lat": 47.7872624, "lon": 18.9832109, "tags": {"name": "korall kil\u00e1t\u00f3hely", "tourism": "viewpoint"}}, {"type": "node", "id": 5528095203, "lat": 48.047037, "lon": 18.9773986, "tags": {"tourism": "viewpoint"}}, {"type": "node", "id": 5557566216, "lat": 48.0157386, "lon": 19.0069042, "tags": {"tourism": "viewpoint"}}, {"type": "node", "id": 5626597554, "lat": 47.8607005, "lon": 19.1336572, "tags": {"tourism": "viewpoint"}}, {"type": "node", "id": 5659423969, "lat": 47.8131329, "lon": 18.8211075, "tags": {"direction": "270-90", "ele": "213", "name": "Hideglel\u0151s-kereszt kil\u00e1t\u00e1s", "source": "survey", "survey:date": "2018-06-02", "tourism": "viewpoint"}}, {"type": "node", "id": 5659423990, "lat": 47.8113235, "lon": 18.824404, "tags": {"source": "survey", "survey:date": "2018-06-02", "tourism": "viewpoint"}}, {"type": "node", "id": 5697433538, "lat": 47.9931151, "lon": 18.9290222, "tags": {"source": "survey", "survey:date": "2018-06-17", "tourism": "viewpoint"}}, {"type": "node", "id": 5731833484, "lat": 47.9664013, "lon": 18.9652947, "tags": {"ele": "680", "name": "Sz\u00e9p kil\u00e1t\u00e1s", "source": "survey", "survey:date": "2018-06-30", "tourism": "viewpoint"}}, {"type": "node", "id": 5760811529, "lat": 47.9696654, "lon": 18.9383107, "tags": {"source": "survey", "survey:date": "2018-07-14", "tourism": "viewpoint"}}, {"type": "node", "id": 5782838106, "lat": 47.8000428, "lon": 18.7349294, "tags": {"tourism": "viewpoint"}}, {"type": "node", "id": 5786616118, "lat": 48.1620317, "lon": 18.9834257, "tags": {"tourism": "viewpoint"}}, {"type": "node", "id": 5812533714, "lat": 47.8270195, "lon": 18.9463869, "tags": {"access": "public", "alt_name": "K\u00f3spallagi \u00fat, T\u00f6r\u00f6kmez\u0151i-Hegyestet\u0151i \u00fat \u00e9szlel\u0151hely", "closest_town": "Nagymaros", "dark_sky": "yes", "description": "21.29 mag/arcsec2; Bortle class 4 darksky; 6,68 magnit\u00fad\u00f36,68 magnit\u00fad\u00f3 az \u00e9gbolt szabad szemes hat\u00e1rf\u00e9nyess\u00e9ge", "direction": "225-160", "ele": "250", "fee": "no", "is_in": "T\u00f6r\u00f6kmez\u0151 fenns\u00edk; Nagymaros;Dunakanyar; D\u00e9l-B\u00f6rzs\u00f6ny", "leisure": "star_gazing", "name": "amat\u0151rcsillag\u00e1sz \u00e9szlel\u0151hely T\u00f6r\u00f6kmez\u0151 (21.29 / 6,7mn darksky)", "ref": "21.29 mag./arc sec2; Bortle class 4; 7,2 magnit\u00fad\u00f3", "seasonal": "no", "source": "survey 2021-07-30", "surface": "grass", "surveillance": "astronomy", "surveillance:type": "viewpoint", "tourism": "viewpoint", "type": "astronomy", "url": "https://www.lightpollutionmap.info/#zoom=17.20&lat=47.8271&lon=18.9463&layers=0BFFFFFFFTFFFFFFFFFFF", "url:darksky": "fenyszennyezes.hu", "url:egkep": "http://egkep.com/?dhyv", "url:mcse": "https://www.mcse.hu/eszlelohelyek/", "website": "http://umap.openstreetmap.fr/hu/map/csillag-terkep_441074#19/47.82691/18.94647"}}, {"type": "node", "id": 5830821951, "lat": 47.8290597, "lon": 19.1185015, "tags": {"direction": "200-320", "ele": "285", "name": "Pilis-B\u00f6rzs\u00f6ny kil\u00e1t\u00f3pont", "tourism": "viewpoint"}}, {"type": "node", "id": 5830822385, "lat": 47.8297206, "lon": 19.1244923, "tags": {"direction": "120-225", "ele": "320", "tourism": "viewpoint"}}, {"type": "node", "id": 5830822391, "lat": 47.8279046, "lon": 19.1209504, "tags": {"direction": "45-270", "ele": "300", "tourism": "viewpoint"}}, {"type": "node", "id": 5869575623, "lat": 47.7837798, "lon": 18.911135, "tags": {"direction": "135-320", "name": "Ker\u00e9kb\u00e1r panor\u00e1ma terasz", "tourism": "viewpoint"}}, {"type": "node", "id": 6041670027, "lat": 47.8363166, "lon": 18.784959, "tags": {"ele": "391", "source": "gps", "tourism": "viewpoint"}}, {"type": "node", "id": 6041670029, "lat": 47.8326836, "lon": 18.8224455, "tags": {"direction": "-185", "source": "gps", "tourism": "viewpoint"}}, {"type": "node", "id": 6240557756, "lat": 47.8337811, "lon": 19.0170518, "tags": {"name": "Nagyszikla", "tourism": "viewpoint"}}, {"type": "node", "id": 6244241648, "lat": 47.8321774, "lon": 18.881004, "tags": {"tourism": "viewpoint"}}, {"type": "node", "id": 6283386693, "lat": 47.8542794, "lon": 18.8666864, "tags": {"is_in": "Cs\u00e1k-hegyi \u201eFeh\u00e9r\u201d d\u00e1cit k\u0151b\u00e1nya", "name": "Cs\u00e1k-hegyi \u201eFeh\u00e9r\u201d d\u00e1cit k\u0151b\u00e1nya kil\u00e1t\u00e1s", "tourism": "viewpoint"}}, {"type": "node", "id": 6313211002, "lat": 47.8519819, "lon": 18.834402, "tags": {"source": "survey", "survey:date": "2019-03-02", "tourism": "viewpoint"}}, {"type": "node", "id": 6373543845, "lat": 47.8759734, "lon": 18.8234706, "tags": {"tourism": "viewpoint"}}, {"type": "node", "id": 6411668085, "lat": 47.7981702, "lon": 18.7273445, "tags": {"tourism": "viewpoint"}}, {"type": "node", "id": 6467013762, "lat": 47.9590753, "lon": 19.0136969, "tags": {"tourism": "viewpoint"}}, {"type": "node", "id": 6718146293, "lat": 47.8859293, "lon": 18.9265788, "tags": {"direction": "112-250", "ele": "340", "is_in": "K\u00f3spallagi K\u00e1lv\u00e1ria; D\u00e9l-B\u00f6rzs\u00f6ny", "name": "K\u00e1lv\u00e1ria panor\u00e1ma", "tourism": "viewpoint"}}, {"type": "node", "id": 6983489687, "lat": 47.8057738, "lon": 19.0923288, "tags": {"tourism": "viewpoint"}}, {"type": "node", "id": 7247755717, "lat": 48.088572, "lon": 19.0302703, "tags": {"man_made": "tower", "name": "Rozh\u013ead\u0148a Vrab\u010dia hora", "tourism": "viewpoint", "tower:type": "observation"}}, {"type": "node", "id": 7504412491, "lat": 47.9746557, "lon": 18.9581913, "tags": {"source": "survey", "survey:date": "2020-05-09", "tourism": "viewpoint"}}, {"type": "node", "id": 7620031917, "lat": 47.796291, "lon": 18.7412149, "tags": {"direction": "110-310", "name": "Szt.Tam\u00e1s-hegyi panor\u00e1ma", "tourism": "viewpoint"}}, {"type": "node", "id": 7822156567, "lat": 47.8479464, "lon": 18.9386862, "tags": {"description": "kil\u00e1t\u00e1s Nagyhideghegyre, Cs\u00f3v\u00e1nyosra", "direction": "270-45", "ele": "230", "is_in": "Dunakanyar; D\u00e9l-B\u00f6rzs\u00f6ny", "name": "kil\u00e1t\u00e1s a Magas-B\u00f6rzs\u00f6nyre", "tourism": "viewpoint", "url": "http://weberdo.hu/borzsony-foldtan"}}, {"type": "node", "id": 7831592213, "lat": 47.8942558, "lon": 18.9814018, "tags": {"description": "V\u00e1r-hegyi kil\u00e1t\u00f3", "man_made": "tower", "material": "wood", "name": "V\u00e1r-hegyi kil\u00e1t\u00f3", "source": "survey", "survey:date": "2020-08-20", "tourism": "viewpoint", "tower:type": "observation"}}, {"type": "node", "id": 8094558417, "lat": 47.8792868, "lon": 19.0356828, "tags": {"name": "Kil\u00e1t\u00f3", "tourism": "viewpoint", "wikidata": "Q110254392"}}, {"type": "node", "id": 8451221778, "lat": 47.9198509, "lon": 18.8692519, "tags": {"ele": "330", "tourism": "viewpoint"}}, {"type": "node", "id": 8895901925, "lat": 48.0319565, "lon": 18.9974427, "tags": {"source": "survey", "tourism": "viewpoint"}}, {"type": "node", "id": 8895966917, "lat": 47.9920928, "lon": 18.9143278, "tags": {"source": "survey", "survey:date": "2021-07-03", "tourism": "viewpoint"}}, {"type": "node", "id": 8968724169, "lat": 47.8490003, "lon": 18.9427163, "tags": {"access": "public", "alt_name": "Toronyalja \u00e9szlel\u0151hely", "closest_town": "K\u00f3spallag", "dark_sky": "yes", "description": "21.42 mag./arc sec2; Bortle class 4; 6,70 magnit\u00fad\u00f3 az \u00e9gbolt szabad szemes hat\u00e1rf\u00e9nyess\u00e9ge", "direction": "200-170", "ele": "205", "fee": "no", "is_in": "P\u00e1los-r\u00e9t;Toronyalja P\u00e1los kolostorrom;K\u00f3spallag;Dunakanyar;D\u00e9l-B\u00f6rzs\u00f6ny", "leisure": "star_gazing", "name": "amat\u0151rcsillag\u00e1sz \u00e9szlel\u0151hely P\u00e1los-r\u00e9t (6,7mn darksky)", "seasonal": "no", "source": "survey 2022-06-04", "surface": "grass", "surveillance": "astronomy", "surveillance:type": "viewpoint", "tourism": "viewpoint", "type": "astronomy", "url": "https://www.lightpollutionmap.info/#zoom=17.22&lat=47.8487&lon=18.9435&layers=0BFFFFFFTFFFFFFFFFFFF&state=eyJtYXJrZXJzIjp7Im1hcmtlcm15TG9jYXRpb24iOlsyMTM4MjE0LDU5NTkzODhdfX0=", "url:darksky": "fenyszennyezes.hu", "url:osm": "http://umap.openstreetmap.fr/hu/map/csillag-terkep_441074#18/47.84862/18.94323", "website": "http://umap.openstreetmap.fr/hu/map/csillag-terkep_441074#18/47.84862/18.94323"}}, {"type": "node", "id": 9123858909, "lat": 47.7699386, "lon": 18.9719752, "tags": {"tourism": "viewpoint"}}, {"type": "node", "id": 9200998180, "lat": 47.9238184, "lon": 18.8921466, "tags": {"source": "survey", "survey:date": "2021-10-24", "tourism": "viewpoint"}}, {"type": "node", "id": 9228616916, "lat": 47.9816587, "lon": 18.9362777, "tags": {"tourism": "viewpoint"}}, {"type": "node", "id": 9228637847, "lat": 48.0011764, "lon": 18.899786, "tags": {"tourism": "viewpoint"}}, {"type": "node", "id": 9228637880, "lat": 48.0107167, "lon": 18.8949074, "tags": {"tourism": "viewpoint"}}, {"type": "node", "id": 9228637881, "lat": 48.0099669, "lon": 18.8934971, "tags": {"tourism": "viewpoint"}}, {"type": "node", "id": 9236461994, "lat": 47.9723495, "lon": 18.9080746, "tags": {"tourism": "viewpoint"}}, {"type": "node", "id": 9236461995, "lat": 47.9729683, "lon": 18.9124111, "tags": {"tourism": "viewpoint"}}, {"type": "node", "id": 9236461996, "lat": 47.9712305, "lon": 18.9141895, "tags": {"tourism": "viewpoint"}}, {"type": "node", "id": 9244523822, "lat": 47.9280097, "lon": 18.9052854, "tags": {"tourism": "viewpoint"}}, {"type": "node", "id": 9316187248, "lat": 47.9706585, "lon": 19.0229117, "tags": {"tourism": "viewpoint"}}, {"type": "node", "id": 9316187441, "lat": 47.9668884, "lon": 18.9784709, "tags": {"name": "Jelesfa", "tourism": "viewpoint"}}, {"type": "node", "id": 9332872377, "lat": 47.8594385, "lon": 18.8477437, "tags": {"tourism": "viewpoint"}}, {"type": "node", "id": 9332872380, "lat": 47.9502846, "lon": 18.9742239, "tags": {"tourism": "viewpoint"}}, {"type": "node", "id": 9332872383, "lat": 47.9477313, "lon": 18.9006138, "tags": {"tourism": "viewpoint"}}, {"type": "node", "id": 9332905105, "lat": 47.9869003, "lon": 18.8951066, "tags": {"tourism": "viewpoint"}}, {"type": "node", "id": 9349636034, "lat": 47.9726931, "lon": 18.9394004, "tags": {"tourism": "viewpoint"}}, {"type": "node", "id": 9370078416, "lat": 47.9901849, "lon": 18.9823405, "tags": {"tourism": "viewpoint"}}, {"type": "node", "id": 9370885130, "lat": 47.948287, "lon": 18.9008281, "tags": {"tourism": "viewpoint"}}, {"type": "node", "id": 9370885131, "lat": 47.9494029, "lon": 18.8979668, "tags": {"ele": "560", "tourism": "viewpoint"}}, {"type": "node", "id": 9370885297, "lat": 47.9412246, "lon": 18.912719, "tags": {"tourism": "viewpoint"}}, {"type": "node", "id": 9386479032, "lat": 48.0014052, "lon": 18.9006772, "tags": {"tourism": "viewpoint"}}, {"type": "node", "id": 9392747500, "lat": 47.8657927, "lon": 18.8643021, "tags": {"tourism": "viewpoint"}}, {"type": "node", "id": 9392747501, "lat": 47.8711059, "lon": 18.8633961, "tags": {"tourism": "viewpoint"}}, {"type": "node", "id": 9416189710, "lat": 47.965932, "lon": 18.9634774, "tags": {"tourism": "viewpoint"}}, {"type": "node", "id": 9484462882, "lat": 47.951341, "lon": 18.8955984, "tags": {"ele": "550", "tourism": "viewpoint"}}, {"type": "node", "id": 9537845385, "lat": 47.9534629, "lon": 18.881169, "tags": {"source": "survey", "survey:date": "2022-02-26", "tourism": "viewpoint"}}, {"type": "node", "id": 9540301392, "lat": 47.9282094, "lon": 18.9027283, "tags": {"source": "survey", "survey:date": "2022-02-26", "tourism": "viewpoint"}}, {"type": "node", "id": 9571071469, "lat": 47.9268609, "lon": 18.8505417, "tags": {"tourism": "viewpoint"}}, {"type": "node", "id": 9579063945, "lat": 47.9598612, "lon": 18.8871465, "tags": {"tourism": "viewpoint"}}, {"type": "node", "id": 9579064049, "lat": 47.9572519, "lon": 18.8921827, "tags": {"tourism": "viewpoint"}}, {"type": "node", "id": 9579064138, "lat": 47.9599775, "lon": 18.894265, "tags": {"tourism": "viewpoint"}}, {"type": "node", "id": 9585511085, "lat": 47.9700393, "lon": 18.9172899, "tags": {"tourism": "viewpoint"}}, {"type": "node", "id": 9586418127, "lat": 47.9869326, "lon": 18.9133757, "tags": {"tourism": "viewpoint"}}, {"type": "node", "id": 9691393422, "lat": 47.9543378, "lon": 18.8498907, "tags": {"tourism": "viewpoint"}}, {"type": "node", "id": 9828814564, "lat": 47.7754031, "lon": 19.0219212, "tags": {"tourism": "viewpoint"}}, {"type": "node", "id": 10050564645, "lat": 47.934045, "lon": 18.8617122, "tags": {"tourism": "viewpoint"}}, {"type": "node", "id": 10091590655, "lat": 47.7983391, "lon": 18.9790232, "tags": {"tourism": "viewpoint"}}, {"type": "node", "id": 10178217985, "lat": 47.7912278, "lon": 18.7967745, "tags": {"tourism": "viewpoint"}}, {"type": "node", "id": 10178217986, "lat": 47.7945577, "lon": 18.7947414, "tags": {"tourism": "viewpoint"}}, {"type": "node", "id": 10178217987, "lat": 47.7675387, "lon": 19.0238571, "tags": {"tourism": "viewpoint"}}, {"type": "node", "id": 10219677784, "lat": 47.9949125, "lon": 18.9556328, "tags": {"tourism": "viewpoint"}}, {"type": "node", "id": 10271992742, "lat": 47.7604969, "lon": 18.5362788, "tags": {"tourism": "viewpoint"}}, {"type": "node", "id": 10308720885, "lat": 47.9771505, "lon": 18.8373341, "tags": {"tourism": "viewpoint"}}, {"type": "way", "id": 235380270, "nodes": [582631741, 2434471922, 2434471924, 2434471927, 2434471930, 2434471931, 2434471928, 2434471925, 582631741], "tags": {"access": "yes", "addr:city": "Visegr\u00e1d", "addr:conscriptionnumber": "0125/20", "addr:postcode": "2025", "addr:street": "Feketehegy utca", "addr:subdistrict": "Pilis-hegys\u00e9g", "addr:suburb": "Nagyvill\u00e1m", "architect": "Hannig;Uzv\u00f6lgyi", "description": "Nev\u00e9t Zsitvay Tiborr\u00f3l (1884-1969) kapta, aki a XX. sz\u00e1zad egyik kiemelked\u0151 szem\u00e9lyis\u00e9ge(Igazs\u00e1g\u00fcgyi Miniszter, Magyar Turista Sz\u00f6vets\u00e9g Eln\u00f6ke", "direction": "0-360", "ele": "378", "fee": "yes", "heritage": "2", "historic": "monument", "man_made": "tower", "material": "reinforced_concrete", "name": "Zsitvay-kil\u00e1t\u00f3", "opening_hours": "Apr 15-Oct 15: Tu-Su 10:00-18:00; Oct 16-Apr 14: Sa-Su 10:00-16:00", "opening_hours:covid19": "closed", "operator": "Pilisi Parkerd\u0151 ZRt", "phone": "+36 70 623 4080", "ref": "M\u0171eml\u00e9ki azonos\u00edt\u00f3: 11692;t\u00f6rzssz\u00e1m: 11175", "source": "survey", "start_date": "1933", "survey:date": "2021-02-21", "tourism": "viewpoint", "tower:construction": "freestanding", "tower:type": "observation", "url": "https://www.visegrad.hu/turizmus/latnivalok/nevezetessegek/zsitvay-kilato", "url:muemlekem": "https://muemlekem.hu/muemlek/show/11692", "website": "https://parkerdo.hu/turizmus/latnivalok/zsitvay-kilato/"}}, {"type": "way", "id": 371166426, "nodes": [3747616553, 3747616554, 3747616555, 3747616556, 3747616557, 3747616558, 3747616540, 3747616541, 3747616542, 3747616547, 3747616548, 3747616549, 3747616550, 3747616551, 3747616552, 3747616543, 3747616544, 3747616545, 3747616546, 3747616553], "tags": {"building": "yes", "description": "\u00c9p\u00edtett\u00e9k megalakul\u00e1suk negyesz\u00e1zados eml\u00e9k\u00e9re a Magyar T\u00farista Sz\u00f6vets\u00e9g t\u00e1mogat\u00e1s\u00e1val Enci\u00e1n Turist\u00e1k. A torony \u00e9p\u00edt\u00e9si ideje a rajta l\u00e9v\u0151 eml\u00e9kk\u0151 alapj\u00e1n 1939. Az als\u00f3 szint 0,00=482,0mBf. Az els\u0151 szint padl\u00f3vonala +4,55=486,55mBf. A kil\u00e1t\u00f3szint padl\u00f3v", "ele": "482", "height": "8", "is_in": "Dunakanyar;B\u00f6rzs\u00f6ny;Szent Mih\u00e1ly-hegy", "man_made": "tower", "material": "concrete, stone", "name": "Julianus-bar\u00e1t kil\u00e1t\u00f3torony", "operator": "Kinizsi Term\u00e9szetbar\u00e1t Egyes\u00fclet Enci\u00e1n szakoszt\u00e1lya", "start_date": "1914-1939", "tourism": "viewpoint", "tower:construction": "stone", "tower:type": "observation", "wikidata": "Q110248983"}}, {"type": "way", "id": 372801449, "nodes": [3763501210, 3763501206, 3763501205, 3763501203, 3763501202, 3763501200, 3763501199, 3763501198, 3763501197, 3763501201, 3763501207, 3764139454, 3763501208, 3763501204, 3763495573, 3763501211, 3763501210], "tags": {"hiking": "yes", "natural": "bare_rock", "tourism": "viewpoint"}}, {"type": "way", "id": 380699331, "nodes": [3840233719, 3840660946, 3840233716, 3840233715, 3840233712, 3840233713, 3840233714, 3840660945, 3840233718, 3840233717, 3840233721, 3840233720, 3840660947, 3840233719], "tags": {"description": "85-3001 sz\u00e1m\u00fa alapponton \u00e9p\u00fclt vasbeton geod\u00e9ziai m\u00e9r\u0151torony. 3,6m \u00e1tm\u00e9r\u0151j\u0171, 24,86 m magas Geod\u00e9ziai V\u00e1llalat \u00e1ltal \u00e9p\u00edtve. Ac\u00e9l szerkezet\u0171 kil\u00e1t\u00f3szintekkel \u00e9s csigal\u00e9pcs\u0151vel kil\u00e1t\u00f3v\u00e1 alak\u00edt\u00e1s 2013-ban.", "ele": "938", "fixme": "A kil\u00e1t\u00f3 als\u00f3 szintje 0,00=938,00 mBf. 1 kil\u00e1t\u00f3szint +4,76=942,76mBf. 2 kil\u00e1t\u00f3szint +10,71=948,71mBf. 3 kil\u00e1t\u00f3szint +16,65=954,65mBf. 4 fels\u0151 kil\u00e1t\u00f3szint +22,61=960,61mBf. Tet\u0151szint +26,12=964,12mBf.", "height": "26", "man_made": "tower", "mapillary": "319043506490800", "material": "concrete", "name": "Cs\u00f3v\u00e1nyosi kil\u00e1t\u00f3", "operator": "F\u00f6mi", "start_date": "1978", "structure": "tube", "tourism": "viewpoint", "tower:type": "observation", "wikidata": "Q110249049", "wikipedia": "hu:Cs\u00f3v\u00e1nyosi kil\u00e1t\u00f3"}}]}