{"version": 0.6, "generator": "Overpass API 0.7.59 e21c39fe", "osm3s": {"timestamp_osm_base": "2023-03-01T08:36:54Z", "copyright": "The data included in this document is from www.openstreetmap.org. The data is made available under ODbL."}, "elements": [{"type": "node", "id": 944516276, "lat": 47.5881738, "lon": 18.4077152, "tags": {"addr:city": "Tatab\u00e1nya", "addr:street": "Panor\u00e1ma \u00fat", "addr:suburb": "B\u00e1nhida", "artist_name": "Don\u00e1th Gyula szobr\u00e1szm\u0171v\u00e9sz;Keviczky Hug\u00f3 (k\u00f6zrem\u0171k\u00f6d\u0151);Madarassy Walter (k\u00f6zrem\u0171k\u00f6d\u0151)", "artwork_subject": "Eur\u00f3pa legnagyobb, madarat \u00e1br\u00e1zol\u00f3 \u00e9rcszobra. 1992-ben fel\u00faj\u00edtva Madarassy Walter szobr\u00e1szm\u0171v\u00e9sz \u00e1ltal.", "artwork_type": "statue", "description": "Nagym\u00e9ret\u0171, kiterjesztett sz\u00e1rny\u00fa, nyitott cs\u0151r\u0171 bronz mad\u00e1r, karmai k\u00f6zt karddal, fej\u00e9n stiliz\u00e1lt, aranyozott, magyar szent koron\u00e1val.", "ele": "300", "heritage": "2", "historic": "yes", "material": "bronze", "memorial": "statue", "name": "Turul eml\u00e9km\u0171", "name:ja": "\u30c6\u30e5\u30eb\u30eb", "name:ru": "\u0422\u0443\u0440\u0443\u043b", "name:uk": "\u0422\u0443\u0440\u0443\u043b", "opening_hours": "24/7", "ref": "M\u0171eml\u00e9ki azonos\u00edt\u00f3: 6477;t\u00f6rzssz\u00e1m: 9671", "reservation": "no", "start_date": "1907", "tourism": "artwork", "url": "https://www.kozterkep.hu/1282/turul-emlekmu", "website": "http://muemlekem.hu/muemlek/show/6477", "wheelchair": "limited", "wikidata": "Q581083", "wikipedia": "en:Turul", "wikipedia:hu": "Turul-eml\u00e9km\u0171 (B\u00e1nhida)"}}, {"type": "node", "id": 2020029472, "lat": 47.6891203, "lon": 18.5181481, "tags": {"alt_name": "P\u00e1los szerzetesek eml\u00e9km\u0171ve", "artist_name": "Kov\u00e1cs Gy\u00f6rgy fert\u0151homoki szobr\u00e1szm\u0171v\u00e9sz", "artwork_subject": "Az el\u0151renyomul\u00f3 t\u00f6r\u00f6k sereg 25 ezer magyart m\u00e9sz\u00e1rolt itt le 1526. szeptember 15-\u00e9n.", "artwork_type": "installation", "ele": "345", "historic": "memorial", "inscription": "\"\u00c9l magyar, \u00e1ll Buda m\u00e9g! a m\u00falt csak p\u00e9lda legyen most S \u00e9gve hon\u00e9rt biztons n\u00e9zzen el\u0151re szem\u00fcnk!\" \"\u00c9s te virulj, gy\u00e1szt\u00e9r! a b\u00e9ke malasztos \u00f6l\u00e9ben, Nemzeti nagyl\u00e9t\u00fcnk hajdani s\u00edrja Moh\u00e1cs\" (Kisfaludy K\u00e1roly)", "is_in": "Ember\u00f6l\u0151-v\u00f6lgy; Pusztamar\u00f3t; Gerecse", "material": "stone", "memorial": "war_memorial", "name": "Pusztamar\u00f3t, t\u00f6rt\u00e9nelmi eml\u00e9khely", "opening_hours": "24/7", "reservation": "no", "start_date": "2003", "tourism": "artwork", "url": "https://www.kozterkep.hu/8485/palos-szerzetesek-emlekmuve#vetito=39029", "url:turatars": "http://www.turatars.com/blog/view/id_1231/title_Emberoles-avagy-a-masodik-Mohacs/", "website": "https://www.turautak.com/cikkek/latnivalok/tortenelmi-emlekhelyek/pusztamarot--tortenelmi-emlekhely--bajot-.html", "wikidata": "Q907215", "wikipedia": "hu:Dobozi Mih\u00e1ly"}}, {"type": "node", "id": 2440309613, "lat": 47.645787, "lon": 18.3188772, "tags": {"artwork_type": "sculpture", "tourism": "artwork"}}, {"type": "node", "id": 2440309614, "lat": 47.6459955, "lon": 18.3187136, "tags": {"artwork_type": "sculpture", "tourism": "artwork"}}, {"type": "node", "id": 2440309615, "lat": 47.6462167, "lon": 18.3185166, "tags": {"artwork_type": "sculpture", "tourism": "artwork"}}, {"type": "node", "id": 2440309712, "lat": 47.6476864, "lon": 18.3186442, "tags": {"artist_name": "T\u00f3th B\u00e9la", "artwork_type": "statue", "memorial": "bust", "name": "\u00d6veges J\u00f3zsef", "start_date": "2002", "tourism": "artwork"}}, {"type": "node", "id": 2446554305, "lat": 47.6499617, "lon": 18.3262045, "tags": {"name": "Modern fresk\u00f3", "tourism": "artwork"}}, {"type": "node", "id": 2693071772, "lat": 47.6614714, "lon": 18.3171957, "tags": {"artwork_type": "sculpture", "name": "Gyerekek hallal", "tourism": "artwork"}}, {"type": "node", "id": 2755172278, "lat": 47.57347, "lon": 18.3693353, "tags": {"artwork_type": "sculpture", "name:it": "Opera d'Arte", "tourism": "artwork"}}, {"type": "node", "id": 2847386391, "lat": 47.6488255, "lon": 18.3250832, "tags": {"artwork_type": "mural", "name": "Sz\u00e9kelykapu", "tourism": "artwork"}}, {"type": "node", "id": 2847386512, "lat": 47.6525472, "lon": 18.3236482, "tags": {"artwork_type": "sculpture", "tourism": "artwork"}}, {"type": "node", "id": 2953573223, "lat": 47.5752327, "lon": 18.0658758, "tags": {"artwork_type": "sculpture", "name": "PostBox", "tourism": "artwork"}}, {"type": "node", "id": 3028544570, "lat": 47.5139039, "lon": 18.4490497, "tags": {"artwork_type": "sculpture", "name": "M\u00e1ria arck\u00e9p \u00e9s kereszt", "tourism": "artwork"}}, {"type": "node", "id": 3071002924, "lat": 47.6420508, "lon": 18.3099726, "tags": {"artwork_type": "sculpture", "name": "K\u0151k\u00fat", "tourism": "artwork"}}, {"type": "node", "id": 3187700393, "lat": 47.5160878, "lon": 18.3049563, "tags": {"artwork_type": "statue", "tourism": "artwork"}}, {"type": "node", "id": 3468026309, "lat": 47.506358, "lon": 18.376536, "tags": {"artwork_type": "statue", "source": "turistautak.hu", "source:date": "2013-01-15", "tourism": "artwork", "url": "http://turistautak.hu/poi.php?id=94573"}}, {"type": "node", "id": 3470068513, "lat": 47.542985, "lon": 18.451676, "tags": {"artwork_type": "statue", "name:it": "Opera D'arte", "source": "turistautak.hu", "source:date": "2011-09-03", "tourism": "artwork", "url": "http://turistautak.hu/poi.php?id=94571"}}, {"type": "node", "id": 3470068559, "lat": 47.586824, "lon": 18.397209, "tags": {"artwork_type": "statue", "source": "turistautak.hu", "source:date": "2013-04-29", "tourism": "artwork", "url": "http://turistautak.hu/poi.php?id=152838"}}, {"type": "node", "id": 3470078969, "lat": 47.649869, "lon": 18.323567, "tags": {"artwork_type": "statue", "source": "turistautak.hu", "source:date": "2011-09-19", "tourism": "artwork", "url": "http://turistautak.hu/poi.php?id=101013", "wheelchair": "yes"}}, {"type": "node", "id": 3470096872, "lat": 47.406253, "lon": 18.00539, "tags": {"artwork_type": "statue", "name": "T\u00e1ncsics Mih\u00e1ly-mellszobor", "source": "turistautak.hu", "source:date": "2011-06-25", "tourism": "artwork", "url": "http://turistautak.hu/poi.php?id=55559"}}, {"type": "node", "id": 3470097558, "lat": 47.406524, "lon": 18.00633, "tags": {"artwork_type": "statue", "description": "A sajt\u00f3szabads\u00e1g jelk\u00e9p\u00e9nek \u00e1ll\u00edtott szobor. Veszpr\u00e9mi Imre alkot\u00e1sa.", "name": "\u0150snyomtat\u00f3", "source": "turistautak.hu", "source:date": "2011-06-25", "tourism": "artwork", "url": "http://turistautak.hu/poi.php?id=116152"}}, {"type": "node", "id": 3471787690, "lat": 47.7351922, "lon": 18.167404, "tags": {"artwork_type": "statue", "name": "Szenth\u00e1roms\u00e1g-szobor", "source": "turistautak.hu", "source:date": "2010-05-02", "tourism": "artwork", "url": "http://turistautak.hu/poi.php?id=2360"}}, {"type": "node", "id": 3471788297, "lat": 47.64155, "lon": 17.979657, "tags": {"artwork_type": "statue", "source": "turistautak.hu", "source:date": "2010-05-05", "tourism": "artwork", "url": "http://turistautak.hu/poi.php?id=83370"}}, {"type": "node", "id": 3487700668, "lat": 47.4878, "lon": 18.316133, "tags": {"artist_name": "Vasas K\u00e1roly", "artwork_type": "sculpture", "name": "B\u00e1ny\u00e1szok", "source": "turistautak.hu", "source:date": "2011-09-03", "start_date": "1976", "tourism": "artwork", "url": "http://turistautak.hu/poi.php?id=103663"}}, {"type": "node", "id": 3609945753, "lat": 47.6381652, "lon": 18.0807416, "tags": {"artwork_type": "statue", "material": "stone", "tourism": "artwork"}}, {"type": "node", "id": 3660098883, "lat": 47.3979513, "lon": 18.4610495, "tags": {"artwork_type": "statue", "name": "Szenth\u00e1roms\u00e1g szobor", "tourism": "artwork"}}, {"type": "node", "id": 3660368270, "lat": 47.4271415, "lon": 18.5304186, "tags": {"artwork_type": "sculpture", "name": "M\u00e1ria szobor", "tourism": "artwork"}}, {"type": "node", "id": 5481338443, "lat": 47.7431014, "lon": 18.1189385, "tags": {"tourism": "artwork"}}, {"type": "node", "id": 6920712908, "lat": 47.3833546, "lon": 18.383345, "tags": {"artist_name": "M\u00e1hr Ferenc", "artwork_type": "statue", "material": "stone", "name": "B\u00facs\u00fa a sz\u00fcl\u0151f\u00f6ldt\u0151l", "start_date": "2016", "tourism": "artwork"}}, {"type": "node", "id": 7579592012, "lat": 47.3721632, "lon": 18.2113939, "tags": {"artwork_type": "statue", "material": "metal", "name": "Vaddiszn\u00f3 szobor", "tourism": "artwork"}}, {"type": "node", "id": 7594623695, "lat": 47.3724954, "lon": 18.2092033, "tags": {"artwork_type": "statue", "tourism": "artwork"}}, {"type": "node", "id": 7597887135, "lat": 47.4299145, "lon": 18.525038, "tags": {"artwork_type": "statue", "tourism": "artwork"}}, {"type": "node", "id": 7597887136, "lat": 47.4299998, "lon": 18.5251218, "tags": {"artwork_type": "statue", "tourism": "artwork"}}, {"type": "node", "id": 7597887137, "lat": 47.4299626, "lon": 18.5250782, "tags": {"artwork_type": "statue", "tourism": "artwork"}}, {"type": "node", "id": 7611584641, "lat": 47.3915667, "lon": 18.4647936, "tags": {"tourism": "artwork"}}, {"type": "node", "id": 8151044372, "lat": 47.6337987, "lon": 18.0478856, "tags": {"artwork_type": "sculpture", "material": "metal", "tourism": "artwork"}}, {"type": "node", "id": 8639553381, "lat": 47.6813604, "lon": 18.0865454, "tags": {"artwork_type": "painting", "historic": "memorial", "tourism": "artwork"}}, {"type": "node", "id": 9055150881, "lat": 47.4925367, "lon": 18.4116222, "tags": {"artwork_subject": "figurative", "artwork_type": "statue", "source": "survey", "survey:date": "2021-08-14", "tourism": "artwork"}}, {"type": "node", "id": 9445004705, "lat": 47.4731219, "lon": 17.9636191, "tags": {"artist_name": "Nyilasi-Gy\u00f6rgy Zolt\u00e1n", "name": "Sz\u00e9kelykapu", "tourism": "artwork"}}, {"type": "node", "id": 9668356205, "lat": 47.6448023, "lon": 18.3406116, "tags": {"name": "Arad 1849 okt\u00f3ber 6", "tourism": "artwork"}}]}