{"version": 0.6, "generator": "Overpass API 0.7.59 e21c39fe", "osm3s": {"timestamp_osm_base": "2023-03-01T09:12:24Z", "copyright": "The data included in this document is from www.openstreetmap.org. The data is made available under ODbL."}, "elements": [{"type": "node", "id": 1326422952, "lat": 46.630678, "lon": 18.6996802, "tags": {"name": "Falum\u00fazeum", "tourism": "museum"}}, {"type": "node", "id": 1326422957, "lat": 46.6356809, "lon": 18.7053241, "tags": {"name": "Pincem\u00fazeum", "tourism": "museum"}}, {"type": "node", "id": 1873211054, "lat": 46.5715635, "lon": 18.9038985, "tags": {"addr:city": "Usz\u00f3d", "addr:housenumber": "5", "addr:postcode": "6332", "addr:street": "Batthy\u00e1ny Lajos utca", "name": "Benedek P\u00e9ter Eml\u00e9kh\u00e1z", "tourism": "museum", "website": "http://uszod.hu/kultura/benedek-peter/"}}, {"type": "node", "id": 3452835550, "lat": 46.605145, "lon": 18.6010901, "tags": {"name": "Iskolam\u00fazeum", "source": "turistautak.hu", "source:date": "2013-08-04", "tourism": "museum", "url": "http://turistautak.hu/poi.php?id=63214"}}, {"type": "node", "id": 3452835551, "lat": 46.682882, "lon": 18.597353, "tags": {"check_date:opening_hours": "2022-08-27", "fee": "yes", "name": "Iskolam\u00fazeum", "opening_hours:signed": "no", "source": "turistautak.hu", "source:date": "2012-10-14", "tourism": "museum", "url": "http://turistautak.hu/poi.php?id=37585", "wheelchair": "no"}}, {"type": "node", "id": 3452835843, "lat": 46.5742911, "lon": 18.849517, "tags": {"contact:fax": "+36 75 506 662", "contact:phone": "+36 75 508 833;+36 75 507 432", "name": "Paksi Atomer\u0151m\u0171 T\u00e1j\u00e9koztat\u00f3- \u00e9s L\u00e1togat\u00f3k\u00f6zpont", "opening_hours": "Mo-Fr 08:00-15:00; Sa 09:00-13:00; PH off", "start_date": "1995", "tourism": "museum"}}, {"type": "node", "id": 3452835846, "lat": 46.618204, "lon": 18.853559, "tags": {"addr:city": "Paks", "addr:housenumber": "2", "addr:postcode": "7030", "addr:street": "Tolnai \u00fat", "name": "Paksi K\u00e9pt\u00e1r", "opening_hours": "Tu-Fr 10:00-18:00; Sa-Su 12:00-18:00", "source": "turistautak.hu", "source:date": "2015-01-12", "tourism": "museum", "url": "http://turistautak.hu/poi.php?id=165738"}}, {"type": "node", "id": 3452835899, "lat": 46.6259761, "lon": 18.6566948, "tags": {"addr:city": "Nagydorog", "addr:housenumber": "51", "addr:postcode": "7044", "addr:street": "Kossuth utca", "alt_name": "Sipka M\u00fazeum", "contact:email": "kalapmuzeum@kalapmuzeum.hu", "description": "A m\u00fazeum l\u00e1togat\u00e1sa bejelentkez\u00e9shez k\u00f6t\u00f6tt", "fee": "no", "name": "Kalap- \u00e9s Sipkam\u00fazeum", "name:de": "Hut und Kappen Museum", "name:en": "Hat museum", "source": "turistautak.hu", "source:date": "2012-01-01", "tourism": "museum", "url": "http://turistautak.hu/poi.php?id=63210", "website": "https://www.kalapmuzeum.hu/"}}, {"type": "node", "id": 3452835939, "lat": 46.627927, "lon": 18.658462, "tags": {"description": "www.nagydorog.hu", "name": "T\u00e1jh\u00e1z", "source": "turistautak.hu", "source:date": "2012-01-01", "tourism": "museum", "url": "http://turistautak.hu/poi.php?id=63209"}}, {"type": "node", "id": 3454478645, "lat": 46.935608, "lon": 18.784227, "tags": {"name": "T\u00e1jh\u00e1z", "source": "turistautak.hu", "source:date": "2012-01-01", "tourism": "museum", "url": "http://turistautak.hu/poi.php?id=61484"}}, {"type": "node", "id": 3465129498, "lat": 46.80928, "lon": 18.592575, "tags": {"name": "Aranyponty Hal\u00e1szati M\u00fazeum", "source": "turistautak.hu", "source:date": "2015-01-12", "tourism": "museum", "url": "http://turistautak.hu/poi.php?id=63555", "website": "https://www.retimajor.hu/hu/taxonomy/term/28"}}, {"type": "node", "id": 3465129587, "lat": 46.88432, "lon": 18.627496, "tags": {"name": "Tompa Mih\u00e1ly Eml\u00e9kh\u00e1z", "source": "turistautak.hu", "source:date": "2012-06-02", "tourism": "museum", "url": "http://turistautak.hu/poi.php?id=139391"}}, {"type": "node", "id": 3465129589, "lat": 46.889293, "lon": 18.622885, "tags": {"description": "S\u00e1rbog\u00e1rdi T\u00e1jh\u00e1z T\u00fary Mikl\u00f3s utca 18.", "name": "T\u00e1jh\u00e1z", "source": "turistautak.hu", "source:date": "2012-05-29", "tourism": "museum", "url": "http://turistautak.hu/poi.php?id=139229"}}, {"type": "node", "id": 3470101910, "lat": 46.692767, "lon": 19.02855, "tags": {"name": "Hartai helyt\u00f6rt\u00e9neti gy\u0171jtem\u00e9ny", "source": "turistautak.hu", "source:date": "2010-11-18", "tourism": "museum", "url": "http://turistautak.hu/poi.php?id=457"}}, {"type": "node", "id": 3770445818, "lat": 46.7401036, "lon": 18.9652041}, {"type": "node", "id": 3770445819, "lat": 46.7402693, "lon": 18.9651305}, {"type": "node", "id": 3770445820, "lat": 46.7402255, "lon": 18.9649205}, {"type": "node", "id": 3770445821, "lat": 46.7400596, "lon": 18.9649941}, {"type": "node", "id": 3770445822, "lat": 46.7400706, "lon": 18.9650471}, {"type": "node", "id": 3770445823, "lat": 46.7401991, "lon": 18.9649901}, {"type": "node", "id": 3770445824, "lat": 46.74022, "lon": 18.9650902}, {"type": "node", "id": 3770445825, "lat": 46.7400917, "lon": 18.9651471}, {"type": "node", "id": 3804825357, "lat": 46.5846664, "lon": 18.8507198}, {"type": "node", "id": 3804825358, "lat": 46.5846645, "lon": 18.8503951}, {"type": "node", "id": 3804825359, "lat": 46.5839954, "lon": 18.8504031}, {"type": "node", "id": 3804825360, "lat": 46.5839972, "lon": 18.8507278}, {"type": "node", "id": 3979090304, "lat": 46.6277932, "lon": 18.866908}, {"type": "node", "id": 3979090305, "lat": 46.6277845, "lon": 18.8668858}, {"type": "node", "id": 3979090306, "lat": 46.6278484, "lon": 18.8668326}, {"type": "node", "id": 3979090307, "lat": 46.6278072, "lon": 18.8667277}, {"type": "node", "id": 3979090308, "lat": 46.6274333, "lon": 18.8670389}, {"type": "node", "id": 3979090309, "lat": 46.6274832, "lon": 18.8671661}, {"type": "node", "id": 4512081288, "lat": 46.5840255, "lon": 18.8504027}, {"type": "node", "id": 5274863405, "lat": 46.9518786, "lon": 18.9454796}, {"type": "node", "id": 6398729427, "lat": 46.6437349, "lon": 18.9981199, "tags": {"name": "Pataji M\u00fazeum", "tourism": "museum"}}, {"type": "node", "id": 7599641318, "lat": 46.9528768, "lon": 18.9437208}, {"type": "node", "id": 7599641319, "lat": 46.9520035, "lon": 18.9437878}, {"type": "node", "id": 7599641320, "lat": 46.9516235, "lon": 18.9453033}, {"type": "node", "id": 7839290400, "lat": 46.916566, "lon": 18.9713568}, {"type": "node", "id": 7839290401, "lat": 46.9166466, "lon": 18.9715915}, {"type": "node", "id": 7839290402, "lat": 46.9167021, "lon": 18.9715507}, {"type": "node", "id": 7839290403, "lat": 46.9166214, "lon": 18.971316}, {"type": "node", "id": 10037762635, "lat": 46.5575899, "lon": 18.5903878}, {"type": "node", "id": 10037762636, "lat": 46.5573818, "lon": 18.590356}, {"type": "node", "id": 10037762637, "lat": 46.5573563, "lon": 18.5904834}, {"type": "node", "id": 10037762638, "lat": 46.5573891, "lon": 18.5905206}, {"type": "node", "id": 10037762639, "lat": 46.5573855, "lon": 18.5906321}, {"type": "node", "id": 10037762640, "lat": 46.557422, "lon": 18.5906321}, {"type": "node", "id": 10037762641, "lat": 46.5574366, "lon": 18.5905471}, {"type": "node", "id": 10037762642, "lat": 46.5575242, "lon": 18.5905524}, {"type": "node", "id": 10037762643, "lat": 46.5575133, "lon": 18.5906586}, {"type": "node", "id": 10037762644, "lat": 46.5575644, "lon": 18.5906746}, {"type": "way", "id": 373604164, "nodes": [3770445818, 3770445819, 3770445820, 3770445821, 3770445822, 3770445823, 3770445824, 3770445825, 3770445818], "tags": {"addr:city": "B\u00f6lcske", "addr:housenumber": "3", "addr:postcode": "7025", "addr:street": "Paksi utca", "building": "yes", "name": "R\u00f3mai Kori K\u0151t\u00e1r", "tourism": "museum"}}, {"type": "way", "id": 377119450, "nodes": [3804825357, 3804825358, 4512081288, 3804825359, 3804825360, 3804825357], "tags": {"building": "yes", "name": "Atomenergetikai M\u00fazeum", "operator": "Paksi Atomer\u00f6m\u0171 ZRT.", "tourism": "museum", "website": "http://muzeum.atomeromu.hu/"}}, {"type": "way", "id": 395022597, "nodes": [3979090304, 3979090305, 3979090306, 3979090307, 3979090308, 3979090309, 3979090304], "tags": {"addr:city": "Paks", "addr:housenumber": "2", "addr:postcode": "7030", "addr:street": "De\u00e1k Ferenc utca", "building": "yes", "name": "V\u00e1rosi M\u00fazeum Paks", "opening_hours": "May-Sep: Tu 10:00-16:00; May-Sep: We-Su 10:00-18:00; Oct-Apr: Tu 10:00-16:00; Oct-Apr: We-Su 10:00-17:00", "tourism": "museum"}}, {"type": "way", "id": 813583209, "nodes": [5274863405, 7599641320, 7599641319, 7599641318, 5274863405], "tags": {"exhibit": "science", "name": "Ipart\u00f6rt\u00e9neti skanzen", "tourism": "museum"}}, {"type": "way", "id": 840090284, "nodes": [7839290403, 7839290402, 7839290401, 7839290400, 7839290403], "tags": {"building": "yes", "name": "Helyt\u00f6rt\u00e9neti M\u00fazeum (Pet\u0151fi-eml\u00e9kh\u00e1z)", "source": "turistautak.hu", "source:date": "2013-10-02", "tourism": "museum", "url": "http://turistautak.hu/poi.php?id=114893"}}, {"type": "way", "id": 1096089716, "nodes": [10037762635, 10037762636, 10037762637, 10037762638, 10037762639, 10037762640, 10037762641, 10037762642, 10037762643, 10037762644, 10037762635], "tags": {"building": "yes", "name": "Pet\u0151fi Eml\u00e9km\u00e9hes Ki\u00e1ll\u00edt\u00e1s", "tourism": "museum"}}]}